<?xml version="1.0" encoding="UTF-8"?>
<gpx creator="https://gpx.studio" version="1.1" xmlns="http://www.topografix.com/GPX/1/1" xmlns:xsi="http://www.w3.org/2001/XMLSchema-instance" xsi:schemaLocation="http://www.topografix.com/GPX/1/1 http://www.topografix.com/GPX/1/1/gpx.xsd http://www.garmin.com/xmlschemas/GpxExtensions/v3 http://www.garmin.com/xmlschemas/GpxExtensionsv3.xsd http://www.garmin.com/xmlschemas/TrackPointExtension/v1 http://www.garmin.com/xmlschemas/TrackPointExtensionv1.xsd http://www.garmin.com/xmlschemas/PowerExtension/v1 http://www.garmin.com/xmlschemas/PowerExtensionv1.xsd http://www.topografix.com/GPX/gpx_style/0/2 http://www.topografix.com/GPX/gpx_style/0/2/gpx_style.xsd" xmlns:gpxtpx="http://www.garmin.com/xmlschemas/TrackPointExtension/v1" xmlns:gpxx="http://www.garmin.com/xmlschemas/GpxExtensions/v3" xmlns:gpxpx="http://www.garmin.com/xmlschemas/PowerExtension/v1" xmlns:gpx_style="http://www.topografix.com/GPX/gpx_style/0/2">
  <metadata>
    <name>YOLO 갈맷길 8코스</name>
    <author>
      <name>gpx.studio</name>
      <link href="https://gpx.studio"/>
    </author>
  </metadata>
  <trk>
    <name>YOLO 갈맷길 8코스</name>
    <trkseg>
      <trkpt lat="35.127339" lon="129.004181">
        <ele>293.67</ele>
      </trkpt>
      <trkpt lat="35.12734" lon="129.004179">
        <ele>293.69</ele>
      </trkpt>
      <trkpt lat="35.127625" lon="129.003943">
        <ele>295.61</ele>
      </trkpt>
      <trkpt lat="35.127648" lon="129.003817">
        <ele>296.64</ele>
      </trkpt>
      <trkpt lat="35.127629" lon="129.00368">
        <ele>296.57</ele>
      </trkpt>
      <trkpt lat="35.127557" lon="129.003568">
        <ele>297.94</ele>
      </trkpt>
      <trkpt lat="35.127363" lon="129.003262">
        <ele>300.7</ele>
      </trkpt>
      <trkpt lat="35.127155" lon="129.00298">
        <ele>304.83</ele>
      </trkpt>
      <trkpt lat="35.127063" lon="129.002911">
        <ele>307.63</ele>
      </trkpt>
      <trkpt lat="35.127052" lon="129.002903">
        <ele>307.98</ele>
      </trkpt>
      <trkpt lat="35.126986" lon="129.003023">
        <ele>311.04</ele>
      </trkpt>
      <trkpt lat="35.126992" lon="129.003434">
        <ele>313.28</ele>
      </trkpt>
      <trkpt lat="35.126972" lon="129.003613">
        <ele>312.69</ele>
      </trkpt>
      <trkpt lat="35.12685" lon="129.00375">
        <ele>314.03</ele>
      </trkpt>
      <trkpt lat="35.126664" lon="129.003898">
        <ele>315.24</ele>
      </trkpt>
      <trkpt lat="35.126537" lon="129.004029">
        <ele>314.76</ele>
      </trkpt>
      <trkpt lat="35.126358" lon="129.00415">
        <ele>315.42</ele>
      </trkpt>
      <trkpt lat="35.126284" lon="129.004139">
        <ele>316.86</ele>
      </trkpt>
      <trkpt lat="35.126243" lon="129.004099">
        <ele>318.62</ele>
      </trkpt>
      <trkpt lat="35.126231" lon="129.004005">
        <ele>321.52</ele>
      </trkpt>
      <trkpt lat="35.126443" lon="129.003678">
        <ele>325.94</ele>
      </trkpt>
      <trkpt lat="35.126548" lon="129.003493">
        <ele>326.08</ele>
      </trkpt>
      <trkpt lat="35.126543" lon="129.003397">
        <ele>326.26</ele>
      </trkpt>
      <trkpt lat="35.126543" lon="129.003385">
        <ele>326.28</ele>
      </trkpt>
      <trkpt lat="35.126467" lon="129.003294">
        <ele>327.85</ele>
      </trkpt>
      <trkpt lat="35.12631" lon="129.003275">
        <ele>331.98</ele>
      </trkpt>
      <trkpt lat="35.125835" lon="129.003503">
        <ele>342.06</ele>
      </trkpt>
      <trkpt lat="35.125613" lon="129.003605">
        <ele>344.64</ele>
      </trkpt>
      <trkpt lat="35.125446" lon="129.003613">
        <ele>347.07</ele>
      </trkpt>
      <trkpt lat="35.12533" lon="129.003562">
        <ele>349.19</ele>
      </trkpt>
      <trkpt lat="35.125282" lon="129.003505">
        <ele>351.26</ele>
      </trkpt>
      <trkpt lat="35.125258" lon="129.003444">
        <ele>353.36</ele>
      </trkpt>
      <trkpt lat="35.125281" lon="129.003361">
        <ele>356.37</ele>
      </trkpt>
      <trkpt lat="35.125384" lon="129.003345">
        <ele>356.23</ele>
      </trkpt>
      <trkpt lat="35.125542" lon="129.003298">
        <ele>355.09</ele>
      </trkpt>
      <trkpt lat="35.125564" lon="129.003268">
        <ele>355.33</ele>
      </trkpt>
      <trkpt lat="35.125596" lon="129.003224">
        <ele>355.7</ele>
      </trkpt>
      <trkpt lat="35.125752" lon="129.002787">
        <ele>357.9</ele>
      </trkpt>
      <trkpt lat="35.125796" lon="129.002621">
        <ele>358.25</ele>
      </trkpt>
      <trkpt lat="35.125777" lon="129.002449">
        <ele>360.82</ele>
      </trkpt>
      <trkpt lat="35.125723" lon="129.002243">
        <ele>364.54</ele>
      </trkpt>
      <trkpt lat="35.125687" lon="129.002041">
        <ele>368.14</ele>
      </trkpt>
      <trkpt lat="35.125664" lon="129.001776">
        <ele>371.94</ele>
      </trkpt>
      <trkpt lat="35.125658" lon="129.001406">
        <ele>378.45</ele>
      </trkpt>
      <trkpt lat="35.12571" lon="129.001143">
        <ele>381.57</ele>
      </trkpt>
      <trkpt lat="35.125744" lon="129.000883">
        <ele>387.68</ele>
      </trkpt>
      <trkpt lat="35.125818" lon="129.000762">
        <ele>389.86</ele>
      </trkpt>
      <trkpt lat="35.125957" lon="129.000706">
        <ele>389.03</ele>
      </trkpt>
      <trkpt lat="35.126196" lon="129.000674">
        <ele>385.17</ele>
      </trkpt>
      <trkpt lat="35.126228" lon="129.000571">
        <ele>387.34</ele>
      </trkpt>
      <trkpt lat="35.12627" lon="129.00033">
        <ele>393.66</ele>
      </trkpt>
      <trkpt lat="35.12637" lon="128.999973">
        <ele>401.95</ele>
      </trkpt>
      <trkpt lat="35.126737" lon="128.999435">
        <ele>404.59</ele>
      </trkpt>
      <trkpt lat="35.126853" lon="128.999215">
        <ele>402.16</ele>
      </trkpt>
      <trkpt lat="35.126847" lon="128.999178">
        <ele>402.3</ele>
      </trkpt>
      <trkpt lat="35.126843" lon="128.999156">
        <ele>402.38</ele>
      </trkpt>
      <trkpt lat="35.126663" lon="128.998967">
        <ele>407.1</ele>
      </trkpt>
      <trkpt lat="35.126473" lon="128.998934">
        <ele>412.54</ele>
      </trkpt>
      <trkpt lat="35.126059" lon="128.998849">
        <ele>420.42</ele>
      </trkpt>
      <trkpt lat="35.12577" lon="128.998764">
        <ele>424.76</ele>
      </trkpt>
      <trkpt lat="35.125445" lon="128.998688">
        <ele>426.75</ele>
      </trkpt>
      <trkpt lat="35.125189" lon="128.998605">
        <ele>429.94</ele>
      </trkpt>
      <trkpt lat="35.124792" lon="128.998592">
        <ele>443.7</ele>
      </trkpt>
      <trkpt lat="35.124678" lon="128.998524">
        <ele>444.54</ele>
      </trkpt>
      <trkpt lat="35.124449" lon="128.998297">
        <ele>442.67</ele>
      </trkpt>
      <trkpt lat="35.124277" lon="128.998233">
        <ele>446.75</ele>
      </trkpt>
      <trkpt lat="35.123953" lon="128.998137">
        <ele>455.72</ele>
      </trkpt>
      <trkpt lat="35.123829" lon="128.997984">
        <ele>455.17</ele>
      </trkpt>
      <trkpt lat="35.123715" lon="128.997791">
        <ele>455.12</ele>
      </trkpt>
      <trkpt lat="35.12351" lon="128.997657">
        <ele>463.01</ele>
      </trkpt>
      <trkpt lat="35.123396" lon="128.997373">
        <ele>463.76</ele>
      </trkpt>
      <trkpt lat="35.123295" lon="128.997259">
        <ele>465.36</ele>
      </trkpt>
      <trkpt lat="35.123218" lon="128.997221">
        <ele>466.45</ele>
      </trkpt>
      <trkpt lat="35.123171" lon="128.997215">
        <ele>466.55</ele>
      </trkpt>
      <trkpt lat="35.123097" lon="128.997207">
        <ele>466.7</ele>
      </trkpt>
      <trkpt lat="35.122839" lon="128.997295">
        <ele>464.75</ele>
      </trkpt>
      <trkpt lat="35.122708" lon="128.997325">
        <ele>462.67</ele>
      </trkpt>
      <trkpt lat="35.122593" lon="128.997383">
        <ele>461.4</ele>
      </trkpt>
      <trkpt lat="35.122306" lon="128.997559">
        <ele>458.41</ele>
      </trkpt>
      <trkpt lat="35.122187" lon="128.997615">
        <ele>457.02</ele>
      </trkpt>
      <trkpt lat="35.121935" lon="128.99766">
        <ele>453.36</ele>
      </trkpt>
      <trkpt lat="35.121744" lon="128.997774">
        <ele>454.13</ele>
      </trkpt>
      <trkpt lat="35.121645" lon="128.997751">
        <ele>451.8</ele>
      </trkpt>
      <trkpt lat="35.121661" lon="128.99775">
        <ele>451.99</ele>
      </trkpt>
      <trkpt lat="35.121719" lon="128.997666">
        <ele>449.35</ele>
      </trkpt>
      <trkpt lat="35.1219" lon="128.997493">
        <ele>446.63</ele>
      </trkpt>
      <trkpt lat="35.122005" lon="128.997344">
        <ele>444.4</ele>
      </trkpt>
      <trkpt lat="35.122182" lon="128.997186">
        <ele>444.79</ele>
      </trkpt>
      <trkpt lat="35.122287" lon="128.996977">
        <ele>444.08</ele>
      </trkpt>
      <trkpt lat="35.122304" lon="128.996606">
        <ele>440.89</ele>
      </trkpt>
      <trkpt lat="35.122347" lon="128.996196">
        <ele>439.11</ele>
      </trkpt>
      <trkpt lat="35.122209" lon="128.99537">
        <ele>430.7</ele>
      </trkpt>
      <trkpt lat="35.122194" lon="128.995141">
        <ele>430.47</ele>
      </trkpt>
      <trkpt lat="35.12204" lon="128.994836">
        <ele>426.69</ele>
      </trkpt>
      <trkpt lat="35.12195" lon="128.99447">
        <ele>426.69</ele>
      </trkpt>
      <trkpt lat="35.121823" lon="128.994388">
        <ele>423.49</ele>
      </trkpt>
      <trkpt lat="35.121514" lon="128.994229">
        <ele>416.28</ele>
      </trkpt>
      <trkpt lat="35.1215" lon="128.994199">
        <ele>415.89</ele>
      </trkpt>
      <trkpt lat="35.121444" lon="128.994079">
        <ele>414.33</ele>
      </trkpt>
      <trkpt lat="35.121458" lon="128.993807">
        <ele>413.02</ele>
      </trkpt>
      <trkpt lat="35.121521" lon="128.993626">
        <ele>412.74</ele>
      </trkpt>
      <trkpt lat="35.121615" lon="128.993432">
        <ele>411.19</ele>
      </trkpt>
      <trkpt lat="35.121768" lon="128.993243">
        <ele>411.09</ele>
      </trkpt>
      <trkpt lat="35.121868" lon="128.992931">
        <ele>407.94</ele>
      </trkpt>
      <trkpt lat="35.121918" lon="128.99269">
        <ele>406.02</ele>
      </trkpt>
      <trkpt lat="35.121935" lon="128.99248">
        <ele>403.25</ele>
      </trkpt>
      <trkpt lat="35.121937" lon="128.99231">
        <ele>400.27</ele>
      </trkpt>
      <trkpt lat="35.121987" lon="128.992241">
        <ele>400.58</ele>
      </trkpt>
      <trkpt lat="35.122129" lon="128.992137">
        <ele>402.79</ele>
      </trkpt>
      <trkpt lat="35.122299" lon="128.992084">
        <ele>405.65</ele>
      </trkpt>
      <trkpt lat="35.122507" lon="128.992008">
        <ele>406.65</ele>
      </trkpt>
      <trkpt lat="35.122759" lon="128.991944">
        <ele>407.28</ele>
      </trkpt>
      <trkpt lat="35.12293" lon="128.991831">
        <ele>404.91</ele>
      </trkpt>
      <trkpt lat="35.123128" lon="128.991625">
        <ele>398.87</ele>
      </trkpt>
      <trkpt lat="35.123474" lon="128.991441">
        <ele>397.98</ele>
      </trkpt>
      <trkpt lat="35.123515" lon="128.991409">
        <ele>397.95</ele>
      </trkpt>
      <trkpt lat="35.123557" lon="128.991354">
        <ele>398.19</ele>
      </trkpt>
      <trkpt lat="35.12352" lon="128.991218">
        <ele>398.41</ele>
      </trkpt>
      <trkpt lat="35.123557" lon="128.991354">
        <ele>398.19</ele>
      </trkpt>
      <trkpt lat="35.123605" lon="128.990994">
        <ele>402.93</ele>
      </trkpt>
      <trkpt lat="35.123654" lon="128.990633">
        <ele>411.48</ele>
      </trkpt>
      <trkpt lat="35.123578" lon="128.990226">
        <ele>420.71</ele>
      </trkpt>
      <trkpt lat="35.123619" lon="128.989984">
        <ele>426.25</ele>
      </trkpt>
      <trkpt lat="35.12366" lon="128.989743">
        <ele>428.73</ele>
      </trkpt>
      <trkpt lat="35.123689" lon="128.989384">
        <ele>431.23</ele>
      </trkpt>
      <trkpt lat="35.123684" lon="128.989356">
        <ele>431.32</ele>
      </trkpt>
      <trkpt lat="35.123684" lon="128.989356">
        <ele>431.32</ele>
      </trkpt>
      <trkpt lat="35.123493" lon="128.988191">
        <ele>434.82</ele>
      </trkpt>
      <trkpt lat="35.123479" lon="128.987902">
        <ele>435.52</ele>
      </trkpt>
      <trkpt lat="35.123416" lon="128.987699">
        <ele>434.5</ele>
      </trkpt>
      <trkpt lat="35.123301" lon="128.987482">
        <ele>432.52</ele>
      </trkpt>
      <trkpt lat="35.123205" lon="128.987184">
        <ele>432.31</ele>
      </trkpt>
      <trkpt lat="35.12304" lon="128.986847">
        <ele>429.02</ele>
      </trkpt>
      <trkpt lat="35.122961" lon="128.986748">
        <ele>427.93</ele>
      </trkpt>
      <trkpt lat="35.122798" lon="128.986643">
        <ele>427.16</ele>
      </trkpt>
      <trkpt lat="35.122352" lon="128.986584">
        <ele>426.17</ele>
      </trkpt>
      <trkpt lat="35.12232248597059" lon="128.9865698013588">
        <ele>426.2928421607436</ele>
      </trkpt>
      <trkpt lat="35.122323" lon="128.98657">
        <ele>426.29</ele>
      </trkpt>
      <trkpt lat="35.122167" lon="128.986495">
        <ele>426.94</ele>
      </trkpt>
      <trkpt lat="35.121963" lon="128.986278">
        <ele>429.85</ele>
      </trkpt>
      <trkpt lat="35.121808" lon="128.986042">
        <ele>429.83</ele>
      </trkpt>
      <trkpt lat="35.121734" lon="128.985712">
        <ele>429.63</ele>
      </trkpt>
      <trkpt lat="35.121698" lon="128.985473">
        <ele>427.27</ele>
      </trkpt>
      <trkpt lat="35.121768" lon="128.985205">
        <ele>426.33</ele>
      </trkpt>
      <trkpt lat="35.121855" lon="128.984932">
        <ele>425.29</ele>
      </trkpt>
      <trkpt lat="35.121842" lon="128.98491">
        <ele>425.1</ele>
      </trkpt>
      <trkpt lat="35.121885" lon="128.984991">
        <ele>426.07</ele>
      </trkpt>
      <trkpt lat="35.121954" lon="128.98532">
        <ele>430.43</ele>
      </trkpt>
      <trkpt lat="35.122032" lon="128.985654">
        <ele>436</ele>
      </trkpt>
      <trkpt lat="35.122216" lon="128.985917">
        <ele>436.85</ele>
      </trkpt>
      <trkpt lat="35.122357" lon="128.985992">
        <ele>435.41</ele>
      </trkpt>
      <trkpt lat="35.122798" lon="128.986643">
        <ele>427.16</ele>
      </trkpt>
      <trkpt lat="35.122858" lon="128.986679">
        <ele>427.34</ele>
      </trkpt>
      <trkpt lat="35.122927" lon="128.986915">
        <ele>426.89</ele>
      </trkpt>
      <trkpt lat="35.122945" lon="128.987158">
        <ele>426.19</ele>
      </trkpt>
      <trkpt lat="35.123" lon="128.987418">
        <ele>424.73</ele>
      </trkpt>
      <trkpt lat="35.123032" lon="128.987603">
        <ele>424.1</ele>
      </trkpt>
      <trkpt lat="35.123031" lon="128.987827">
        <ele>421.79</ele>
      </trkpt>
      <trkpt lat="35.123063" lon="128.987955">
        <ele>422</ele>
      </trkpt>
      <trkpt lat="35.123139" lon="128.98811">
        <ele>423.68</ele>
      </trkpt>
      <trkpt lat="35.123097" lon="128.988229">
        <ele>421.79</ele>
      </trkpt>
      <trkpt lat="35.12305" lon="128.988318">
        <ele>419.58</ele>
      </trkpt>
      <trkpt lat="35.122964" lon="128.988449">
        <ele>416.02</ele>
      </trkpt>
      <trkpt lat="35.12288" lon="128.988666">
        <ele>412.37</ele>
      </trkpt>
      <trkpt lat="35.122791" lon="128.98897">
        <ele>408.58</ele>
      </trkpt>
      <trkpt lat="35.122784" lon="128.989132">
        <ele>406.84</ele>
      </trkpt>
      <trkpt lat="35.122771" lon="128.989249">
        <ele>405.02</ele>
      </trkpt>
      <trkpt lat="35.122795" lon="128.989417">
        <ele>403.92</ele>
      </trkpt>
      <trkpt lat="35.122885" lon="128.989785">
        <ele>402.39</ele>
      </trkpt>
      <trkpt lat="35.122967" lon="128.990182">
        <ele>400</ele>
      </trkpt>
      <trkpt lat="35.122938" lon="128.990141">
        <ele>399.41</ele>
      </trkpt>
      <trkpt lat="35.122938" lon="128.990141">
        <ele>399.41</ele>
      </trkpt>
      <trkpt lat="35.122408" lon="128.989403">
        <ele>388.84</ele>
      </trkpt>
      <trkpt lat="35.122221" lon="128.989143">
        <ele>383.59</ele>
      </trkpt>
      <trkpt lat="35.122131" lon="128.988683">
        <ele>381.83</ele>
      </trkpt>
      <trkpt lat="35.122055" lon="128.988357">
        <ele>378.99</ele>
      </trkpt>
      <trkpt lat="35.121972" lon="128.988108">
        <ele>378.3</ele>
      </trkpt>
      <trkpt lat="35.121931" lon="128.988035">
        <ele>378.14</ele>
      </trkpt>
      <trkpt lat="35.121855" lon="128.988035">
        <ele>376.19</ele>
      </trkpt>
      <trkpt lat="35.121562" lon="128.988084">
        <ele>369.31</ele>
      </trkpt>
      <trkpt lat="35.121324" lon="128.988047">
        <ele>367.2</ele>
      </trkpt>
      <trkpt lat="35.120896" lon="128.987897">
        <ele>362.6</ele>
      </trkpt>
      <trkpt lat="35.120693" lon="128.987649">
        <ele>360.94</ele>
      </trkpt>
      <trkpt lat="35.120501" lon="128.987488">
        <ele>356.85</ele>
      </trkpt>
      <trkpt lat="35.120284" lon="128.987271">
        <ele>352.61</ele>
      </trkpt>
      <trkpt lat="35.120021" lon="128.986983">
        <ele>348.07</ele>
      </trkpt>
      <trkpt lat="35.119747" lon="128.986594">
        <ele>342.63</ele>
      </trkpt>
      <trkpt lat="35.119679" lon="128.986394">
        <ele>340.84</ele>
      </trkpt>
      <trkpt lat="35.119686" lon="128.98603">
        <ele>340.66</ele>
      </trkpt>
      <trkpt lat="35.119596" lon="128.985701">
        <ele>337.75</ele>
      </trkpt>
      <trkpt lat="35.119442" lon="128.985501">
        <ele>334.84</ele>
      </trkpt>
      <trkpt lat="35.119221" lon="128.985266">
        <ele>332.04</ele>
      </trkpt>
      <trkpt lat="35.118873" lon="128.984933">
        <ele>328.92</ele>
      </trkpt>
      <trkpt lat="35.118561" lon="128.984843">
        <ele>323.85</ele>
      </trkpt>
      <trkpt lat="35.118256" lon="128.984803">
        <ele>318.76</ele>
      </trkpt>
      <trkpt lat="35.118002" lon="128.984711">
        <ele>316.41</ele>
      </trkpt>
      <trkpt lat="35.11764" lon="128.984552">
        <ele>312.38</ele>
      </trkpt>
      <trkpt lat="35.117369" lon="128.984555">
        <ele>306.49</ele>
      </trkpt>
      <trkpt lat="35.117028" lon="128.984351">
        <ele>304.42</ele>
      </trkpt>
      <trkpt lat="35.116845" lon="128.984237">
        <ele>301.42</ele>
      </trkpt>
      <trkpt lat="35.11647" lon="128.983927">
        <ele>294.69</ele>
      </trkpt>
      <trkpt lat="35.11627" lon="128.98368">
        <ele>294.39</ele>
      </trkpt>
      <trkpt lat="35.116193" lon="128.983624">
        <ele>293.88</ele>
      </trkpt>
      <trkpt lat="35.116014" lon="128.98353">
        <ele>292.49</ele>
      </trkpt>
      <trkpt lat="35.115819" lon="128.983459">
        <ele>291.23</ele>
      </trkpt>
      <trkpt lat="35.115753" lon="128.983466">
        <ele>290.13</ele>
      </trkpt>
      <trkpt lat="35.115819" lon="128.983459">
        <ele>291.23</ele>
      </trkpt>
      <trkpt lat="35.115796" lon="128.983473">
        <ele>290.22</ele>
      </trkpt>
      <trkpt lat="35.115786" lon="128.98349">
        <ele>289.28</ele>
      </trkpt>
      <trkpt lat="35.115791" lon="128.983528">
        <ele>287.71</ele>
      </trkpt>
      <trkpt lat="35.115968" lon="128.983675">
        <ele>285.49</ele>
      </trkpt>
      <trkpt lat="35.11611" lon="128.983809">
        <ele>284.26</ele>
      </trkpt>
      <trkpt lat="35.116237" lon="128.984023">
        <ele>282.06</ele>
      </trkpt>
      <trkpt lat="35.116342" lon="128.984305">
        <ele>279.24</ele>
      </trkpt>
      <trkpt lat="35.116424" lon="128.984462">
        <ele>279.31</ele>
      </trkpt>
      <trkpt lat="35.116624" lon="128.98477">
        <ele>278.08</ele>
      </trkpt>
      <trkpt lat="35.116843" lon="128.985277">
        <ele>272.13</ele>
      </trkpt>
      <trkpt lat="35.116954" lon="128.985634">
        <ele>266.92</ele>
      </trkpt>
      <trkpt lat="35.116935" lon="128.985692">
        <ele>264.87</ele>
      </trkpt>
      <trkpt lat="35.116909" lon="128.985714">
        <ele>263.43</ele>
      </trkpt>
      <trkpt lat="35.116844" lon="128.985694">
        <ele>261.61</ele>
      </trkpt>
      <trkpt lat="35.11679" lon="128.985638">
        <ele>260.9</ele>
      </trkpt>
      <trkpt lat="35.116656" lon="128.985371">
        <ele>263.01</ele>
      </trkpt>
      <trkpt lat="35.11629" lon="128.985061">
        <ele>258.62</ele>
      </trkpt>
      <trkpt lat="35.115737" lon="128.984646">
        <ele>250.57</ele>
      </trkpt>
      <trkpt lat="35.115562" lon="128.984592">
        <ele>247.08</ele>
      </trkpt>
      <trkpt lat="35.115515" lon="128.984587">
        <ele>246.49</ele>
      </trkpt>
      <trkpt lat="35.115477" lon="128.984608">
        <ele>245.36</ele>
      </trkpt>
      <trkpt lat="35.115484" lon="128.984669">
        <ele>243.8</ele>
      </trkpt>
      <trkpt lat="35.115522" lon="128.984726">
        <ele>243.04</ele>
      </trkpt>
      <trkpt lat="35.115613" lon="128.984814">
        <ele>243.11</ele>
      </trkpt>
      <trkpt lat="35.115697" lon="128.984953">
        <ele>242.26</ele>
      </trkpt>
      <trkpt lat="35.115871" lon="128.985293">
        <ele>240.59</ele>
      </trkpt>
      <trkpt lat="35.116" lon="128.985621">
        <ele>237.35</ele>
      </trkpt>
      <trkpt lat="35.116193" lon="128.986145">
        <ele>228.66</ele>
      </trkpt>
      <trkpt lat="35.116311" lon="128.986249">
        <ele>227.61</ele>
      </trkpt>
      <trkpt lat="35.116456" lon="128.986302">
        <ele>229.39</ele>
      </trkpt>
      <trkpt lat="35.116519" lon="128.986359">
        <ele>229.8</ele>
      </trkpt>
      <trkpt lat="35.116553" lon="128.986428">
        <ele>229.22</ele>
      </trkpt>
      <trkpt lat="35.116574" lon="128.98649">
        <ele>228.72</ele>
      </trkpt>
      <trkpt lat="35.116537" lon="128.986539">
        <ele>226.52</ele>
      </trkpt>
      <trkpt lat="35.116386" lon="128.986453">
        <ele>223.3</ele>
      </trkpt>
      <trkpt lat="35.116239" lon="128.986436">
        <ele>220.64</ele>
      </trkpt>
      <trkpt lat="35.116142" lon="128.986447">
        <ele>218.26</ele>
      </trkpt>
      <trkpt lat="35.116029" lon="128.986404">
        <ele>217.91</ele>
      </trkpt>
      <trkpt lat="35.115787" lon="128.986242">
        <ele>216.83</ele>
      </trkpt>
      <trkpt lat="35.115619" lon="128.986052">
        <ele>215.77</ele>
      </trkpt>
      <trkpt lat="35.115538" lon="128.985973">
        <ele>215.04</ele>
      </trkpt>
      <trkpt lat="35.115429" lon="128.985946">
        <ele>212.73</ele>
      </trkpt>
      <trkpt lat="35.115362" lon="128.985955">
        <ele>211.52</ele>
      </trkpt>
      <trkpt lat="35.115367" lon="128.986025">
        <ele>209.77</ele>
      </trkpt>
      <trkpt lat="35.115553" lon="128.986337">
        <ele>207.98</ele>
      </trkpt>
      <trkpt lat="35.115753" lon="128.986644">
        <ele>205.23</ele>
      </trkpt>
      <trkpt lat="35.115786" lon="128.986714">
        <ele>203.9</ele>
      </trkpt>
      <trkpt lat="35.115778" lon="128.986765">
        <ele>202.23</ele>
      </trkpt>
      <trkpt lat="35.115727" lon="128.98677">
        <ele>201.03</ele>
      </trkpt>
      <trkpt lat="35.115281" lon="128.986669">
        <ele>192.29</ele>
      </trkpt>
      <trkpt lat="35.115069" lon="128.986525">
        <ele>189.84</ele>
      </trkpt>
      <trkpt lat="35.114941" lon="128.986508">
        <ele>187.72</ele>
      </trkpt>
      <trkpt lat="35.114734" lon="128.986507">
        <ele>185.47</ele>
      </trkpt>
      <trkpt lat="35.11457" lon="128.986466">
        <ele>183</ele>
      </trkpt>
      <trkpt lat="35.114352" lon="128.986371">
        <ele>178.82</ele>
      </trkpt>
      <trkpt lat="35.114236" lon="128.98631">
        <ele>176.36</ele>
      </trkpt>
      <trkpt lat="35.114168" lon="128.986235">
        <ele>176.85</ele>
      </trkpt>
      <trkpt lat="35.113761" lon="128.986076">
        <ele>171.99</ele>
      </trkpt>
      <trkpt lat="35.11359" lon="128.986062">
        <ele>166.76</ele>
      </trkpt>
      <trkpt lat="35.113412" lon="128.986006">
        <ele>164.05</ele>
      </trkpt>
      <trkpt lat="35.113114" lon="128.985973">
        <ele>157.48</ele>
      </trkpt>
      <trkpt lat="35.112863" lon="128.985912">
        <ele>154.05</ele>
      </trkpt>
      <trkpt lat="35.112859" lon="128.985911">
        <ele>153.99</ele>
      </trkpt>
      <trkpt lat="35.112831" lon="128.985846">
        <ele>154.2</ele>
      </trkpt>
      <trkpt lat="35.112813" lon="128.985757">
        <ele>154.46</ele>
      </trkpt>
      <trkpt lat="35.112798" lon="128.985727">
        <ele>154.45</ele>
      </trkpt>
      <trkpt lat="35.112786" lon="128.985654">
        <ele>155.03</ele>
      </trkpt>
      <trkpt lat="35.112768" lon="128.985606">
        <ele>154.9</ele>
      </trkpt>
      <trkpt lat="35.112758" lon="128.985516">
        <ele>156.59</ele>
      </trkpt>
      <trkpt lat="35.112724" lon="128.985437">
        <ele>156.9</ele>
      </trkpt>
      <trkpt lat="35.112679" lon="128.985376">
        <ele>156.44</ele>
      </trkpt>
      <trkpt lat="35.112637" lon="128.985361">
        <ele>154.91</ele>
      </trkpt>
      <trkpt lat="35.112456" lon="128.985222">
        <ele>149.34</ele>
      </trkpt>
      <trkpt lat="35.112399" lon="128.985226">
        <ele>146.69</ele>
      </trkpt>
      <trkpt lat="35.112332" lon="128.985213">
        <ele>143.93</ele>
      </trkpt>
      <trkpt lat="35.112237" lon="128.985185">
        <ele>140.59</ele>
      </trkpt>
      <trkpt lat="35.112016" lon="128.985141">
        <ele>135.54</ele>
      </trkpt>
      <trkpt lat="35.111893" lon="128.984993">
        <ele>133.89</ele>
      </trkpt>
      <trkpt lat="35.11182" lon="128.985037">
        <ele>133.8</ele>
      </trkpt>
      <trkpt lat="35.111792" lon="128.985071">
        <ele>133.94</ele>
      </trkpt>
      <trkpt lat="35.111784" lon="128.985062">
        <ele>133.8</ele>
      </trkpt>
    </trkseg>
  </trk>
</gpx>
