<?xml version="1.0" encoding="UTF-8"?>
<gpx creator="https://gpx.studio" version="1.1" xmlns="http://www.topografix.com/GPX/1/1" xmlns:xsi="http://www.w3.org/2001/XMLSchema-instance" xsi:schemaLocation="http://www.topografix.com/GPX/1/1 http://www.topografix.com/GPX/1/1/gpx.xsd http://www.garmin.com/xmlschemas/GpxExtensions/v3 http://www.garmin.com/xmlschemas/GpxExtensionsv3.xsd http://www.garmin.com/xmlschemas/TrackPointExtension/v1 http://www.garmin.com/xmlschemas/TrackPointExtensionv1.xsd http://www.garmin.com/xmlschemas/PowerExtension/v1 http://www.garmin.com/xmlschemas/PowerExtensionv1.xsd http://www.topografix.com/GPX/gpx_style/0/2 http://www.topografix.com/GPX/gpx_style/0/2/gpx_style.xsd" xmlns:gpxtpx="http://www.garmin.com/xmlschemas/TrackPointExtension/v1" xmlns:gpxx="http://www.garmin.com/xmlschemas/GpxExtensions/v3" xmlns:gpxpx="http://www.garmin.com/xmlschemas/PowerExtension/v1" xmlns:gpx_style="http://www.topografix.com/GPX/gpx_style/0/2">
  <metadata>
    <name>YOLO 갈맷길 5코스(2-2완주형)</name>
    <author>
      <name>gpx.studio</name>
      <link href="https://gpx.studio"/>
    </author>
  </metadata>
  <trk>
    <name>YOLO 갈맷길 5코스(2-2완주형)</name>
    <trkseg>
      <trkpt lat="35.146028" lon="129.114846">
        <ele>7.14</ele>
      </trkpt>
      <trkpt lat="35.146047" lon="129.11492">
        <ele>6.85</ele>
      </trkpt>
      <trkpt lat="35.146016" lon="129.116372">
        <ele>6.14</ele>
      </trkpt>
      <trkpt lat="35.146012" lon="129.116585">
        <ele>6.32</ele>
      </trkpt>
      <trkpt lat="35.145994" lon="129.11758">
        <ele>2.65</ele>
      </trkpt>
      <trkpt lat="35.145974" lon="129.117633">
        <ele>2.34</ele>
      </trkpt>
      <trkpt lat="35.145922" lon="129.11766">
        <ele>2.5</ele>
      </trkpt>
      <trkpt lat="35.14303" lon="129.117603">
        <ele>3.09</ele>
      </trkpt>
      <trkpt lat="35.14193" lon="129.117582">
        <ele>1.19</ele>
      </trkpt>
      <trkpt lat="35.140067" lon="129.117545">
        <ele>2.71</ele>
      </trkpt>
      <trkpt lat="35.14" lon="129.117504">
        <ele>2.77</ele>
      </trkpt>
      <trkpt lat="35.139966" lon="129.117437">
        <ele>3.3</ele>
      </trkpt>
      <trkpt lat="35.139737" lon="129.116473">
        <ele>3.5</ele>
      </trkpt>
      <trkpt lat="35.13952" lon="129.115527">
        <ele>4.93</ele>
      </trkpt>
      <trkpt lat="35.139493" lon="129.11525">
        <ele>4.98</ele>
      </trkpt>
      <trkpt lat="35.13947" lon="129.115151">
        <ele>4.96</ele>
      </trkpt>
      <trkpt lat="35.139406" lon="129.115059">
        <ele>5</ele>
      </trkpt>
      <trkpt lat="35.13912" lon="129.114765">
        <ele>4.32</ele>
      </trkpt>
      <trkpt lat="35.139079" lon="129.114669">
        <ele>4.03</ele>
      </trkpt>
      <trkpt lat="35.139024" lon="129.114599">
        <ele>3.99</ele>
      </trkpt>
      <trkpt lat="35.13851" lon="129.114061">
        <ele>2.1</ele>
      </trkpt>
      <trkpt lat="35.137118" lon="129.112606">
        <ele>0.66</ele>
      </trkpt>
      <trkpt lat="35.136741" lon="129.112211">
        <ele>0.87</ele>
      </trkpt>
      <trkpt lat="35.136364" lon="129.111817">
        <ele>4.66</ele>
      </trkpt>
      <trkpt lat="35.136306" lon="129.11182">
        <ele>5.41</ele>
      </trkpt>
      <trkpt lat="35.136246" lon="129.111866">
        <ele>6.24</ele>
      </trkpt>
      <trkpt lat="35.136213" lon="129.11182">
        <ele>6.65</ele>
      </trkpt>
      <trkpt lat="35.136171" lon="129.111792">
        <ele>7.1</ele>
      </trkpt>
      <trkpt lat="35.135871" lon="129.111885">
        <ele>9.05</ele>
      </trkpt>
      <trkpt lat="35.135755" lon="129.11205">
        <ele>7.68</ele>
      </trkpt>
      <trkpt lat="35.135647" lon="129.112094">
        <ele>5.44</ele>
      </trkpt>
      <trkpt lat="35.135611" lon="129.111917">
        <ele>5.48</ele>
      </trkpt>
      <trkpt lat="35.135568" lon="129.111798">
        <ele>5.14</ele>
      </trkpt>
      <trkpt lat="35.135538" lon="129.111772">
        <ele>4.86</ele>
      </trkpt>
      <trkpt lat="35.135479" lon="129.111795">
        <ele>4.44</ele>
      </trkpt>
      <trkpt lat="35.135399" lon="129.111873">
        <ele>4.11</ele>
      </trkpt>
      <trkpt lat="35.135058" lon="129.112302">
        <ele>2.75</ele>
      </trkpt>
      <trkpt lat="35.1348" lon="129.11267">
        <ele>3.51</ele>
      </trkpt>
      <trkpt lat="35.133503" lon="129.114848">
        <ele>3</ele>
      </trkpt>
      <trkpt lat="35.13299" lon="129.115712">
        <ele>5.13</ele>
      </trkpt>
      <trkpt lat="35.132673" lon="129.116249">
        <ele>3.7</ele>
      </trkpt>
      <trkpt lat="35.13245" lon="129.116539">
        <ele>4.73</ele>
      </trkpt>
      <trkpt lat="35.132219" lon="129.116738">
        <ele>5</ele>
      </trkpt>
      <trkpt lat="35.131878" lon="129.116963">
        <ele>4</ele>
      </trkpt>
      <trkpt lat="35.131502" lon="129.117108">
        <ele>3</ele>
      </trkpt>
      <trkpt lat="35.131235" lon="129.117147">
        <ele>3.12</ele>
      </trkpt>
      <trkpt lat="35.130821" lon="129.11713">
        <ele>1.77</ele>
      </trkpt>
      <trkpt lat="35.130556" lon="129.117048">
        <ele>1.75</ele>
      </trkpt>
      <trkpt lat="35.130438" lon="129.116999">
        <ele>2.03</ele>
      </trkpt>
      <trkpt lat="35.130314" lon="129.117492">
        <ele>6.19</ele>
      </trkpt>
      <trkpt lat="35.130646" lon="129.118304">
        <ele>6.48</ele>
      </trkpt>
      <trkpt lat="35.130977" lon="129.119116">
        <ele>11.28</ele>
      </trkpt>
      <trkpt lat="35.131118" lon="129.119371">
        <ele>12.33</ele>
      </trkpt>
      <trkpt lat="35.131264" lon="129.119558">
        <ele>13.35</ele>
      </trkpt>
      <trkpt lat="35.131463" lon="129.11975">
        <ele>13.27</ele>
      </trkpt>
      <trkpt lat="35.131911" lon="129.120144">
        <ele>13.05</ele>
      </trkpt>
      <trkpt lat="35.132156" lon="129.120416">
        <ele>13.08</ele>
      </trkpt>
      <trkpt lat="35.132271" lon="129.120643">
        <ele>10.16</ele>
      </trkpt>
      <trkpt lat="35.132218" lon="129.120741">
        <ele>10.54</ele>
      </trkpt>
      <trkpt lat="35.132069" lon="129.120721">
        <ele>16.31</ele>
      </trkpt>
      <trkpt lat="35.13196" lon="129.120784">
        <ele>20.51</ele>
      </trkpt>
      <trkpt lat="35.13187" lon="129.120914">
        <ele>21.81</ele>
      </trkpt>
      <trkpt lat="35.131811" lon="129.120964">
        <ele>22.41</ele>
      </trkpt>
      <trkpt lat="35.131759" lon="129.121091">
        <ele>18.68</ele>
      </trkpt>
      <trkpt lat="35.131642" lon="129.121199">
        <ele>14.74</ele>
      </trkpt>
      <trkpt lat="35.131538" lon="129.121212">
        <ele>14.59</ele>
      </trkpt>
      <trkpt lat="35.131436" lon="129.121206">
        <ele>14.39</ele>
      </trkpt>
      <trkpt lat="35.131436" lon="129.121206">
        <ele>14.4</ele>
      </trkpt>
      <trkpt lat="35.131395" lon="129.121203">
        <ele>14.32</ele>
      </trkpt>
      <trkpt lat="35.131272" lon="129.121071">
        <ele>18.14</ele>
      </trkpt>
      <trkpt lat="35.131098" lon="129.120871">
        <ele>20.36</ele>
      </trkpt>
      <trkpt lat="35.131044" lon="129.120811">
        <ele>20.11</ele>
      </trkpt>
      <trkpt lat="35.130897" lon="129.120744">
        <ele>19.65</ele>
      </trkpt>
      <trkpt lat="35.130804" lon="129.120786">
        <ele>19.39</ele>
      </trkpt>
      <trkpt lat="35.130634" lon="129.120737">
        <ele>18.96</ele>
      </trkpt>
      <trkpt lat="35.130549" lon="129.120771">
        <ele>18.73</ele>
      </trkpt>
      <trkpt lat="35.13051" lon="129.120864">
        <ele>18.44</ele>
      </trkpt>
      <trkpt lat="35.13028" lon="129.120979">
        <ele>14.13</ele>
      </trkpt>
      <trkpt lat="35.130271" lon="129.121046">
        <ele>14.59</ele>
      </trkpt>
      <trkpt lat="35.130254" lon="129.121095">
        <ele>14.92</ele>
      </trkpt>
      <trkpt lat="35.130167" lon="129.121106">
        <ele>15.34</ele>
      </trkpt>
      <trkpt lat="35.130145" lon="129.121169">
        <ele>15.79</ele>
      </trkpt>
      <trkpt lat="35.129924" lon="129.121311">
        <ele>18.07</ele>
      </trkpt>
      <trkpt lat="35.129865" lon="129.121407">
        <ele>16.25</ele>
      </trkpt>
      <trkpt lat="35.129697" lon="129.121652">
        <ele>13.89</ele>
      </trkpt>
      <trkpt lat="35.129659" lon="129.121647">
        <ele>13.76</ele>
      </trkpt>
      <trkpt lat="35.129617" lon="129.121767">
        <ele>13.45</ele>
      </trkpt>
      <trkpt lat="35.129541" lon="129.12188">
        <ele>13.07</ele>
      </trkpt>
      <trkpt lat="35.129444" lon="129.121924">
        <ele>12.78</ele>
      </trkpt>
      <trkpt lat="35.129203" lon="129.121923">
        <ele>12.07</ele>
      </trkpt>
      <trkpt lat="35.128757" lon="129.121998">
        <ele>14.86</ele>
      </trkpt>
      <trkpt lat="35.128681" lon="129.121996">
        <ele>14.69</ele>
      </trkpt>
      <trkpt lat="35.128594" lon="129.121897">
        <ele>14.47</ele>
      </trkpt>
      <trkpt lat="35.128227" lon="129.121899">
        <ele>13.8</ele>
      </trkpt>
      <trkpt lat="35.128105" lon="129.122308">
        <ele>13.35</ele>
      </trkpt>
      <trkpt lat="35.127997" lon="129.122486">
        <ele>13.21</ele>
      </trkpt>
      <trkpt lat="35.127894" lon="129.122462">
        <ele>13.06</ele>
      </trkpt>
      <trkpt lat="35.127846" lon="129.122347">
        <ele>12.86</ele>
      </trkpt>
      <trkpt lat="35.127777" lon="129.122274">
        <ele>12.66</ele>
      </trkpt>
      <trkpt lat="35.127627" lon="129.122087">
        <ele>21.63</ele>
      </trkpt>
      <trkpt lat="35.127578" lon="129.122095">
        <ele>20.9</ele>
      </trkpt>
      <trkpt lat="35.127528" lon="129.122156">
        <ele>17.16</ele>
      </trkpt>
      <trkpt lat="35.12748" lon="129.122193">
        <ele>14.27</ele>
      </trkpt>
      <trkpt lat="35.127335" lon="129.122115">
        <ele>16.23</ele>
      </trkpt>
      <trkpt lat="35.127279" lon="129.122042">
        <ele>20.07</ele>
      </trkpt>
      <trkpt lat="35.12721" lon="129.122055">
        <ele>19.22</ele>
      </trkpt>
      <trkpt lat="35.127075" lon="129.122254">
        <ele>8.48</ele>
      </trkpt>
      <trkpt lat="35.126861" lon="129.122338">
        <ele>4.95</ele>
      </trkpt>
      <trkpt lat="35.126655" lon="129.122415">
        <ele>3.99</ele>
      </trkpt>
      <trkpt lat="35.126476" lon="129.122391">
        <ele>5.98</ele>
      </trkpt>
      <trkpt lat="35.126189" lon="129.1225">
        <ele>5.58</ele>
      </trkpt>
      <trkpt lat="35.126076" lon="129.122582">
        <ele>4.92</ele>
      </trkpt>
      <trkpt lat="35.125833" lon="129.122724">
        <ele>4.49</ele>
      </trkpt>
      <trkpt lat="35.125591" lon="129.122867">
        <ele>6.33</ele>
      </trkpt>
      <trkpt lat="35.125336" lon="129.122977">
        <ele>10.01</ele>
      </trkpt>
      <trkpt lat="35.125244" lon="129.123041">
        <ele>10.93</ele>
      </trkpt>
      <trkpt lat="35.12515" lon="129.123177">
        <ele>9.54</ele>
      </trkpt>
      <trkpt lat="35.125069" lon="129.123213">
        <ele>10.29</ele>
      </trkpt>
      <trkpt lat="35.124817" lon="129.123192">
        <ele>13.13</ele>
      </trkpt>
      <trkpt lat="35.124678" lon="129.123243">
        <ele>11.99</ele>
      </trkpt>
      <trkpt lat="35.124485" lon="129.123287">
        <ele>12.09</ele>
      </trkpt>
      <trkpt lat="35.12434" lon="129.123445">
        <ele>9.71</ele>
      </trkpt>
      <trkpt lat="35.1242" lon="129.123524">
        <ele>9.12</ele>
      </trkpt>
      <trkpt lat="35.123852" lon="129.123528">
        <ele>9.07</ele>
      </trkpt>
      <trkpt lat="35.123565" lon="129.123444">
        <ele>10.8</ele>
      </trkpt>
      <trkpt lat="35.123397" lon="129.123441">
        <ele>11.34</ele>
      </trkpt>
      <trkpt lat="35.123272" lon="129.123661">
        <ele>6.53</ele>
      </trkpt>
      <trkpt lat="35.122647" lon="129.124037">
        <ele>4.99</ele>
      </trkpt>
      <trkpt lat="35.122454" lon="129.124197">
        <ele>7.66</ele>
      </trkpt>
      <trkpt lat="35.122381" lon="129.124504">
        <ele>7.43</ele>
      </trkpt>
      <trkpt lat="35.122298" lon="129.124857">
        <ele>4.57</ele>
      </trkpt>
      <trkpt lat="35.121965" lon="129.12511">
        <ele>5.24</ele>
      </trkpt>
      <trkpt lat="35.121864" lon="129.125046">
        <ele>7.4</ele>
      </trkpt>
      <trkpt lat="35.121706" lon="129.125109">
        <ele>6.98</ele>
      </trkpt>
      <trkpt lat="35.12162" lon="129.125117">
        <ele>7.48</ele>
      </trkpt>
      <trkpt lat="35.121535" lon="129.124974">
        <ele>13.16</ele>
      </trkpt>
      <trkpt lat="35.121374" lon="129.125118">
        <ele>11.78</ele>
      </trkpt>
      <trkpt lat="35.121324" lon="129.125437">
        <ele>6.89</ele>
      </trkpt>
      <trkpt lat="35.121098" lon="129.125653">
        <ele>8.87</ele>
      </trkpt>
      <trkpt lat="35.120422" lon="129.126301">
        <ele>7.61</ele>
      </trkpt>
      <trkpt lat="35.120201" lon="129.126391">
        <ele>10.05</ele>
      </trkpt>
      <trkpt lat="35.119759" lon="129.126571">
        <ele>18.39</ele>
      </trkpt>
      <trkpt lat="35.119594" lon="129.126549">
        <ele>25</ele>
      </trkpt>
      <trkpt lat="35.119337" lon="129.126695">
        <ele>25.66</ele>
      </trkpt>
      <trkpt lat="35.119125" lon="129.126947">
        <ele>20.8</ele>
      </trkpt>
      <trkpt lat="35.118912" lon="129.127199">
        <ele>19.6</ele>
      </trkpt>
      <trkpt lat="35.118539" lon="129.127454">
        <ele>24.62</ele>
      </trkpt>
      <trkpt lat="35.118269" lon="129.127443">
        <ele>33.08</ele>
      </trkpt>
      <trkpt lat="35.118021" lon="129.127573">
        <ele>36.8</ele>
      </trkpt>
      <trkpt lat="35.117843" lon="129.127647">
        <ele>42.07</ele>
      </trkpt>
      <trkpt lat="35.117686" lon="129.127639">
        <ele>46.82</ele>
      </trkpt>
      <trkpt lat="35.117551" lon="129.127612">
        <ele>50.64</ele>
      </trkpt>
      <trkpt lat="35.1175" lon="129.127601">
        <ele>51.08</ele>
      </trkpt>
      <trkpt lat="35.117316" lon="129.127537">
        <ele>52.56</ele>
      </trkpt>
      <trkpt lat="35.117202" lon="129.127564">
        <ele>48.19</ele>
      </trkpt>
      <trkpt lat="35.116912" lon="129.127263">
        <ele>49.45</ele>
      </trkpt>
      <trkpt lat="35.116605" lon="129.127226">
        <ele>37.14</ele>
      </trkpt>
      <trkpt lat="35.116271" lon="129.127172">
        <ele>31.19</ele>
      </trkpt>
      <trkpt lat="35.116013" lon="129.127196">
        <ele>21.22</ele>
      </trkpt>
      <trkpt lat="35.115883" lon="129.127109">
        <ele>22.7</ele>
      </trkpt>
      <trkpt lat="35.115688" lon="129.127186">
        <ele>21.16</ele>
      </trkpt>
      <trkpt lat="35.115582" lon="129.12741">
        <ele>20.02</ele>
      </trkpt>
      <trkpt lat="35.115513" lon="129.127664">
        <ele>18.06</ele>
      </trkpt>
      <trkpt lat="35.115366" lon="129.127834">
        <ele>18.05</ele>
      </trkpt>
      <trkpt lat="35.115214" lon="129.127977">
        <ele>17.73</ele>
      </trkpt>
      <trkpt lat="35.115008" lon="129.128031">
        <ele>19.24</ele>
      </trkpt>
      <trkpt lat="35.114917" lon="129.127978">
        <ele>21.49</ele>
      </trkpt>
      <trkpt lat="35.114797" lon="129.127959">
        <ele>20.24</ele>
      </trkpt>
      <trkpt lat="35.114704" lon="129.127801">
        <ele>22.76</ele>
      </trkpt>
      <trkpt lat="35.114659" lon="129.127641">
        <ele>25.16</ele>
      </trkpt>
      <trkpt lat="35.114686" lon="129.127314">
        <ele>35.93</ele>
      </trkpt>
      <trkpt lat="35.114621" lon="129.127096">
        <ele>38.18</ele>
      </trkpt>
      <trkpt lat="35.11443" lon="129.127166">
        <ele>27.64</ele>
      </trkpt>
      <trkpt lat="35.114239" lon="129.127236">
        <ele>19.16</ele>
      </trkpt>
      <trkpt lat="35.113788" lon="129.12706">
        <ele>19.85</ele>
      </trkpt>
      <trkpt lat="35.11372" lon="129.126994">
        <ele>22.18</ele>
      </trkpt>
      <trkpt lat="35.113637" lon="129.126878">
        <ele>27.88</ele>
      </trkpt>
      <trkpt lat="35.11341" lon="129.126872">
        <ele>21.93</ele>
      </trkpt>
      <trkpt lat="35.113165" lon="129.126854">
        <ele>19.22</ele>
      </trkpt>
      <trkpt lat="35.113094" lon="129.126872">
        <ele>18.12</ele>
      </trkpt>
      <trkpt lat="35.112973" lon="129.126949">
        <ele>14.45</ele>
      </trkpt>
      <trkpt lat="35.112842" lon="129.12693">
        <ele>15.98</ele>
      </trkpt>
      <trkpt lat="35.112798" lon="129.126951">
        <ele>15.67</ele>
      </trkpt>
      <trkpt lat="35.11275" lon="129.127048">
        <ele>12.91</ele>
      </trkpt>
      <trkpt lat="35.112427" lon="129.127198">
        <ele>17.3</ele>
      </trkpt>
      <trkpt lat="35.112376" lon="129.127542">
        <ele>7.9</ele>
      </trkpt>
      <trkpt lat="35.112284" lon="129.127394">
        <ele>16.72</ele>
      </trkpt>
      <trkpt lat="35.11217" lon="129.127365">
        <ele>23.77</ele>
      </trkpt>
      <trkpt lat="35.112007" lon="129.127243">
        <ele>37.49</ele>
      </trkpt>
      <trkpt lat="35.11169" lon="129.127211">
        <ele>50.88</ele>
      </trkpt>
      <trkpt lat="35.111545" lon="129.127338">
        <ele>47.89</ele>
      </trkpt>
      <trkpt lat="35.111275" lon="129.127377">
        <ele>54.07</ele>
      </trkpt>
      <trkpt lat="35.11114" lon="129.127547">
        <ele>45.29</ele>
      </trkpt>
      <trkpt lat="35.11097" lon="129.127596">
        <ele>43.21</ele>
      </trkpt>
      <trkpt lat="35.110831" lon="129.127636">
        <ele>38.72</ele>
      </trkpt>
      <trkpt lat="35.110762" lon="129.127446">
        <ele>49.27</ele>
      </trkpt>
      <trkpt lat="35.110688" lon="129.127237">
        <ele>56.03</ele>
      </trkpt>
      <trkpt lat="35.110536" lon="129.127043">
        <ele>56.65</ele>
      </trkpt>
      <trkpt lat="35.110393" lon="129.126812">
        <ele>63.36</ele>
      </trkpt>
      <trkpt lat="35.11025" lon="129.126796">
        <ele>60.21</ele>
      </trkpt>
      <trkpt lat="35.110071" lon="129.126654">
        <ele>67.4</ele>
      </trkpt>
      <trkpt lat="35.109996" lon="129.126798">
        <ele>54.71</ele>
      </trkpt>
      <trkpt lat="35.109925" lon="129.126861">
        <ele>47.9</ele>
      </trkpt>
      <trkpt lat="35.109819" lon="129.1269">
        <ele>42.52</ele>
      </trkpt>
      <trkpt lat="35.109663" lon="129.127011">
        <ele>30.49</ele>
      </trkpt>
      <trkpt lat="35.109568" lon="129.126976">
        <ele>31.83</ele>
      </trkpt>
      <trkpt lat="35.109379" lon="129.126838">
        <ele>39.93</ele>
      </trkpt>
      <trkpt lat="35.10919" lon="129.1267">
        <ele>44.69</ele>
      </trkpt>
      <trkpt lat="35.108995" lon="129.126536">
        <ele>46.87</ele>
      </trkpt>
      <trkpt lat="35.1088" lon="129.126372">
        <ele>45.4</ele>
      </trkpt>
      <trkpt lat="35.108481" lon="129.125813">
        <ele>49.66</ele>
      </trkpt>
      <trkpt lat="35.1084" lon="129.125825">
        <ele>45.55</ele>
      </trkpt>
      <trkpt lat="35.108164" lon="129.126016">
        <ele>31.88</ele>
      </trkpt>
      <trkpt lat="35.107931" lon="129.126015">
        <ele>33.52</ele>
      </trkpt>
      <trkpt lat="35.107578" lon="129.125857">
        <ele>48.46</ele>
      </trkpt>
      <trkpt lat="35.107269" lon="129.125515">
        <ele>70.47</ele>
      </trkpt>
      <trkpt lat="35.107082" lon="129.125082">
        <ele>90.42</ele>
      </trkpt>
      <trkpt lat="35.106892" lon="129.124788">
        <ele>99.3</ele>
      </trkpt>
      <trkpt lat="35.106814" lon="129.124525">
        <ele>107.66</ele>
      </trkpt>
      <trkpt lat="35.106827" lon="129.124326">
        <ele>117.31</ele>
      </trkpt>
      <trkpt lat="35.106733" lon="129.123984">
        <ele>127.38</ele>
      </trkpt>
      <trkpt lat="35.106498" lon="129.123889">
        <ele>128.14</ele>
      </trkpt>
      <trkpt lat="35.106259" lon="129.123924">
        <ele>123.92</ele>
      </trkpt>
      <trkpt lat="35.106064" lon="129.123787">
        <ele>128.21</ele>
      </trkpt>
      <trkpt lat="35.105619" lon="129.123689">
        <ele>123.14</ele>
      </trkpt>
      <trkpt lat="35.105457" lon="129.123544">
        <ele>120.1</ele>
      </trkpt>
      <trkpt lat="35.105296" lon="129.123398">
        <ele>114.15</ele>
      </trkpt>
      <trkpt lat="35.105129" lon="129.123322">
        <ele>107.24</ele>
      </trkpt>
      <trkpt lat="35.104982" lon="129.122969">
        <ele>97.89</ele>
      </trkpt>
      <trkpt lat="35.104676" lon="129.122974">
        <ele>89.7</ele>
      </trkpt>
      <trkpt lat="35.104578" lon="129.123203">
        <ele>89.99</ele>
      </trkpt>
      <trkpt lat="35.104515" lon="129.12343">
        <ele>88.33</ele>
      </trkpt>
      <trkpt lat="35.104463" lon="129.123523">
        <ele>85.95</ele>
      </trkpt>
      <trkpt lat="35.104374" lon="129.123719">
        <ele>78.35</ele>
      </trkpt>
      <trkpt lat="35.104354" lon="129.123771">
        <ele>74.93</ele>
      </trkpt>
      <trkpt lat="35.10429" lon="129.123819">
        <ele>70.09</ele>
      </trkpt>
      <trkpt lat="35.104248" lon="129.123831">
        <ele>67.99</ele>
      </trkpt>
      <trkpt lat="35.104183" lon="129.123807">
        <ele>66.95</ele>
      </trkpt>
      <trkpt lat="35.104014" lon="129.123671">
        <ele>66.79</ele>
      </trkpt>
      <trkpt lat="35.103838" lon="129.123705">
        <ele>61.65</ele>
      </trkpt>
      <trkpt lat="35.103715" lon="129.123756">
        <ele>57.17</ele>
      </trkpt>
      <trkpt lat="35.103692" lon="129.123775">
        <ele>55.91</ele>
      </trkpt>
      <trkpt lat="35.103661" lon="129.123769">
        <ele>55.5</ele>
      </trkpt>
      <trkpt lat="35.103635" lon="129.1237">
        <ele>57.4</ele>
      </trkpt>
      <trkpt lat="35.103633" lon="129.123633">
        <ele>58.1</ele>
      </trkpt>
      <trkpt lat="35.103619" lon="129.123589">
        <ele>58.35</ele>
      </trkpt>
      <trkpt lat="35.103438" lon="129.123473">
        <ele>55.97</ele>
      </trkpt>
      <trkpt lat="35.103357" lon="129.123478">
        <ele>54.37</ele>
      </trkpt>
      <trkpt lat="35.103199" lon="129.123351">
        <ele>55.17</ele>
      </trkpt>
      <trkpt lat="35.103169" lon="129.123376">
        <ele>54.08</ele>
      </trkpt>
      <trkpt lat="35.103066" lon="129.123302">
        <ele>53.28</ele>
      </trkpt>
      <trkpt lat="35.103021" lon="129.123234">
        <ele>53.45</ele>
      </trkpt>
      <trkpt lat="35.102896" lon="129.123158">
        <ele>51.79</ele>
      </trkpt>
      <trkpt lat="35.102816" lon="129.123277">
        <ele>47.18</ele>
      </trkpt>
      <trkpt lat="35.102721" lon="129.123204">
        <ele>46.18</ele>
      </trkpt>
      <trkpt lat="35.102671" lon="129.123145">
        <ele>45.77</ele>
      </trkpt>
      <trkpt lat="35.1025" lon="129.123057">
        <ele>44.27</ele>
      </trkpt>
      <trkpt lat="35.102409" lon="129.122985">
        <ele>43.72</ele>
      </trkpt>
      <trkpt lat="35.102338" lon="129.122944">
        <ele>42.93</ele>
      </trkpt>
      <trkpt lat="35.102176" lon="129.122889">
        <ele>40.29</ele>
      </trkpt>
      <trkpt lat="35.10214" lon="129.122852">
        <ele>40.4</ele>
      </trkpt>
      <trkpt lat="35.102067" lon="129.122831">
        <ele>38.91</ele>
      </trkpt>
      <trkpt lat="35.101866" lon="129.122817">
        <ele>29.96</ele>
      </trkpt>
      <trkpt lat="35.10168" lon="129.122806">
        <ele>27.52</ele>
      </trkpt>
      <trkpt lat="35.101648" lon="129.122998">
        <ele>24.44</ele>
      </trkpt>
      <trkpt lat="35.101562" lon="129.123052">
        <ele>23.39</ele>
      </trkpt>
      <trkpt lat="35.101491" lon="129.123083">
        <ele>22.92</ele>
      </trkpt>
      <trkpt lat="35.101413" lon="129.123185">
        <ele>21.81</ele>
      </trkpt>
      <trkpt lat="35.101187" lon="129.123422">
        <ele>22.19</ele>
      </trkpt>
      <trkpt lat="35.101209" lon="129.123528">
        <ele>21.51</ele>
      </trkpt>
      <trkpt lat="35.101178" lon="129.123588">
        <ele>21.88</ele>
      </trkpt>
      <trkpt lat="35.101048" lon="129.123767">
        <ele>25.55</ele>
      </trkpt>
      <trkpt lat="35.100923" lon="129.123911">
        <ele>28.93</ele>
      </trkpt>
      <trkpt lat="35.100909" lon="129.124065">
        <ele>27.75</ele>
      </trkpt>
      <trkpt lat="35.100859" lon="129.124109">
        <ele>28.3</ele>
      </trkpt>
      <trkpt lat="35.100808" lon="129.12422">
        <ele>28.08</ele>
      </trkpt>
      <trkpt lat="35.100669" lon="129.124518">
        <ele>16.21</ele>
      </trkpt>
      <trkpt lat="35.100593" lon="129.124685">
        <ele>7.72</ele>
      </trkpt>
      <trkpt lat="35.100593" lon="129.124685">
        <ele>7.72</ele>
      </trkpt>
      <trkpt lat="35.100669" lon="129.124518">
        <ele>16.21</ele>
      </trkpt>
      <trkpt lat="35.100808" lon="129.12422">
        <ele>28.08</ele>
      </trkpt>
      <trkpt lat="35.100859" lon="129.124109">
        <ele>28.3</ele>
      </trkpt>
      <trkpt lat="35.100909" lon="129.124065">
        <ele>27.75</ele>
      </trkpt>
      <trkpt lat="35.100923" lon="129.123911">
        <ele>28.93</ele>
      </trkpt>
      <trkpt lat="35.101048" lon="129.123767">
        <ele>25.55</ele>
      </trkpt>
      <trkpt lat="35.101178" lon="129.123588">
        <ele>21.88</ele>
      </trkpt>
      <trkpt lat="35.101209" lon="129.123528">
        <ele>21.51</ele>
      </trkpt>
      <trkpt lat="35.101187" lon="129.123422">
        <ele>22.19</ele>
      </trkpt>
      <trkpt lat="35.101162" lon="129.123404">
        <ele>22.48</ele>
      </trkpt>
      <trkpt lat="35.101089" lon="129.123296">
        <ele>22.15</ele>
      </trkpt>
      <trkpt lat="35.101351" lon="129.122922">
        <ele>23.28</ele>
      </trkpt>
      <trkpt lat="35.101462" lon="129.122697">
        <ele>24.96</ele>
      </trkpt>
      <trkpt lat="35.101477" lon="129.122519">
        <ele>25.24</ele>
      </trkpt>
      <trkpt lat="35.101473" lon="129.122411">
        <ele>25.17</ele>
      </trkpt>
      <trkpt lat="35.101458" lon="129.122356">
        <ele>24.85</ele>
      </trkpt>
      <trkpt lat="35.101461" lon="129.122327">
        <ele>24.96</ele>
      </trkpt>
      <trkpt lat="35.101431" lon="129.122214">
        <ele>24.99</ele>
      </trkpt>
      <trkpt lat="35.101349" lon="129.121499">
        <ele>24.38</ele>
      </trkpt>
      <trkpt lat="35.101308" lon="129.121249">
        <ele>24.29</ele>
      </trkpt>
      <trkpt lat="35.101263" lon="129.120972">
        <ele>26.55</ele>
      </trkpt>
      <trkpt lat="35.101203" lon="129.120436">
        <ele>32.05</ele>
      </trkpt>
      <trkpt lat="35.101191" lon="129.120161">
        <ele>33.36</ele>
      </trkpt>
      <trkpt lat="35.10119" lon="129.119517">
        <ele>39.39</ele>
      </trkpt>
      <trkpt lat="35.101189" lon="129.118872">
        <ele>40.9</ele>
      </trkpt>
      <trkpt lat="35.101188" lon="129.118227">
        <ele>46.59</ele>
      </trkpt>
      <trkpt lat="35.10123" lon="129.117944">
        <ele>48.52</ele>
      </trkpt>
      <trkpt lat="35.10132" lon="129.117484">
        <ele>49.54</ele>
      </trkpt>
      <trkpt lat="35.101396" lon="129.117115">
        <ele>52.29</ele>
      </trkpt>
      <trkpt lat="35.101487" lon="129.117149">
        <ele>53.52</ele>
      </trkpt>
      <trkpt lat="35.101612" lon="129.116829">
        <ele>50.71</ele>
      </trkpt>
      <trkpt lat="35.1017" lon="129.116663">
        <ele>51.68</ele>
      </trkpt>
      <trkpt lat="35.101857" lon="129.116392">
        <ele>56.67</ele>
      </trkpt>
      <trkpt lat="35.102089" lon="129.116015">
        <ele>60.1</ele>
      </trkpt>
      <trkpt lat="35.10219" lon="129.115899">
        <ele>60.32</ele>
      </trkpt>
      <trkpt lat="35.102343" lon="129.115789">
        <ele>60.84</ele>
      </trkpt>
      <trkpt lat="35.102504" lon="129.115735">
        <ele>62.34</ele>
      </trkpt>
      <trkpt lat="35.102711" lon="129.115724">
        <ele>64.63</ele>
      </trkpt>
      <trkpt lat="35.103523" lon="129.115706">
        <ele>64.06</ele>
      </trkpt>
      <trkpt lat="35.103815" lon="129.115695">
        <ele>65.91</ele>
      </trkpt>
      <trkpt lat="35.104461" lon="129.115672">
        <ele>73.66</ele>
      </trkpt>
    </trkseg>
  </trk>
</gpx>
