<?xml version="1.0" encoding="UTF-8"?>
<gpx creator="https://gpx.studio" version="1.1" xmlns="http://www.topografix.com/GPX/1/1" xmlns:xsi="http://www.w3.org/2001/XMLSchema-instance" xsi:schemaLocation="http://www.topografix.com/GPX/1/1 http://www.topografix.com/GPX/1/1/gpx.xsd http://www.garmin.com/xmlschemas/GpxExtensions/v3 http://www.garmin.com/xmlschemas/GpxExtensionsv3.xsd http://www.garmin.com/xmlschemas/TrackPointExtension/v1 http://www.garmin.com/xmlschemas/TrackPointExtensionv1.xsd http://www.garmin.com/xmlschemas/PowerExtension/v1 http://www.garmin.com/xmlschemas/PowerExtensionv1.xsd http://www.topografix.com/GPX/gpx_style/0/2 http://www.topografix.com/GPX/gpx_style/0/2/gpx_style.xsd" xmlns:gpxtpx="http://www.garmin.com/xmlschemas/TrackPointExtension/v1" xmlns:gpxx="http://www.garmin.com/xmlschemas/GpxExtensions/v3" xmlns:gpxpx="http://www.garmin.com/xmlschemas/PowerExtension/v1" xmlns:gpx_style="http://www.topografix.com/GPX/gpx_style/0/2">
  <metadata>
    <name>YOLO 갈맷길 7코스(4-3 완주형)</name>
    <author>
      <name>gpx.studio</name>
      <link href="https://gpx.studio"/>
    </author>
  </metadata>
  <trk>
    <name>YOLO 갈맷길 7코스(4-3 완주형)</name>
    <trkseg>
      <trkpt lat="35.047699" lon="128.965027">
        <ele>3.01</ele>
      </trkpt>
      <trkpt lat="35.047941" lon="128.96422">
        <ele>3.3</ele>
      </trkpt>
      <trkpt lat="35.047842" lon="128.964174">
        <ele>3</ele>
      </trkpt>
      <trkpt lat="35.047916" lon="128.963932">
        <ele>3</ele>
      </trkpt>
      <trkpt lat="35.047957" lon="128.963907">
        <ele>2.89</ele>
      </trkpt>
      <trkpt lat="35.048455" lon="128.964127">
        <ele>4.24</ele>
      </trkpt>
      <trkpt lat="35.048704" lon="128.964237">
        <ele>6.65</ele>
      </trkpt>
      <trkpt lat="35.048549" lon="128.964735">
        <ele>8.49</ele>
      </trkpt>
      <trkpt lat="35.048448" lon="128.965075">
        <ele>7.74</ele>
      </trkpt>
      <trkpt lat="35.048596" lon="128.965148">
        <ele>10.87</ele>
      </trkpt>
      <trkpt lat="35.048767" lon="128.965233">
        <ele>14.47</ele>
      </trkpt>
      <trkpt lat="35.049031" lon="128.965358">
        <ele>17.49</ele>
      </trkpt>
      <trkpt lat="35.049549" lon="128.96559">
        <ele>22.13</ele>
      </trkpt>
      <trkpt lat="35.049809" lon="128.965706">
        <ele>27.76</ele>
      </trkpt>
      <trkpt lat="35.05006" lon="128.966326">
        <ele>28.52</ele>
      </trkpt>
      <trkpt lat="35.050114" lon="128.966296">
        <ele>29.14</ele>
      </trkpt>
      <trkpt lat="35.050969" lon="128.965828">
        <ele>40.08</ele>
      </trkpt>
      <trkpt lat="35.0512" lon="128.9657">
        <ele>43.57</ele>
      </trkpt>
      <trkpt lat="35.051194" lon="128.965685">
        <ele>43.64</ele>
      </trkpt>
      <trkpt lat="35.05109" lon="128.965403">
        <ele>45.03</ele>
      </trkpt>
      <trkpt lat="35.05098" lon="128.965107">
        <ele>50.28</ele>
      </trkpt>
      <trkpt lat="35.050537" lon="128.963894">
        <ele>53.16</ele>
      </trkpt>
      <trkpt lat="35.05054" lon="128.963884">
        <ele>53.19</ele>
      </trkpt>
      <trkpt lat="35.050639" lon="128.963582">
        <ele>54.16</ele>
      </trkpt>
      <trkpt lat="35.050741" lon="128.96327">
        <ele>53.1</ele>
      </trkpt>
      <trkpt lat="35.051195" lon="128.963004">
        <ele>62.44</ele>
      </trkpt>
      <trkpt lat="35.051422" lon="128.962871">
        <ele>68.75</ele>
      </trkpt>
      <trkpt lat="35.05142" lon="128.962865">
        <ele>68.75</ele>
      </trkpt>
      <trkpt lat="35.05109" lon="128.962">
        <ele>69.18</ele>
      </trkpt>
      <trkpt lat="35.051092" lon="128.961605">
        <ele>73.7</ele>
      </trkpt>
      <trkpt lat="35.05119" lon="128.96124">
        <ele>77.5</ele>
      </trkpt>
      <trkpt lat="35.051378" lon="128.961058">
        <ele>79.88</ele>
      </trkpt>
      <trkpt lat="35.051888" lon="128.960739">
        <ele>87.24</ele>
      </trkpt>
      <trkpt lat="35.051962" lon="128.960687">
        <ele>87.59</ele>
      </trkpt>
      <trkpt lat="35.052038" lon="128.960672">
        <ele>88.32</ele>
      </trkpt>
      <trkpt lat="35.052168" lon="128.960843">
        <ele>92.66</ele>
      </trkpt>
      <trkpt lat="35.052412" lon="128.961205">
        <ele>96.95</ele>
      </trkpt>
      <trkpt lat="35.052702" lon="128.961635">
        <ele>99.68</ele>
      </trkpt>
      <trkpt lat="35.052957" lon="128.961935">
        <ele>102.42</ele>
      </trkpt>
      <trkpt lat="35.05333" lon="128.962063">
        <ele>103.12</ele>
      </trkpt>
      <trkpt lat="35.053638" lon="128.9622">
        <ele>103.08</ele>
      </trkpt>
      <trkpt lat="35.054125" lon="128.96235">
        <ele>102.84</ele>
      </trkpt>
      <trkpt lat="35.055135" lon="128.9626">
        <ele>104.11</ele>
      </trkpt>
      <trkpt lat="35.055617" lon="128.962719">
        <ele>101.04</ele>
      </trkpt>
      <trkpt lat="35.055583" lon="128.962825">
        <ele>102.43</ele>
      </trkpt>
      <trkpt lat="35.055446" lon="128.963261">
        <ele>105.66</ele>
      </trkpt>
      <trkpt lat="35.055384" lon="128.963829">
        <ele>99.54</ele>
      </trkpt>
      <trkpt lat="35.055296" lon="128.964144">
        <ele>98.17</ele>
      </trkpt>
      <trkpt lat="35.055474" lon="128.964236">
        <ele>102.26</ele>
      </trkpt>
      <trkpt lat="35.055881" lon="128.964447">
        <ele>111.6</ele>
      </trkpt>
      <trkpt lat="35.056373" lon="128.964702">
        <ele>115.29</ele>
      </trkpt>
      <trkpt lat="35.056619" lon="128.96483">
        <ele>115.3</ele>
      </trkpt>
      <trkpt lat="35.057539" lon="128.965308">
        <ele>110.33</ele>
      </trkpt>
      <trkpt lat="35.058274" lon="128.965688">
        <ele>103.47</ele>
      </trkpt>
      <trkpt lat="35.058391" lon="128.965697">
        <ele>103.86</ele>
      </trkpt>
      <trkpt lat="35.05845" lon="128.965711">
        <ele>104.11</ele>
      </trkpt>
      <trkpt lat="35.058809" lon="128.965809">
        <ele>108.46</ele>
      </trkpt>
      <trkpt lat="35.058885" lon="128.965813">
        <ele>110.61</ele>
      </trkpt>
      <trkpt lat="35.058898" lon="128.965814">
        <ele>110.96</ele>
      </trkpt>
      <trkpt lat="35.059059" lon="128.96563">
        <ele>113.94</ele>
      </trkpt>
      <trkpt lat="35.059135" lon="128.965471">
        <ele>112.8</ele>
      </trkpt>
      <trkpt lat="35.05917" lon="128.965517">
        <ele>114.5</ele>
      </trkpt>
      <trkpt lat="35.059241" lon="128.965611">
        <ele>117.99</ele>
      </trkpt>
      <trkpt lat="35.059387" lon="128.965773">
        <ele>125.61</ele>
      </trkpt>
      <trkpt lat="35.059465" lon="128.965952">
        <ele>131.37</ele>
      </trkpt>
      <trkpt lat="35.059543" lon="128.966007">
        <ele>134.57</ele>
      </trkpt>
      <trkpt lat="35.059577" lon="128.9661">
        <ele>137.15</ele>
      </trkpt>
      <trkpt lat="35.059757" lon="128.966274">
        <ele>143.57</ele>
      </trkpt>
      <trkpt lat="35.059847" lon="128.96643">
        <ele>145.96</ele>
      </trkpt>
      <trkpt lat="35.059973" lon="128.966495">
        <ele>148.57</ele>
      </trkpt>
      <trkpt lat="35.06007" lon="128.966534">
        <ele>149.25</ele>
      </trkpt>
      <trkpt lat="35.060362" lon="128.966576">
        <ele>150.89</ele>
      </trkpt>
      <trkpt lat="35.060723" lon="128.966663">
        <ele>156.13</ele>
      </trkpt>
      <trkpt lat="35.061044" lon="128.966912">
        <ele>167.72</ele>
      </trkpt>
      <trkpt lat="35.061174" lon="128.967125">
        <ele>174.42</ele>
      </trkpt>
      <trkpt lat="35.061433" lon="128.96732">
        <ele>179.98</ele>
      </trkpt>
      <trkpt lat="35.062061" lon="128.967481">
        <ele>184.76</ele>
      </trkpt>
      <trkpt lat="35.062287" lon="128.967637">
        <ele>183.41</ele>
      </trkpt>
      <trkpt lat="35.062597" lon="128.967677">
        <ele>178.65</ele>
      </trkpt>
      <trkpt lat="35.062857" lon="128.967674">
        <ele>175.06</ele>
      </trkpt>
      <trkpt lat="35.063053" lon="128.967717">
        <ele>173.08</ele>
      </trkpt>
      <trkpt lat="35.063167" lon="128.967645">
        <ele>172.81</ele>
      </trkpt>
      <trkpt lat="35.063228" lon="128.967639">
        <ele>172.41</ele>
      </trkpt>
      <trkpt lat="35.063468" lon="128.967653">
        <ele>171.76</ele>
      </trkpt>
      <trkpt lat="35.063576" lon="128.967701">
        <ele>172.39</ele>
      </trkpt>
      <trkpt lat="35.063716" lon="128.967687">
        <ele>173.14</ele>
      </trkpt>
      <trkpt lat="35.064034" lon="128.967824">
        <ele>176.96</ele>
      </trkpt>
      <trkpt lat="35.064199" lon="128.967908">
        <ele>179.92</ele>
      </trkpt>
      <trkpt lat="35.064383" lon="128.96795">
        <ele>183.29</ele>
      </trkpt>
      <trkpt lat="35.064851" lon="128.968157">
        <ele>194.37</ele>
      </trkpt>
      <trkpt lat="35.065009" lon="128.968194">
        <ele>198.92</ele>
      </trkpt>
      <trkpt lat="35.065334" lon="128.968146">
        <ele>208.39</ele>
      </trkpt>
      <trkpt lat="35.065426" lon="128.9682">
        <ele>212.08</ele>
      </trkpt>
      <trkpt lat="35.065488" lon="128.968251">
        <ele>214.63</ele>
      </trkpt>
      <trkpt lat="35.065575" lon="128.968243">
        <ele>216.85</ele>
      </trkpt>
      <trkpt lat="35.065744" lon="128.968298">
        <ele>220.17</ele>
      </trkpt>
      <trkpt lat="35.065725" lon="128.968366">
        <ele>220.47</ele>
      </trkpt>
      <trkpt lat="35.065744" lon="128.968298">
        <ele>220.17</ele>
      </trkpt>
      <trkpt lat="35.065759" lon="128.968217">
        <ele>220.02</ele>
      </trkpt>
      <trkpt lat="35.065838" lon="128.968008">
        <ele>221.68</ele>
      </trkpt>
      <trkpt lat="35.065912" lon="128.967753">
        <ele>223.75</ele>
      </trkpt>
      <trkpt lat="35.065922" lon="128.967539">
        <ele>224.99</ele>
      </trkpt>
      <trkpt lat="35.065955" lon="128.967363">
        <ele>225.34</ele>
      </trkpt>
      <trkpt lat="35.065975" lon="128.967173">
        <ele>223.71</ele>
      </trkpt>
      <trkpt lat="35.066105" lon="128.966942">
        <ele>220.89</ele>
      </trkpt>
      <trkpt lat="35.066167" lon="128.966731">
        <ele>215.53</ele>
      </trkpt>
      <trkpt lat="35.066267" lon="128.966509">
        <ele>208.08</ele>
      </trkpt>
      <trkpt lat="35.066381" lon="128.966363">
        <ele>202.8</ele>
      </trkpt>
      <trkpt lat="35.066558" lon="128.966155">
        <ele>198.57</ele>
      </trkpt>
      <trkpt lat="35.066724" lon="128.965826">
        <ele>198.48</ele>
      </trkpt>
      <trkpt lat="35.066835" lon="128.965489">
        <ele>197.98</ele>
      </trkpt>
      <trkpt lat="35.066899" lon="128.965305">
        <ele>196.13</ele>
      </trkpt>
      <trkpt lat="35.06689" lon="128.965125">
        <ele>192.85</ele>
      </trkpt>
      <trkpt lat="35.06686" lon="128.965022">
        <ele>189.17</ele>
      </trkpt>
      <trkpt lat="35.066963" lon="128.964758">
        <ele>185.56</ele>
      </trkpt>
      <trkpt lat="35.06704" lon="128.964752">
        <ele>186.34</ele>
      </trkpt>
      <trkpt lat="35.067178" lon="128.964825">
        <ele>186.55</ele>
      </trkpt>
      <trkpt lat="35.067265" lon="128.964889">
        <ele>186.44</ele>
      </trkpt>
      <trkpt lat="35.067338" lon="128.964904">
        <ele>185.47</ele>
      </trkpt>
      <trkpt lat="35.067351" lon="128.964915">
        <ele>185.21</ele>
      </trkpt>
      <trkpt lat="35.06764" lon="128.965154">
        <ele>179.43</ele>
      </trkpt>
      <trkpt lat="35.067699" lon="128.965243">
        <ele>177.86</ele>
      </trkpt>
      <trkpt lat="35.067713" lon="128.965319">
        <ele>177.53</ele>
      </trkpt>
      <trkpt lat="35.06771" lon="128.96539">
        <ele>176.9</ele>
      </trkpt>
      <trkpt lat="35.067658" lon="128.9655">
        <ele>177.76</ele>
      </trkpt>
      <trkpt lat="35.067491" lon="128.965792">
        <ele>178.93</ele>
      </trkpt>
      <trkpt lat="35.067222" lon="128.966135">
        <ele>181.41</ele>
      </trkpt>
      <trkpt lat="35.06718" lon="128.966167">
        <ele>182.48</ele>
      </trkpt>
      <trkpt lat="35.067121" lon="128.96626">
        <ele>182.81</ele>
      </trkpt>
      <trkpt lat="35.067076" lon="128.966382">
        <ele>182.19</ele>
      </trkpt>
      <trkpt lat="35.067041" lon="128.966519">
        <ele>181.4</ele>
      </trkpt>
      <trkpt lat="35.067061" lon="128.966697">
        <ele>179.28</ele>
      </trkpt>
      <trkpt lat="35.067124" lon="128.966927">
        <ele>174.18</ele>
      </trkpt>
      <trkpt lat="35.067115" lon="128.967073">
        <ele>173.83</ele>
      </trkpt>
      <trkpt lat="35.067029" lon="128.967425">
        <ele>178.68</ele>
      </trkpt>
      <trkpt lat="35.067029" lon="128.967544">
        <ele>180.11</ele>
      </trkpt>
      <trkpt lat="35.067063" lon="128.967606">
        <ele>180.09</ele>
      </trkpt>
      <trkpt lat="35.067119" lon="128.967636">
        <ele>178.5</ele>
      </trkpt>
      <trkpt lat="35.06741" lon="128.967684">
        <ele>171.85</ele>
      </trkpt>
      <trkpt lat="35.067745" lon="128.96772">
        <ele>171.29</ele>
      </trkpt>
      <trkpt lat="35.067927" lon="128.967709">
        <ele>170.58</ele>
      </trkpt>
      <trkpt lat="35.068116" lon="128.967662">
        <ele>168.4</ele>
      </trkpt>
      <trkpt lat="35.068286" lon="128.967613">
        <ele>164.86</ele>
      </trkpt>
      <trkpt lat="35.068358" lon="128.967629">
        <ele>163.77</ele>
      </trkpt>
      <trkpt lat="35.068451" lon="128.967675">
        <ele>162.78</ele>
      </trkpt>
      <trkpt lat="35.068507" lon="128.967722">
        <ele>162.19</ele>
      </trkpt>
      <trkpt lat="35.068615" lon="128.968067">
        <ele>162.76</ele>
      </trkpt>
      <trkpt lat="35.068799" lon="128.968197">
        <ele>158.83</ele>
      </trkpt>
      <trkpt lat="35.068971" lon="128.968209">
        <ele>156.12</ele>
      </trkpt>
      <trkpt lat="35.069032" lon="128.968183">
        <ele>155.01</ele>
      </trkpt>
      <trkpt lat="35.069156" lon="128.968032">
        <ele>151.75</ele>
      </trkpt>
      <trkpt lat="35.069349" lon="128.967887">
        <ele>150.04</ele>
      </trkpt>
      <trkpt lat="35.069447" lon="128.967905">
        <ele>149.96</ele>
      </trkpt>
      <trkpt lat="35.069502" lon="128.967887">
        <ele>149.46</ele>
      </trkpt>
      <trkpt lat="35.069561" lon="128.967886">
        <ele>149.03</ele>
      </trkpt>
      <trkpt lat="35.06981" lon="128.967924">
        <ele>145.74</ele>
      </trkpt>
      <trkpt lat="35.070101" lon="128.967909">
        <ele>142.21</ele>
      </trkpt>
      <trkpt lat="35.07029" lon="128.967883">
        <ele>141.16</ele>
      </trkpt>
      <trkpt lat="35.070426" lon="128.967842">
        <ele>142.02</ele>
      </trkpt>
      <trkpt lat="35.070479" lon="128.96788">
        <ele>143</ele>
      </trkpt>
      <trkpt lat="35.070655" lon="128.967762">
        <ele>144.59</ele>
      </trkpt>
      <trkpt lat="35.070705" lon="128.967617">
        <ele>144.2</ele>
      </trkpt>
      <trkpt lat="35.070726" lon="128.967427">
        <ele>142.48</ele>
      </trkpt>
      <trkpt lat="35.070729" lon="128.967291">
        <ele>140.4</ele>
      </trkpt>
      <trkpt lat="35.070693" lon="128.967201">
        <ele>138.18</ele>
      </trkpt>
      <trkpt lat="35.070709" lon="128.967178">
        <ele>137.7</ele>
      </trkpt>
      <trkpt lat="35.070746" lon="128.967124">
        <ele>136.59</ele>
      </trkpt>
      <trkpt lat="35.070799" lon="128.967065">
        <ele>135.23</ele>
      </trkpt>
      <trkpt lat="35.070878" lon="128.967012">
        <ele>133.92</ele>
      </trkpt>
      <trkpt lat="35.070977" lon="128.967019">
        <ele>134.82</ele>
      </trkpt>
      <trkpt lat="35.071061" lon="128.966986">
        <ele>133.3</ele>
      </trkpt>
      <trkpt lat="35.071204" lon="128.967115">
        <ele>138.11</ele>
      </trkpt>
      <trkpt lat="35.071321" lon="128.96718">
        <ele>139.42</ele>
      </trkpt>
      <trkpt lat="35.071426" lon="128.967213">
        <ele>139.77</ele>
      </trkpt>
      <trkpt lat="35.071499" lon="128.967204">
        <ele>139.39</ele>
      </trkpt>
      <trkpt lat="35.071657" lon="128.967066">
        <ele>135.29</ele>
      </trkpt>
      <trkpt lat="35.071788" lon="128.967058">
        <ele>136.86</ele>
      </trkpt>
      <trkpt lat="35.071904" lon="128.966982">
        <ele>137.48</ele>
      </trkpt>
      <trkpt lat="35.071961" lon="128.966895">
        <ele>137.2</ele>
      </trkpt>
      <trkpt lat="35.072" lon="128.966819">
        <ele>136.8</ele>
      </trkpt>
      <trkpt lat="35.072003" lon="128.966513">
        <ele>130.76</ele>
      </trkpt>
      <trkpt lat="35.071994" lon="128.966341">
        <ele>127.52</ele>
      </trkpt>
      <trkpt lat="35.072002" lon="128.966271">
        <ele>126.81</ele>
      </trkpt>
      <trkpt lat="35.072047" lon="128.96614">
        <ele>127.29</ele>
      </trkpt>
      <trkpt lat="35.072145" lon="128.966022">
        <ele>129.03</ele>
      </trkpt>
      <trkpt lat="35.072275" lon="128.96592">
        <ele>130.11</ele>
      </trkpt>
      <trkpt lat="35.072482" lon="128.965851">
        <ele>131.58</ele>
      </trkpt>
      <trkpt lat="35.072583" lon="128.965826">
        <ele>132.23</ele>
      </trkpt>
      <trkpt lat="35.072625" lon="128.965801">
        <ele>131.89</ele>
      </trkpt>
      <trkpt lat="35.072811" lon="128.965635">
        <ele>128.69</ele>
      </trkpt>
      <trkpt lat="35.072923" lon="128.965551">
        <ele>126.56</ele>
      </trkpt>
      <trkpt lat="35.072977" lon="128.965546">
        <ele>126.34</ele>
      </trkpt>
      <trkpt lat="35.073205" lon="128.965695">
        <ele>130.82</ele>
      </trkpt>
      <trkpt lat="35.073291" lon="128.965714">
        <ele>131.05</ele>
      </trkpt>
      <trkpt lat="35.073372" lon="128.965682">
        <ele>129.5</ele>
      </trkpt>
      <trkpt lat="35.073504" lon="128.965543">
        <ele>125.37</ele>
      </trkpt>
      <trkpt lat="35.073758" lon="128.965133">
        <ele>117.3</ele>
      </trkpt>
      <trkpt lat="35.073906" lon="128.964872">
        <ele>115.26</ele>
      </trkpt>
      <trkpt lat="35.074051" lon="128.964511">
        <ele>114.53</ele>
      </trkpt>
      <trkpt lat="35.074062" lon="128.964437">
        <ele>114.88</ele>
      </trkpt>
      <trkpt lat="35.074026" lon="128.964281">
        <ele>114.76</ele>
      </trkpt>
      <trkpt lat="35.073919" lon="128.963919">
        <ele>114.65</ele>
      </trkpt>
      <trkpt lat="35.073873" lon="128.963762">
        <ele>113.08</ele>
      </trkpt>
      <trkpt lat="35.073863" lon="128.963695">
        <ele>112.55</ele>
      </trkpt>
      <trkpt lat="35.073923" lon="128.963438">
        <ele>113.04</ele>
      </trkpt>
      <trkpt lat="35.073963" lon="128.963273">
        <ele>111.18</ele>
      </trkpt>
      <trkpt lat="35.074015" lon="128.963209">
        <ele>110.56</ele>
      </trkpt>
      <trkpt lat="35.074084" lon="128.963205">
        <ele>111.34</ele>
      </trkpt>
      <trkpt lat="35.074138" lon="128.963225">
        <ele>112.19</ele>
      </trkpt>
      <trkpt lat="35.074189" lon="128.963266">
        <ele>113.5</ele>
      </trkpt>
      <trkpt lat="35.074316" lon="128.963344">
        <ele>115.45</ele>
      </trkpt>
      <trkpt lat="35.074494" lon="128.96331">
        <ele>114.11</ele>
      </trkpt>
      <trkpt lat="35.07461" lon="128.963238">
        <ele>112.83</ele>
      </trkpt>
      <trkpt lat="35.074646" lon="128.963211">
        <ele>112.34</ele>
      </trkpt>
      <trkpt lat="35.074696" lon="128.963124">
        <ele>110.45</ele>
      </trkpt>
      <trkpt lat="35.074801" lon="128.962906">
        <ele>106.89</ele>
      </trkpt>
      <trkpt lat="35.074918" lon="128.962754">
        <ele>105.9</ele>
      </trkpt>
      <trkpt lat="35.074987" lon="128.962708">
        <ele>106.88</ele>
      </trkpt>
      <trkpt lat="35.075039" lon="128.962589">
        <ele>106.27</ele>
      </trkpt>
      <trkpt lat="35.075053" lon="128.962435">
        <ele>104.65</ele>
      </trkpt>
      <trkpt lat="35.075011" lon="128.962251">
        <ele>102.07</ele>
      </trkpt>
      <trkpt lat="35.074929" lon="128.962123">
        <ele>99.55</ele>
      </trkpt>
      <trkpt lat="35.074837" lon="128.961756">
        <ele>96.81</ele>
      </trkpt>
      <trkpt lat="35.074804" lon="128.961444">
        <ele>94.96</ele>
      </trkpt>
      <trkpt lat="35.074819" lon="128.961146">
        <ele>92.84</ele>
      </trkpt>
      <trkpt lat="35.074855" lon="128.960935">
        <ele>90.13</ele>
      </trkpt>
      <trkpt lat="35.074923" lon="128.960783">
        <ele>88.06</ele>
      </trkpt>
      <trkpt lat="35.075" lon="128.960715">
        <ele>87.58</ele>
      </trkpt>
      <trkpt lat="35.075227" lon="128.960568">
        <ele>84.9</ele>
      </trkpt>
      <trkpt lat="35.075326" lon="128.960472">
        <ele>82.99</ele>
      </trkpt>
      <trkpt lat="35.075347" lon="128.960452">
        <ele>82.6</ele>
      </trkpt>
      <trkpt lat="35.075362" lon="128.960357">
        <ele>81.49</ele>
      </trkpt>
      <trkpt lat="35.075349" lon="128.960288">
        <ele>81</ele>
      </trkpt>
      <trkpt lat="35.075328" lon="128.960232">
        <ele>80.95</ele>
      </trkpt>
      <trkpt lat="35.075293" lon="128.960174">
        <ele>80.7</ele>
      </trkpt>
      <trkpt lat="35.075123" lon="128.95997">
        <ele>80.01</ele>
      </trkpt>
      <trkpt lat="35.074993" lon="128.959842">
        <ele>77.49</ele>
      </trkpt>
      <trkpt lat="35.07493" lon="128.959699">
        <ele>76.22</ele>
      </trkpt>
      <trkpt lat="35.074898" lon="128.959549">
        <ele>75.28</ele>
      </trkpt>
      <trkpt lat="35.074885" lon="128.959296">
        <ele>73.17</ele>
      </trkpt>
      <trkpt lat="35.075037" lon="128.958863">
        <ele>70.68</ele>
      </trkpt>
      <trkpt lat="35.075221" lon="128.958559">
        <ele>69.81</ele>
      </trkpt>
      <trkpt lat="35.075307" lon="128.958448">
        <ele>69.65</ele>
      </trkpt>
      <trkpt lat="35.075414" lon="128.958371">
        <ele>69.9</ele>
      </trkpt>
      <trkpt lat="35.075637" lon="128.958257">
        <ele>67.89</ele>
      </trkpt>
      <trkpt lat="35.075796" lon="128.958225">
        <ele>64.74</ele>
      </trkpt>
      <trkpt lat="35.075962" lon="128.958237">
        <ele>62.78</ele>
      </trkpt>
      <trkpt lat="35.076134" lon="128.958262">
        <ele>60.85</ele>
      </trkpt>
      <trkpt lat="35.076241" lon="128.958295">
        <ele>60.21</ele>
      </trkpt>
      <trkpt lat="35.076373" lon="128.958358">
        <ele>59.72</ele>
      </trkpt>
      <trkpt lat="35.076433" lon="128.958404">
        <ele>59.93</ele>
      </trkpt>
      <trkpt lat="35.076458" lon="128.958422">
        <ele>60.01</ele>
      </trkpt>
      <trkpt lat="35.076512" lon="128.958503">
        <ele>58.69</ele>
      </trkpt>
      <trkpt lat="35.076504" lon="128.958366">
        <ele>57.87</ele>
      </trkpt>
      <trkpt lat="35.076579" lon="128.957857">
        <ele>45.16</ele>
      </trkpt>
      <trkpt lat="35.07661" lon="128.957594">
        <ele>39.36</ele>
      </trkpt>
      <trkpt lat="35.076414" lon="128.957248">
        <ele>35.52</ele>
      </trkpt>
      <trkpt lat="35.076304" lon="128.957007">
        <ele>34.22</ele>
      </trkpt>
      <trkpt lat="35.076322" lon="128.956884">
        <ele>33</ele>
      </trkpt>
      <trkpt lat="35.076465" lon="128.956843">
        <ele>28.68</ele>
      </trkpt>
      <trkpt lat="35.07669" lon="128.957034">
        <ele>25.83</ele>
      </trkpt>
      <trkpt lat="35.077046" lon="128.957307">
        <ele>24.11</ele>
      </trkpt>
      <trkpt lat="35.077083" lon="128.957212">
        <ele>21.12</ele>
      </trkpt>
      <trkpt lat="35.077175" lon="128.956972">
        <ele>13.62</ele>
      </trkpt>
      <trkpt lat="35.077304" lon="128.956636">
        <ele>8.61</ele>
      </trkpt>
      <trkpt lat="35.077116" lon="128.956581">
        <ele>8.73</ele>
      </trkpt>
      <trkpt lat="35.077068" lon="128.956527">
        <ele>8.67</ele>
      </trkpt>
      <trkpt lat="35.076949" lon="128.956168">
        <ele>9.05</ele>
      </trkpt>
      <trkpt lat="35.076831" lon="128.955808">
        <ele>12.23</ele>
      </trkpt>
      <trkpt lat="35.076801" lon="128.95572">
        <ele>12.62</ele>
      </trkpt>
      <trkpt lat="35.076831" lon="128.955808">
        <ele>12.23</ele>
      </trkpt>
      <trkpt lat="35.077093" lon="128.955737">
        <ele>9.93</ele>
      </trkpt>
      <trkpt lat="35.077356" lon="128.955665">
        <ele>10.02</ele>
      </trkpt>
      <trkpt lat="35.078143" lon="128.95545">
        <ele>15.7</ele>
      </trkpt>
      <trkpt lat="35.078405" lon="128.955378">
        <ele>10.92</ele>
      </trkpt>
      <trkpt lat="35.078395" lon="128.955329">
        <ele>10.81</ele>
      </trkpt>
      <trkpt lat="35.078162" lon="128.954106">
        <ele>5.99</ele>
      </trkpt>
      <trkpt lat="35.07811" lon="128.953834">
        <ele>7.05</ele>
      </trkpt>
      <trkpt lat="35.077836" lon="128.95228">
        <ele>7.16</ele>
      </trkpt>
      <trkpt lat="35.077734" lon="128.951665">
        <ele>4.99</ele>
      </trkpt>
      <trkpt lat="35.077708" lon="128.95151">
        <ele>3.81</ele>
      </trkpt>
      <trkpt lat="35.079298" lon="128.951098">
        <ele>5.58</ele>
      </trkpt>
      <trkpt lat="35.080126" lon="128.950883">
        <ele>4.89</ele>
      </trkpt>
      <trkpt lat="35.080704" lon="128.950783">
        <ele>6.58</ele>
      </trkpt>
      <trkpt lat="35.081232" lon="128.950737">
        <ele>6.31</ele>
      </trkpt>
      <trkpt lat="35.081814" lon="128.950703">
        <ele>5</ele>
      </trkpt>
      <trkpt lat="35.082434" lon="128.950728">
        <ele>5.26</ele>
      </trkpt>
      <trkpt lat="35.082943" lon="128.950775">
        <ele>4.48</ele>
      </trkpt>
      <trkpt lat="35.083512" lon="128.950866">
        <ele>4.07</ele>
      </trkpt>
      <trkpt lat="35.083976" lon="128.951027">
        <ele>4</ele>
      </trkpt>
      <trkpt lat="35.084364" lon="128.951166">
        <ele>4</ele>
      </trkpt>
      <trkpt lat="35.085134" lon="128.951476">
        <ele>6.29</ele>
      </trkpt>
      <trkpt lat="35.085335" lon="128.951586">
        <ele>4.96</ele>
      </trkpt>
      <trkpt lat="35.085775" lon="128.951887">
        <ele>8.17</ele>
      </trkpt>
      <trkpt lat="35.085743" lon="128.951976">
        <ele>7.9</ele>
      </trkpt>
      <trkpt lat="35.08574" lon="128.952019">
        <ele>7.85</ele>
      </trkpt>
      <trkpt lat="35.086042" lon="128.952231">
        <ele>8.86</ele>
      </trkpt>
      <trkpt lat="35.086075" lon="128.952236">
        <ele>8.41</ele>
      </trkpt>
      <trkpt lat="35.086289" lon="128.952376">
        <ele>7.02</ele>
      </trkpt>
      <trkpt lat="35.086361" lon="128.952443">
        <ele>6.66</ele>
      </trkpt>
      <trkpt lat="35.086404" lon="128.952498">
        <ele>6.35</ele>
      </trkpt>
      <trkpt lat="35.086459" lon="128.952608">
        <ele>6</ele>
      </trkpt>
      <trkpt lat="35.086477" lon="128.952666">
        <ele>6</ele>
      </trkpt>
      <trkpt lat="35.086478" lon="128.952757">
        <ele>6</ele>
      </trkpt>
      <trkpt lat="35.086408" lon="128.952988">
        <ele>6.33</ele>
      </trkpt>
      <trkpt lat="35.086417" lon="128.953092">
        <ele>6.26</ele>
      </trkpt>
      <trkpt lat="35.086452" lon="128.95318">
        <ele>6.01</ele>
      </trkpt>
      <trkpt lat="35.086522" lon="128.953276">
        <ele>6</ele>
      </trkpt>
      <trkpt lat="35.086563" lon="128.953318">
        <ele>6</ele>
      </trkpt>
      <trkpt lat="35.086799" lon="128.953457">
        <ele>6.61</ele>
      </trkpt>
      <trkpt lat="35.086827" lon="128.953467">
        <ele>6.47</ele>
      </trkpt>
      <trkpt lat="35.086872" lon="128.953456">
        <ele>6.15</ele>
      </trkpt>
      <trkpt lat="35.087175" lon="128.953225">
        <ele>5.13</ele>
      </trkpt>
      <trkpt lat="35.087255" lon="128.953149">
        <ele>5.69</ele>
      </trkpt>
      <trkpt lat="35.087345" lon="128.953268">
        <ele>6.33</ele>
      </trkpt>
      <trkpt lat="35.087417" lon="128.9532">
        <ele>6.84</ele>
      </trkpt>
      <trkpt lat="35.087472" lon="128.953172">
        <ele>7.11</ele>
      </trkpt>
      <trkpt lat="35.087611" lon="128.953152">
        <ele>7.5</ele>
      </trkpt>
      <trkpt lat="35.087675" lon="128.953159">
        <ele>7.8</ele>
      </trkpt>
      <trkpt lat="35.087804" lon="128.953209">
        <ele>8</ele>
      </trkpt>
      <trkpt lat="35.088862" lon="128.953759">
        <ele>6</ele>
      </trkpt>
      <trkpt lat="35.089607" lon="128.954109">
        <ele>5.55</ele>
      </trkpt>
      <trkpt lat="35.090191" lon="128.954354">
        <ele>5</ele>
      </trkpt>
      <trkpt lat="35.090967" lon="128.954644">
        <ele>7</ele>
      </trkpt>
      <trkpt lat="35.091513" lon="128.954814">
        <ele>5.05</ele>
      </trkpt>
      <trkpt lat="35.092605" lon="128.955154">
        <ele>5.99</ele>
      </trkpt>
      <trkpt lat="35.092888" lon="128.955227">
        <ele>7.54</ele>
      </trkpt>
      <trkpt lat="35.09317" lon="128.9553">
        <ele>5.46</ele>
      </trkpt>
      <trkpt lat="35.09378" lon="128.955438">
        <ele>7.68</ele>
      </trkpt>
      <trkpt lat="35.094052" lon="128.95549">
        <ele>8.9</ele>
      </trkpt>
      <trkpt lat="35.094868" lon="128.955644">
        <ele>6</ele>
      </trkpt>
      <trkpt lat="35.096331" lon="128.955825">
        <ele>5.9</ele>
      </trkpt>
      <trkpt lat="35.096349" lon="128.955836">
        <ele>5.96</ele>
      </trkpt>
      <trkpt lat="35.096594" lon="128.955868">
        <ele>7.05</ele>
      </trkpt>
      <trkpt lat="35.097427" lon="128.955957">
        <ele>8.66</ele>
      </trkpt>
      <trkpt lat="35.099092" lon="128.956133">
        <ele>6</ele>
      </trkpt>
      <trkpt lat="35.099109" lon="128.956167">
        <ele>6</ele>
      </trkpt>
      <trkpt lat="35.09951" lon="128.956212">
        <ele>9.11</ele>
      </trkpt>
      <trkpt lat="35.100868" lon="128.956374">
        <ele>6.18</ele>
      </trkpt>
      <trkpt lat="35.101411" lon="128.956438">
        <ele>7.61</ele>
      </trkpt>
      <trkpt lat="35.102225" lon="128.956536">
        <ele>6.97</ele>
      </trkpt>
      <trkpt lat="35.102253" lon="128.956231">
        <ele>7.26</ele>
      </trkpt>
      <trkpt lat="35.103417" lon="128.956358">
        <ele>4.41</ele>
      </trkpt>
      <trkpt lat="35.104334" lon="128.956464">
        <ele>4.43</ele>
      </trkpt>
      <trkpt lat="35.105076" lon="128.956569">
        <ele>4</ele>
      </trkpt>
      <trkpt lat="35.105465" lon="128.956657">
        <ele>4</ele>
      </trkpt>
    </trkseg>
  </trk>
</gpx>
