<?xml version="1.0" encoding="UTF-8"?>
<gpx creator="https://gpx.studio" version="1.1" xmlns="http://www.topografix.com/GPX/1/1" xmlns:xsi="http://www.w3.org/2001/XMLSchema-instance" xsi:schemaLocation="http://www.topografix.com/GPX/1/1 http://www.topografix.com/GPX/1/1/gpx.xsd http://www.garmin.com/xmlschemas/GpxExtensions/v3 http://www.garmin.com/xmlschemas/GpxExtensionsv3.xsd http://www.garmin.com/xmlschemas/TrackPointExtension/v1 http://www.garmin.com/xmlschemas/TrackPointExtensionv1.xsd http://www.garmin.com/xmlschemas/PowerExtension/v1 http://www.garmin.com/xmlschemas/PowerExtensionv1.xsd http://www.topografix.com/GPX/gpx_style/0/2 http://www.topografix.com/GPX/gpx_style/0/2/gpx_style.xsd" xmlns:gpxtpx="http://www.garmin.com/xmlschemas/TrackPointExtension/v1" xmlns:gpxx="http://www.garmin.com/xmlschemas/GpxExtensions/v3" xmlns:gpxpx="http://www.garmin.com/xmlschemas/PowerExtension/v1" xmlns:gpx_style="http://www.topografix.com/GPX/gpx_style/0/2">
  <metadata>
    <name>YOLO 갈맷길 4코스(2-2완주형)</name>
    <desc>밀락해변영화관 경유</desc>
    <author>
      <name>gpx.studio</name>
      <link href="https://gpx.studio"/>
    </author>
  </metadata>
  <trk>
    <name>YOLO 갈맷길 4코스(2-2완주형)</name>
    <trkseg>
      <trkpt lat="35.157616" lon="129.173568">
        <ele>12.87</ele>
      </trkpt>
      <trkpt lat="35.157656" lon="129.173501">
        <ele>12.79</ele>
      </trkpt>
      <trkpt lat="35.15766" lon="129.173415">
        <ele>12.29</ele>
      </trkpt>
      <trkpt lat="35.157904" lon="129.173038">
        <ele>12.67</ele>
      </trkpt>
      <trkpt lat="35.15833" lon="129.172504">
        <ele>12.57</ele>
      </trkpt>
      <trkpt lat="35.158409" lon="129.172537">
        <ele>13.82</ele>
      </trkpt>
      <trkpt lat="35.158815" lon="129.172097">
        <ele>15.79</ele>
      </trkpt>
      <trkpt lat="35.160064" lon="129.170742">
        <ele>13.69</ele>
      </trkpt>
      <trkpt lat="35.159338" lon="129.170239">
        <ele>6.59</ele>
      </trkpt>
      <trkpt lat="35.159253" lon="129.170155">
        <ele>5</ele>
      </trkpt>
      <trkpt lat="35.159323" lon="129.169909">
        <ele>3.57</ele>
      </trkpt>
      <trkpt lat="35.15925" lon="129.169821">
        <ele>2.05</ele>
      </trkpt>
      <trkpt lat="35.159306" lon="129.169717">
        <ele>2.27</ele>
      </trkpt>
      <trkpt lat="35.159403" lon="129.169326">
        <ele>2.65</ele>
      </trkpt>
      <trkpt lat="35.159556" lon="129.168448">
        <ele>3.57</ele>
      </trkpt>
      <trkpt lat="35.1596" lon="129.167849">
        <ele>4.95</ele>
      </trkpt>
      <trkpt lat="35.159598" lon="129.167346">
        <ele>3.86</ele>
      </trkpt>
      <trkpt lat="35.15962" lon="129.166556">
        <ele>5.18</ele>
      </trkpt>
      <trkpt lat="35.15965" lon="129.165824">
        <ele>4.55</ele>
      </trkpt>
      <trkpt lat="35.159688" lon="129.16509">
        <ele>4.9</ele>
      </trkpt>
      <trkpt lat="35.159688" lon="129.164704">
        <ele>5.14</ele>
      </trkpt>
      <trkpt lat="35.15955" lon="129.163557">
        <ele>5.32</ele>
      </trkpt>
      <trkpt lat="35.159424" lon="129.162563">
        <ele>2.81</ele>
      </trkpt>
      <trkpt lat="35.159369" lon="129.162553">
        <ele>2.48</ele>
      </trkpt>
      <trkpt lat="35.159319" lon="129.162522">
        <ele>2.31</ele>
      </trkpt>
      <trkpt lat="35.159281" lon="129.162472">
        <ele>2.33</ele>
      </trkpt>
      <trkpt lat="35.159258" lon="129.162411">
        <ele>2.52</ele>
      </trkpt>
      <trkpt lat="35.159252" lon="129.162343">
        <ele>2.87</ele>
      </trkpt>
      <trkpt lat="35.159265" lon="129.162277">
        <ele>3.35</ele>
      </trkpt>
      <trkpt lat="35.159295" lon="129.162219">
        <ele>3.9</ele>
      </trkpt>
      <trkpt lat="35.159338" lon="129.162176">
        <ele>4.42</ele>
      </trkpt>
      <trkpt lat="35.159302" lon="129.162015">
        <ele>4.83</ele>
      </trkpt>
      <trkpt lat="35.159142" lon="129.161189">
        <ele>3.42</ele>
      </trkpt>
      <trkpt lat="35.158893" lon="129.159999">
        <ele>5.74</ele>
      </trkpt>
      <trkpt lat="35.158749" lon="129.159295">
        <ele>2.79</ele>
      </trkpt>
      <trkpt lat="35.158617" lon="129.158628">
        <ele>3.91</ele>
      </trkpt>
      <trkpt lat="35.158509" lon="129.158255">
        <ele>3.64</ele>
      </trkpt>
      <trkpt lat="35.1584" lon="129.157881">
        <ele>5.42</ele>
      </trkpt>
      <trkpt lat="35.158084" lon="129.15715">
        <ele>2.83</ele>
      </trkpt>
      <trkpt lat="35.157975" lon="129.156891">
        <ele>3.59</ele>
      </trkpt>
      <trkpt lat="35.157528" lon="129.155902">
        <ele>5.24</ele>
      </trkpt>
      <trkpt lat="35.157114" lon="129.155059">
        <ele>5.29</ele>
      </trkpt>
      <trkpt lat="35.156751" lon="129.154715">
        <ele>6.18</ele>
      </trkpt>
      <trkpt lat="35.156674" lon="129.154619">
        <ele>6.71</ele>
      </trkpt>
      <trkpt lat="35.156583" lon="129.154485">
        <ele>8.67</ele>
      </trkpt>
      <trkpt lat="35.156563" lon="129.154422">
        <ele>9.55</ele>
      </trkpt>
      <trkpt lat="35.156518" lon="129.154282">
        <ele>11.74</ele>
      </trkpt>
      <trkpt lat="35.156232" lon="129.154348">
        <ele>15.3</ele>
      </trkpt>
      <trkpt lat="35.155373" lon="129.154544">
        <ele>7.53</ele>
      </trkpt>
      <trkpt lat="35.155283" lon="129.154576">
        <ele>6.76</ele>
      </trkpt>
      <trkpt lat="35.155212" lon="129.154569">
        <ele>7.03</ele>
      </trkpt>
      <trkpt lat="35.155116" lon="129.154522">
        <ele>8.27</ele>
      </trkpt>
      <trkpt lat="35.155024" lon="129.154506">
        <ele>8.2</ele>
      </trkpt>
      <trkpt lat="35.154806" lon="129.154367">
        <ele>13.64</ele>
      </trkpt>
      <trkpt lat="35.15471" lon="129.154249">
        <ele>16.84</ele>
      </trkpt>
      <trkpt lat="35.154671" lon="129.154203">
        <ele>17.49</ele>
      </trkpt>
      <trkpt lat="35.154657" lon="129.154145">
        <ele>17.86</ele>
      </trkpt>
      <trkpt lat="35.154664" lon="129.154076">
        <ele>18.3</ele>
      </trkpt>
      <trkpt lat="35.154687" lon="129.154075">
        <ele>18.42</ele>
      </trkpt>
      <trkpt lat="35.154754" lon="129.154086">
        <ele>19.03</ele>
      </trkpt>
      <trkpt lat="35.154749" lon="129.153836">
        <ele>18.91</ele>
      </trkpt>
      <trkpt lat="35.154629" lon="129.153728">
        <ele>16.72</ele>
      </trkpt>
      <trkpt lat="35.154541" lon="129.153728">
        <ele>13.3</ele>
      </trkpt>
      <trkpt lat="35.154375" lon="129.153626">
        <ele>10.68</ele>
      </trkpt>
      <trkpt lat="35.154287" lon="129.15353">
        <ele>11.6</ele>
      </trkpt>
      <trkpt lat="35.154219" lon="129.153439">
        <ele>13.53</ele>
      </trkpt>
      <trkpt lat="35.153949" lon="129.153331">
        <ele>13.92</ele>
      </trkpt>
      <trkpt lat="35.153789" lon="129.153348">
        <ele>11.49</ele>
      </trkpt>
      <trkpt lat="35.153658" lon="129.153214">
        <ele>16.62</ele>
      </trkpt>
      <trkpt lat="35.15354" lon="129.153159">
        <ele>17.73</ele>
      </trkpt>
      <trkpt lat="35.153392" lon="129.153133">
        <ele>16.18</ele>
      </trkpt>
      <trkpt lat="35.153173" lon="129.153117">
        <ele>13.1</ele>
      </trkpt>
      <trkpt lat="35.152993" lon="129.152982">
        <ele>16.46</ele>
      </trkpt>
      <trkpt lat="35.152848" lon="129.15294">
        <ele>15.29</ele>
      </trkpt>
      <trkpt lat="35.152767" lon="129.152962">
        <ele>12.7</ele>
      </trkpt>
      <trkpt lat="35.152686" lon="129.152934">
        <ele>11.95</ele>
      </trkpt>
      <trkpt lat="35.1526" lon="129.152881">
        <ele>11.97</ele>
      </trkpt>
      <trkpt lat="35.152574" lon="129.152822">
        <ele>13.47</ele>
      </trkpt>
      <trkpt lat="35.152569" lon="129.152671">
        <ele>17.99</ele>
      </trkpt>
      <trkpt lat="35.152419" lon="129.152606">
        <ele>16.18</ele>
      </trkpt>
      <trkpt lat="35.152371" lon="129.152567">
        <ele>15.5</ele>
      </trkpt>
      <trkpt lat="35.152347" lon="129.152503">
        <ele>15.18</ele>
      </trkpt>
      <trkpt lat="35.15226" lon="129.1525">
        <ele>12.73</ele>
      </trkpt>
      <trkpt lat="35.152259" lon="129.152588">
        <ele>12.32</ele>
      </trkpt>
      <trkpt lat="35.152218" lon="129.152588">
        <ele>11.4</ele>
      </trkpt>
      <trkpt lat="35.152217" lon="129.15261">
        <ele>11.3</ele>
      </trkpt>
      <trkpt lat="35.152145" lon="129.152608">
        <ele>9.72</ele>
      </trkpt>
      <trkpt lat="35.152145" lon="129.152608">
        <ele>9.72</ele>
      </trkpt>
      <trkpt lat="35.152217" lon="129.15261">
        <ele>11.3</ele>
      </trkpt>
      <trkpt lat="35.152218" lon="129.152588">
        <ele>11.4</ele>
      </trkpt>
      <trkpt lat="35.152259" lon="129.152588">
        <ele>12.32</ele>
      </trkpt>
      <trkpt lat="35.15226" lon="129.1525">
        <ele>12.73</ele>
      </trkpt>
      <trkpt lat="35.152347" lon="129.152503">
        <ele>15.18</ele>
      </trkpt>
      <trkpt lat="35.152354" lon="129.152426">
        <ele>16.12</ele>
      </trkpt>
      <trkpt lat="35.152374" lon="129.152371">
        <ele>16.81</ele>
      </trkpt>
      <trkpt lat="35.15253" lon="129.151992">
        <ele>23.33</ele>
      </trkpt>
      <trkpt lat="35.152696" lon="129.151635">
        <ele>27.35</ele>
      </trkpt>
      <trkpt lat="35.153005" lon="129.151218">
        <ele>27.92</ele>
      </trkpt>
      <trkpt lat="35.153173" lon="129.151088">
        <ele>27.7</ele>
      </trkpt>
      <trkpt lat="35.153326" lon="129.151017">
        <ele>25.76</ele>
      </trkpt>
      <trkpt lat="35.153508" lon="129.151017">
        <ele>25.13</ele>
      </trkpt>
      <trkpt lat="35.153537" lon="129.151027">
        <ele>25.26</ele>
      </trkpt>
      <trkpt lat="35.153537" lon="129.151027">
        <ele>25.26</ele>
      </trkpt>
      <trkpt lat="35.153871" lon="129.151151">
        <ele>26.77</ele>
      </trkpt>
      <trkpt lat="35.154234" lon="129.151285">
        <ele>26.05</ele>
      </trkpt>
      <trkpt lat="35.154583" lon="129.151543">
        <ele>24.49</ele>
      </trkpt>
      <trkpt lat="35.154839" lon="129.151929">
        <ele>23.84</ele>
      </trkpt>
      <trkpt lat="35.155212" lon="129.152661">
        <ele>24.39</ele>
      </trkpt>
      <trkpt lat="35.15566" lon="129.153329">
        <ele>20.16</ele>
      </trkpt>
      <trkpt lat="35.15581" lon="129.153511">
        <ele>17.52</ele>
      </trkpt>
      <trkpt lat="35.155845" lon="129.153506">
        <ele>17.21</ele>
      </trkpt>
      <trkpt lat="35.156096" lon="129.153466">
        <ele>14</ele>
      </trkpt>
      <trkpt lat="35.15655" lon="129.153353">
        <ele>9.99</ele>
      </trkpt>
      <trkpt lat="35.156678" lon="129.153305">
        <ele>8.67</ele>
      </trkpt>
      <trkpt lat="35.157046" lon="129.153003">
        <ele>6.06</ele>
      </trkpt>
      <trkpt lat="35.157002" lon="129.152919">
        <ele>5.72</ele>
      </trkpt>
      <trkpt lat="35.157341" lon="129.152645">
        <ele>1.33</ele>
      </trkpt>
      <trkpt lat="35.157669" lon="129.152375">
        <ele>1.71</ele>
      </trkpt>
      <trkpt lat="35.157723" lon="129.15231">
        <ele>2.49</ele>
      </trkpt>
      <trkpt lat="35.157767" lon="129.152363">
        <ele>2.86</ele>
      </trkpt>
      <trkpt lat="35.157844" lon="129.152204">
        <ele>4.11</ele>
      </trkpt>
      <trkpt lat="35.157868" lon="129.152111">
        <ele>4.59</ele>
      </trkpt>
      <trkpt lat="35.157873" lon="129.152055">
        <ele>4.88</ele>
      </trkpt>
      <trkpt lat="35.157852" lon="129.151567">
        <ele>4.49</ele>
      </trkpt>
      <trkpt lat="35.157767" lon="129.151235">
        <ele>3.02</ele>
      </trkpt>
      <trkpt lat="35.157696" lon="129.151161">
        <ele>3.17</ele>
      </trkpt>
      <trkpt lat="35.157494" lon="129.150997">
        <ele>2.98</ele>
      </trkpt>
      <trkpt lat="35.157402" lon="129.150891">
        <ele>2.98</ele>
      </trkpt>
      <trkpt lat="35.157348" lon="129.150782">
        <ele>3.55</ele>
      </trkpt>
      <trkpt lat="35.157116" lon="129.149859">
        <ele>6.55</ele>
      </trkpt>
      <trkpt lat="35.156967" lon="129.149243">
        <ele>4.44</ele>
      </trkpt>
      <trkpt lat="35.156841" lon="129.148952">
        <ele>3.33</ele>
      </trkpt>
      <trkpt lat="35.156812" lon="129.148931">
        <ele>3.12</ele>
      </trkpt>
      <trkpt lat="35.15679" lon="129.148887">
        <ele>2.97</ele>
      </trkpt>
      <trkpt lat="35.156755" lon="129.148714">
        <ele>2.26</ele>
      </trkpt>
      <trkpt lat="35.156733" lon="129.148656">
        <ele>2.01</ele>
      </trkpt>
      <trkpt lat="35.156703" lon="129.148597">
        <ele>1.79</ele>
      </trkpt>
      <trkpt lat="35.156607" lon="129.148468">
        <ele>0.98</ele>
      </trkpt>
      <trkpt lat="35.156597" lon="129.148425">
        <ele>0.87</ele>
      </trkpt>
      <trkpt lat="35.156598" lon="129.148365">
        <ele>0.73</ele>
      </trkpt>
      <trkpt lat="35.15637" lon="129.147977">
        <ele>0.92</ele>
      </trkpt>
      <trkpt lat="35.156051" lon="129.147649">
        <ele>1.83</ele>
      </trkpt>
      <trkpt lat="35.155829" lon="129.147466">
        <ele>3.66</ele>
      </trkpt>
      <trkpt lat="35.155657" lon="129.147363">
        <ele>4.98</ele>
      </trkpt>
      <trkpt lat="35.155508" lon="129.147287">
        <ele>5.72</ele>
      </trkpt>
      <trkpt lat="35.155132" lon="129.147138">
        <ele>5.8</ele>
      </trkpt>
      <trkpt lat="35.154891" lon="129.147081">
        <ele>6</ele>
      </trkpt>
      <trkpt lat="35.15458" lon="129.147072">
        <ele>5.25</ele>
      </trkpt>
      <trkpt lat="35.154054" lon="129.147122">
        <ele>3.34</ele>
      </trkpt>
      <trkpt lat="35.153951" lon="129.147106">
        <ele>3.97</ele>
      </trkpt>
      <trkpt lat="35.153827" lon="129.147042">
        <ele>4.25</ele>
      </trkpt>
      <trkpt lat="35.153692" lon="129.14691">
        <ele>4.02</ele>
      </trkpt>
      <trkpt lat="35.153692" lon="129.14691">
        <ele>4.02</ele>
      </trkpt>
      <trkpt lat="35.153631" lon="129.146789">
        <ele>3.91</ele>
      </trkpt>
      <trkpt lat="35.153591" lon="129.146669">
        <ele>3.43</ele>
      </trkpt>
      <trkpt lat="35.153574" lon="129.146549">
        <ele>3.2</ele>
      </trkpt>
      <trkpt lat="35.153581" lon="129.146414">
        <ele>3.3</ele>
      </trkpt>
      <trkpt lat="35.153617" lon="129.146254">
        <ele>3.81</ele>
      </trkpt>
      <trkpt lat="35.153778" lon="129.145704">
        <ele>6.78</ele>
      </trkpt>
      <trkpt lat="35.15397" lon="129.145046">
        <ele>21.37</ele>
      </trkpt>
      <trkpt lat="35.154065" lon="129.144717">
        <ele>17.91</ele>
      </trkpt>
      <trkpt lat="35.15416" lon="129.144388">
        <ele>11.11</ele>
      </trkpt>
      <trkpt lat="35.154255" lon="129.144059">
        <ele>6.54</ele>
      </trkpt>
      <trkpt lat="35.154351" lon="129.14373">
        <ele>3.76</ele>
      </trkpt>
      <trkpt lat="35.154636" lon="129.142742">
        <ele>3.52</ele>
      </trkpt>
      <trkpt lat="35.154741" lon="129.142472">
        <ele>3.83</ele>
      </trkpt>
      <trkpt lat="35.154862" lon="129.142227">
        <ele>3.99</ele>
      </trkpt>
      <trkpt lat="35.155012" lon="129.142023">
        <ele>4.63</ele>
      </trkpt>
      <trkpt lat="35.155149" lon="129.141858">
        <ele>4.8</ele>
      </trkpt>
      <trkpt lat="35.15535" lon="129.1417">
        <ele>4.9</ele>
      </trkpt>
      <trkpt lat="35.155419" lon="129.141659">
        <ele>4.91</ele>
      </trkpt>
      <trkpt lat="35.155552" lon="129.141581">
        <ele>4.95</ele>
      </trkpt>
      <trkpt lat="35.156007" lon="129.141378">
        <ele>5.54</ele>
      </trkpt>
      <trkpt lat="35.15617" lon="129.141317">
        <ele>5.36</ele>
      </trkpt>
      <trkpt lat="35.156316" lon="129.141288">
        <ele>5.19</ele>
      </trkpt>
      <trkpt lat="35.15646" lon="129.141294">
        <ele>5.09</ele>
      </trkpt>
      <trkpt lat="35.156561" lon="129.141317">
        <ele>4.78</ele>
      </trkpt>
      <trkpt lat="35.156653" lon="129.141351">
        <ele>4.56</ele>
      </trkpt>
      <trkpt lat="35.156769" lon="129.141444">
        <ele>5</ele>
      </trkpt>
      <trkpt lat="35.157616" lon="129.142529">
        <ele>4</ele>
      </trkpt>
      <trkpt lat="35.157835" lon="129.142829">
        <ele>4</ele>
      </trkpt>
      <trkpt lat="35.157934" lon="129.142728">
        <ele>4</ele>
      </trkpt>
      <trkpt lat="35.158006" lon="129.142751">
        <ele>4</ele>
      </trkpt>
      <trkpt lat="35.158005" lon="129.142624">
        <ele>4</ele>
      </trkpt>
      <trkpt lat="35.15822" lon="129.142891">
        <ele>4.07</ele>
      </trkpt>
      <trkpt lat="35.159133" lon="129.142611">
        <ele>3.74</ele>
      </trkpt>
      <trkpt lat="35.159603" lon="129.14248">
        <ele>6.88</ele>
      </trkpt>
      <trkpt lat="35.159839" lon="129.142415">
        <ele>6</ele>
      </trkpt>
      <trkpt lat="35.160649" lon="129.141463">
        <ele>4</ele>
      </trkpt>
      <trkpt lat="35.161729" lon="129.140193">
        <ele>5.82</ele>
      </trkpt>
      <trkpt lat="35.162005" lon="129.139869">
        <ele>4.05</ele>
      </trkpt>
      <trkpt lat="35.162053" lon="129.139934">
        <ele>4.59</ele>
      </trkpt>
      <trkpt lat="35.16228" lon="129.139652">
        <ele>5.68</ele>
      </trkpt>
      <trkpt lat="35.162444" lon="129.13985">
        <ele>5.83</ele>
      </trkpt>
      <trkpt lat="35.162908" lon="129.13908">
        <ele>4.69</ele>
      </trkpt>
      <trkpt lat="35.163118" lon="129.138522">
        <ele>4</ele>
      </trkpt>
      <trkpt lat="35.163214" lon="129.138055">
        <ele>4.75</ele>
      </trkpt>
      <trkpt lat="35.163273" lon="129.137596">
        <ele>5.95</ele>
      </trkpt>
      <trkpt lat="35.163282" lon="129.137289">
        <ele>6</ele>
      </trkpt>
      <trkpt lat="35.163145" lon="129.136437">
        <ele>5.82</ele>
      </trkpt>
      <trkpt lat="35.162973" lon="129.135828">
        <ele>3</ele>
      </trkpt>
      <trkpt lat="35.1628" lon="129.13522">
        <ele>4.91</ele>
      </trkpt>
      <trkpt lat="35.162541" lon="129.134307">
        <ele>4.21</ele>
      </trkpt>
      <trkpt lat="35.162459" lon="129.134059">
        <ele>3.57</ele>
      </trkpt>
      <trkpt lat="35.161098" lon="129.130939">
        <ele>4.35</ele>
      </trkpt>
      <trkpt lat="35.161076" lon="129.130957">
        <ele>4.18</ele>
      </trkpt>
      <trkpt lat="35.161089" lon="129.130989">
        <ele>3.54</ele>
      </trkpt>
      <trkpt lat="35.16064" lon="129.131397">
        <ele>1.98</ele>
      </trkpt>
      <trkpt lat="35.159966" lon="129.132009">
        <ele>3.55</ele>
      </trkpt>
      <trkpt lat="35.159088" lon="129.132807">
        <ele>2.81</ele>
      </trkpt>
      <trkpt lat="35.15843" lon="129.133405">
        <ele>10.28</ele>
      </trkpt>
      <trkpt lat="35.15821" lon="129.133605">
        <ele>11.29</ele>
      </trkpt>
      <trkpt lat="35.157771" lon="129.134004">
        <ele>8.31</ele>
      </trkpt>
      <trkpt lat="35.157575" lon="129.134167">
        <ele>6.78</ele>
      </trkpt>
      <trkpt lat="35.156988" lon="129.134656">
        <ele>6.97</ele>
      </trkpt>
      <trkpt lat="35.156603" lon="129.134893">
        <ele>3.99</ele>
      </trkpt>
      <trkpt lat="35.15628" lon="129.134974">
        <ele>3.05</ele>
      </trkpt>
      <trkpt lat="35.155782" lon="129.134892">
        <ele>2.79</ele>
      </trkpt>
      <trkpt lat="35.155283" lon="129.134502">
        <ele>3.03</ele>
      </trkpt>
      <trkpt lat="35.155011" lon="129.134036">
        <ele>3.61</ele>
      </trkpt>
      <trkpt lat="35.154469" lon="129.131638">
        <ele>5.92</ele>
      </trkpt>
      <trkpt lat="35.154477" lon="129.131531">
        <ele>5.54</ele>
      </trkpt>
      <trkpt lat="35.154477" lon="129.131531">
        <ele>5.54</ele>
      </trkpt>
      <trkpt lat="35.154477" lon="129.131531">
        <ele>5.54</ele>
      </trkpt>
      <trkpt lat="35.154495" lon="129.131292">
        <ele>4.69</ele>
      </trkpt>
      <trkpt lat="35.154565" lon="129.131042">
        <ele>4.67</ele>
      </trkpt>
      <trkpt lat="35.154642" lon="129.130876">
        <ele>4.45</ele>
      </trkpt>
      <trkpt lat="35.154622" lon="129.130713">
        <ele>4</ele>
      </trkpt>
      <trkpt lat="35.154048" lon="129.128347">
        <ele>3.05</ele>
      </trkpt>
      <trkpt lat="35.153501" lon="129.126983">
        <ele>2.99</ele>
      </trkpt>
      <trkpt lat="35.153156" lon="129.125441">
        <ele>3</ele>
      </trkpt>
      <trkpt lat="35.152948" lon="129.124515">
        <ele>1</ele>
      </trkpt>
      <trkpt lat="35.152981" lon="129.124452">
        <ele>1</ele>
      </trkpt>
      <trkpt lat="35.153684" lon="129.124204">
        <ele>4.74</ele>
      </trkpt>
      <trkpt lat="35.154153" lon="129.124038">
        <ele>4.92</ele>
      </trkpt>
      <trkpt lat="35.154279" lon="129.123863">
        <ele>4.77</ele>
      </trkpt>
      <trkpt lat="35.154495" lon="129.123792">
        <ele>5.11</ele>
      </trkpt>
      <trkpt lat="35.154568" lon="129.123849">
        <ele>5.96</ele>
      </trkpt>
      <trkpt lat="35.154876" lon="129.123677">
        <ele>6.95</ele>
      </trkpt>
      <trkpt lat="35.154897" lon="129.123743">
        <ele>7.59</ele>
      </trkpt>
      <trkpt lat="35.155553" lon="129.123523">
        <ele>7.07</ele>
      </trkpt>
      <trkpt lat="35.1556" lon="129.123449">
        <ele>6.97</ele>
      </trkpt>
      <trkpt lat="35.15562" lon="129.123447">
        <ele>7.11</ele>
      </trkpt>
      <trkpt lat="35.155628" lon="129.123408">
        <ele>6.93</ele>
      </trkpt>
      <trkpt lat="35.155603" lon="129.123235">
        <ele>5.75</ele>
      </trkpt>
      <trkpt lat="35.155552" lon="129.123016">
        <ele>5</ele>
      </trkpt>
      <trkpt lat="35.155483" lon="129.122786">
        <ele>4.67</ele>
      </trkpt>
      <trkpt lat="35.155011" lon="129.121437">
        <ele>5.84</ele>
      </trkpt>
      <trkpt lat="35.154613" lon="129.120375">
        <ele>5.32</ele>
      </trkpt>
      <trkpt lat="35.154613" lon="129.120375">
        <ele>5.32</ele>
      </trkpt>
      <trkpt lat="35.154585" lon="129.120299">
        <ele>5.28</ele>
      </trkpt>
      <trkpt lat="35.154468" lon="129.120073">
        <ele>4.7</ele>
      </trkpt>
      <trkpt lat="35.154297" lon="129.11975">
        <ele>7.54</ele>
      </trkpt>
      <trkpt lat="35.154362" lon="129.119701">
        <ele>9.04</ele>
      </trkpt>
      <trkpt lat="35.154277" lon="129.119541">
        <ele>9.69</ele>
      </trkpt>
      <trkpt lat="35.153912" lon="129.118984">
        <ele>5.99</ele>
      </trkpt>
      <trkpt lat="35.153505" lon="129.118363">
        <ele>8.51</ele>
      </trkpt>
      <trkpt lat="35.153282" lon="129.118192">
        <ele>6.02</ele>
      </trkpt>
      <trkpt lat="35.152358" lon="129.117478">
        <ele>7.58</ele>
      </trkpt>
      <trkpt lat="35.151739" lon="129.116994">
        <ele>5.52</ele>
      </trkpt>
      <trkpt lat="35.151739" lon="129.116994">
        <ele>5.52</ele>
      </trkpt>
      <trkpt lat="35.150934" lon="129.116347">
        <ele>3.96</ele>
      </trkpt>
      <trkpt lat="35.149053" lon="129.114898">
        <ele>4.44</ele>
      </trkpt>
      <trkpt lat="35.148463" lon="129.114696">
        <ele>4.15</ele>
      </trkpt>
      <trkpt lat="35.1482" lon="129.11462">
        <ele>3.72</ele>
      </trkpt>
      <trkpt lat="35.147405" lon="129.114364">
        <ele>2.93</ele>
      </trkpt>
      <trkpt lat="35.147243" lon="129.114326">
        <ele>3.14</ele>
      </trkpt>
      <trkpt lat="35.147037" lon="129.114339">
        <ele>3.88</ele>
      </trkpt>
      <trkpt lat="35.146472" lon="129.114553">
        <ele>4.8</ele>
      </trkpt>
      <trkpt lat="35.145997" lon="129.114725">
        <ele>7.61</ele>
      </trkpt>
      <trkpt lat="35.146004" lon="129.114752">
        <ele>7.51</ele>
      </trkpt>
    </trkseg>
  </trk>
</gpx>
