<?xml version="1.0" encoding="UTF-8"?>
<gpx creator="https://gpx.studio" version="1.1" xmlns="http://www.topografix.com/GPX/1/1" xmlns:xsi="http://www.w3.org/2001/XMLSchema-instance" xsi:schemaLocation="http://www.topografix.com/GPX/1/1 http://www.topografix.com/GPX/1/1/gpx.xsd http://www.garmin.com/xmlschemas/GpxExtensions/v3 http://www.garmin.com/xmlschemas/GpxExtensionsv3.xsd http://www.garmin.com/xmlschemas/TrackPointExtension/v1 http://www.garmin.com/xmlschemas/TrackPointExtensionv1.xsd http://www.garmin.com/xmlschemas/PowerExtension/v1 http://www.garmin.com/xmlschemas/PowerExtensionv1.xsd http://www.topografix.com/GPX/gpx_style/0/2 http://www.topografix.com/GPX/gpx_style/0/2/gpx_style.xsd" xmlns:gpxtpx="http://www.garmin.com/xmlschemas/TrackPointExtension/v1" xmlns:gpxx="http://www.garmin.com/xmlschemas/GpxExtensions/v3" xmlns:gpxpx="http://www.garmin.com/xmlschemas/PowerExtension/v1" xmlns:gpx_style="http://www.topografix.com/GPX/gpx_style/0/2">
  <metadata>
    <name>YOLO 갈맷길 2코스(1-2 완주형)</name>
    <author>
      <name>gpx.studio</name>
      <link href="https://gpx.studio"/>
    </author>
  </metadata>
  <wpt lat="35.235574" lon="129.222104">
    <ele>48.134308107017816</ele>
    <name>덕발어린이공원 방면 등산로</name>
    <cmt>덕발어린이공원 방면 등산로 이용(업데이트가 되어있지 않아 어쩔 수 없이 경로를 이렇게 그릴 수 밖에 없었습니다ㅠㅠ)</cmt>
    <desc>덕발어린이공원 방면 등산로 이용(업데이트가 되어있지 않아 어쩔 수 없이 경로를 이렇게 그릴 수 밖에 없었습니다ㅠㅠ)</desc>
    <link href="https://kko.to/wDaUsz9KBZ"/>
    <sym>Alert</sym>
  </wpt>
  <trk>
    <name>YOLO 갈맷길 2코스(1-2 완주형)</name>
    <trkseg>
      <trkpt lat="35.24503" lon="129.220926">
        <ele>14.24</ele>
      </trkpt>
      <trkpt lat="35.244346" lon="129.220808">
        <ele>15.55</ele>
      </trkpt>
      <trkpt lat="35.242943" lon="129.220566">
        <ele>14.01</ele>
      </trkpt>
      <trkpt lat="35.241994" lon="129.220403">
        <ele>16.97</ele>
      </trkpt>
      <trkpt lat="35.241607" lon="129.220367">
        <ele>16.96</ele>
      </trkpt>
      <trkpt lat="35.240571" lon="129.220377">
        <ele>17.54</ele>
      </trkpt>
      <trkpt lat="35.240571" lon="129.220377">
        <ele>17.54</ele>
      </trkpt>
      <trkpt lat="35.240659" lon="129.220378">
        <ele>17.35</ele>
      </trkpt>
      <trkpt lat="35.240629" lon="129.220561">
        <ele>19.3</ele>
      </trkpt>
      <trkpt lat="35.24031" lon="129.221035">
        <ele>24.1</ele>
      </trkpt>
      <trkpt lat="35.239991" lon="129.221509">
        <ele>22.57</ele>
      </trkpt>
      <trkpt lat="35.239667" lon="129.221864">
        <ele>24.66</ele>
      </trkpt>
      <trkpt lat="35.239489" lon="129.222034">
        <ele>26.29</ele>
      </trkpt>
      <trkpt lat="35.239304" lon="129.222152">
        <ele>28.3</ele>
      </trkpt>
      <trkpt lat="35.239208" lon="129.222205">
        <ele>29.28</ele>
      </trkpt>
      <trkpt lat="35.239106" lon="129.222246">
        <ele>29.92</ele>
      </trkpt>
      <trkpt lat="35.238976" lon="129.222273">
        <ele>30.33</ele>
      </trkpt>
      <trkpt lat="35.238861" lon="129.222284">
        <ele>31.22</ele>
      </trkpt>
      <trkpt lat="35.238684" lon="129.22228">
        <ele>32.16</ele>
      </trkpt>
      <trkpt lat="35.23852" lon="129.222255">
        <ele>31.36</ele>
      </trkpt>
      <trkpt lat="35.238469" lon="129.222351">
        <ele>32.08</ele>
      </trkpt>
      <trkpt lat="35.238278" lon="129.222618">
        <ele>34.61</ele>
      </trkpt>
      <trkpt lat="35.238087" lon="129.222885">
        <ele>43.24</ele>
      </trkpt>
      <trkpt lat="35.237495" lon="129.22242">
        <ele>45.94</ele>
      </trkpt>
      <trkpt lat="35.23694" lon="129.22203">
        <ele>44.16</ele>
      </trkpt>
      <trkpt lat="35.236894" lon="129.222014">
        <ele>44.31</ele>
      </trkpt>
      <trkpt lat="35.236782" lon="129.222011">
        <ele>45.43</ele>
      </trkpt>
      <trkpt lat="35.236507" lon="129.221959">
        <ele>46.06</ele>
      </trkpt>
      <trkpt lat="35.236313" lon="129.221887">
        <ele>45.63</ele>
      </trkpt>
      <trkpt lat="35.236234" lon="129.221902">
        <ele>46.45</ele>
      </trkpt>
      <trkpt lat="35.236016" lon="129.221984">
        <ele>48.31</ele>
      </trkpt>
      <trkpt lat="35.235591" lon="129.222144">
        <ele>48.63</ele>
      </trkpt>
      <trkpt lat="35.236016" lon="129.221984">
        <ele>48.31</ele>
      </trkpt>
      <trkpt lat="35.236234" lon="129.221902">
        <ele>46.45</ele>
      </trkpt>
      <trkpt lat="35.236313" lon="129.221887">
        <ele>45.63</ele>
      </trkpt>
      <trkpt lat="35.236507" lon="129.221959">
        <ele>46.06</ele>
      </trkpt>
      <trkpt lat="35.236782" lon="129.222011">
        <ele>45.43</ele>
      </trkpt>
      <trkpt lat="35.236894" lon="129.222014">
        <ele>44.31</ele>
      </trkpt>
      <trkpt lat="35.23694" lon="129.22203">
        <ele>44.16</ele>
      </trkpt>
      <trkpt lat="35.237495" lon="129.22242">
        <ele>45.94</ele>
      </trkpt>
      <trkpt lat="35.238087" lon="129.222885">
        <ele>43.24</ele>
      </trkpt>
      <trkpt lat="35.238278" lon="129.222618">
        <ele>34.61</ele>
      </trkpt>
      <trkpt lat="35.238469" lon="129.222351">
        <ele>32.08</ele>
      </trkpt>
      <trkpt lat="35.23852" lon="129.222255">
        <ele>31.36</ele>
      </trkpt>
      <trkpt lat="35.238684" lon="129.22228">
        <ele>32.16</ele>
      </trkpt>
      <trkpt lat="35.238861" lon="129.222284">
        <ele>31.22</ele>
      </trkpt>
      <trkpt lat="35.238976" lon="129.222273">
        <ele>30.33</ele>
      </trkpt>
      <trkpt lat="35.239106" lon="129.222246">
        <ele>29.92</ele>
      </trkpt>
      <trkpt lat="35.239208" lon="129.222205">
        <ele>29.28</ele>
      </trkpt>
      <trkpt lat="35.239304" lon="129.222152">
        <ele>28.3</ele>
      </trkpt>
      <trkpt lat="35.239489" lon="129.222034">
        <ele>26.29</ele>
      </trkpt>
      <trkpt lat="35.240069" lon="129.222504">
        <ele>28.38</ele>
      </trkpt>
      <trkpt lat="35.24015" lon="129.222586">
        <ele>28.86</ele>
      </trkpt>
      <trkpt lat="35.240127" lon="129.222631">
        <ele>29</ele>
      </trkpt>
      <trkpt lat="35.240034" lon="129.222706">
        <ele>29</ele>
      </trkpt>
      <trkpt lat="35.239805" lon="129.222834">
        <ele>30</ele>
      </trkpt>
      <trkpt lat="35.239691" lon="129.222942">
        <ele>30.2</ele>
      </trkpt>
      <trkpt lat="35.239536" lon="129.223026">
        <ele>31.13</ele>
      </trkpt>
      <trkpt lat="35.239486" lon="129.223091">
        <ele>31.52</ele>
      </trkpt>
      <trkpt lat="35.239411" lon="129.223273">
        <ele>33.21</ele>
      </trkpt>
      <trkpt lat="35.23941" lon="129.223351">
        <ele>33.65</ele>
      </trkpt>
      <trkpt lat="35.239293" lon="129.223422">
        <ele>35.09</ele>
      </trkpt>
      <trkpt lat="35.239206" lon="129.22353">
        <ele>37.07</ele>
      </trkpt>
      <trkpt lat="35.239059" lon="129.223627">
        <ele>40.1</ele>
      </trkpt>
      <trkpt lat="35.238878" lon="129.223974">
        <ele>44.97</ele>
      </trkpt>
      <trkpt lat="35.238728" lon="129.224158">
        <ele>50.34</ele>
      </trkpt>
      <trkpt lat="35.238651" lon="129.224382">
        <ele>52.73</ele>
      </trkpt>
      <trkpt lat="35.238412" lon="129.224697">
        <ele>58.53</ele>
      </trkpt>
      <trkpt lat="35.238368" lon="129.224864">
        <ele>57.89</ele>
      </trkpt>
      <trkpt lat="35.238199" lon="129.224938">
        <ele>62.61</ele>
      </trkpt>
      <trkpt lat="35.238033" lon="129.225066">
        <ele>66.19</ele>
      </trkpt>
      <trkpt lat="35.237778" lon="129.224964">
        <ele>73.97</ele>
      </trkpt>
      <trkpt lat="35.237642" lon="129.224983">
        <ele>76.41</ele>
      </trkpt>
      <trkpt lat="35.237569" lon="129.225023">
        <ele>76.84</ele>
      </trkpt>
      <trkpt lat="35.237519" lon="129.225009">
        <ele>78.28</ele>
      </trkpt>
      <trkpt lat="35.237473" lon="129.224949">
        <ele>80.98</ele>
      </trkpt>
      <trkpt lat="35.23732" lon="129.224862">
        <ele>86.8</ele>
      </trkpt>
      <trkpt lat="35.236915" lon="129.224771">
        <ele>98.64</ele>
      </trkpt>
      <trkpt lat="35.236719" lon="129.224761">
        <ele>104.06</ele>
      </trkpt>
      <trkpt lat="35.236625" lon="129.224778">
        <ele>106.03</ele>
      </trkpt>
      <trkpt lat="35.236564" lon="129.224813">
        <ele>106.74</ele>
      </trkpt>
      <trkpt lat="35.236496" lon="129.225016">
        <ele>110.74</ele>
      </trkpt>
      <trkpt lat="35.23637" lon="129.225223">
        <ele>117.74</ele>
      </trkpt>
      <trkpt lat="35.236338" lon="129.225243">
        <ele>118.66</ele>
      </trkpt>
      <trkpt lat="35.236302" lon="129.22539">
        <ele>120.92</ele>
      </trkpt>
      <trkpt lat="35.236208" lon="129.225535">
        <ele>124.42</ele>
      </trkpt>
      <trkpt lat="35.236208156294175" lon="129.22553475789226">
        <ele>124.4227707377052</ele>
      </trkpt>
      <trkpt lat="35.236089" lon="129.225768">
        <ele>128.42</ele>
      </trkpt>
      <trkpt lat="35.235957" lon="129.225933">
        <ele>131.46</ele>
      </trkpt>
      <trkpt lat="35.235791" lon="129.226104">
        <ele>136.19</ele>
      </trkpt>
      <trkpt lat="35.235686" lon="129.226195">
        <ele>138.86</ele>
      </trkpt>
      <trkpt lat="35.235428" lon="129.226484">
        <ele>148.94</ele>
      </trkpt>
      <trkpt lat="35.235387" lon="129.22662">
        <ele>152.75</ele>
      </trkpt>
      <trkpt lat="35.235309" lon="129.22674">
        <ele>157.23</ele>
      </trkpt>
      <trkpt lat="35.235264" lon="129.22688">
        <ele>161.67</ele>
      </trkpt>
      <trkpt lat="35.235086" lon="129.22701">
        <ele>166.88</ele>
      </trkpt>
      <trkpt lat="35.23499" lon="129.227129">
        <ele>170.75</ele>
      </trkpt>
      <trkpt lat="35.234958" lon="129.227211">
        <ele>172.88</ele>
      </trkpt>
      <trkpt lat="35.234905" lon="129.227282">
        <ele>175.33</ele>
      </trkpt>
      <trkpt lat="35.234899" lon="129.227339">
        <ele>177.09</ele>
      </trkpt>
      <trkpt lat="35.234952" lon="129.227507">
        <ele>181.24</ele>
      </trkpt>
      <trkpt lat="35.234943" lon="129.227592">
        <ele>183.82</ele>
      </trkpt>
      <trkpt lat="35.235007" lon="129.227788">
        <ele>187.04</ele>
      </trkpt>
      <trkpt lat="35.234949" lon="129.227866">
        <ele>190.08</ele>
      </trkpt>
      <trkpt lat="35.23482" lon="129.227989">
        <ele>195.66</ele>
      </trkpt>
      <trkpt lat="35.234797" lon="129.228115">
        <ele>199.13</ele>
      </trkpt>
      <trkpt lat="35.234744" lon="129.228158">
        <ele>201.36</ele>
      </trkpt>
      <trkpt lat="35.234676" lon="129.228327">
        <ele>207.31</ele>
      </trkpt>
      <trkpt lat="35.234585" lon="129.228443">
        <ele>211.87</ele>
      </trkpt>
      <trkpt lat="35.234519" lon="129.228483">
        <ele>214.48</ele>
      </trkpt>
      <trkpt lat="35.234486" lon="129.228638">
        <ele>217.84</ele>
      </trkpt>
      <trkpt lat="35.234437" lon="129.228697">
        <ele>219.57</ele>
      </trkpt>
      <trkpt lat="35.234389" lon="129.22872">
        <ele>220.87</ele>
      </trkpt>
      <trkpt lat="35.234267" lon="129.228831">
        <ele>224.63</ele>
      </trkpt>
      <trkpt lat="35.234161" lon="129.229082">
        <ele>228.12</ele>
      </trkpt>
      <trkpt lat="35.234168" lon="129.229162">
        <ele>228.54</ele>
      </trkpt>
      <trkpt lat="35.234105" lon="129.229339">
        <ele>229.67</ele>
      </trkpt>
      <trkpt lat="35.234023" lon="129.229421">
        <ele>229.69</ele>
      </trkpt>
      <trkpt lat="35.233968" lon="129.229527">
        <ele>229.26</ele>
      </trkpt>
      <trkpt lat="35.233971" lon="129.22972">
        <ele>226.24</ele>
      </trkpt>
      <trkpt lat="35.233945" lon="129.229828">
        <ele>224.97</ele>
      </trkpt>
      <trkpt lat="35.23394" lon="129.230046">
        <ele>221.97</ele>
      </trkpt>
      <trkpt lat="35.233959" lon="129.230105">
        <ele>222</ele>
      </trkpt>
      <trkpt lat="35.233977" lon="129.230351">
        <ele>221</ele>
      </trkpt>
      <trkpt lat="35.233939" lon="129.230511">
        <ele>221.8</ele>
      </trkpt>
      <trkpt lat="35.23398" lon="129.23116">
        <ele>225</ele>
      </trkpt>
      <trkpt lat="35.234023" lon="129.231621">
        <ele>223.06</ele>
      </trkpt>
      <trkpt lat="35.234029" lon="129.23193">
        <ele>222.31</ele>
      </trkpt>
      <trkpt lat="35.233998" lon="129.232589">
        <ele>220.24</ele>
      </trkpt>
      <trkpt lat="35.234199" lon="129.232545">
        <ele>220.76</ele>
      </trkpt>
      <trkpt lat="35.234393" lon="129.232723">
        <ele>219.83</ele>
      </trkpt>
      <trkpt lat="35.234587" lon="129.232901">
        <ele>216.6</ele>
      </trkpt>
      <trkpt lat="35.234757" lon="129.233315">
        <ele>208.93</ele>
      </trkpt>
      <trkpt lat="35.23488" lon="129.233339">
        <ele>206.42</ele>
      </trkpt>
      <trkpt lat="35.235216" lon="129.233577">
        <ele>197.61</ele>
      </trkpt>
      <trkpt lat="35.23552" lon="129.233708">
        <ele>189.05</ele>
      </trkpt>
      <trkpt lat="35.235826" lon="129.233774">
        <ele>180.3</ele>
      </trkpt>
      <trkpt lat="35.236188" lon="129.234088">
        <ele>169.81</ele>
      </trkpt>
      <trkpt lat="35.236436" lon="129.23421">
        <ele>167.37</ele>
      </trkpt>
      <trkpt lat="35.236685" lon="129.234198">
        <ele>165.97</ele>
      </trkpt>
      <trkpt lat="35.237183" lon="129.234175">
        <ele>159.34</ele>
      </trkpt>
      <trkpt lat="35.237664" lon="129.233993">
        <ele>151.26</ele>
      </trkpt>
      <trkpt lat="35.238131" lon="129.234123">
        <ele>148.07</ele>
      </trkpt>
      <trkpt lat="35.238287" lon="129.23427">
        <ele>145.63</ele>
      </trkpt>
      <trkpt lat="35.238519" lon="129.234368">
        <ele>143.92</ele>
      </trkpt>
      <trkpt lat="35.238834" lon="129.234743">
        <ele>139.14</ele>
      </trkpt>
      <trkpt lat="35.239008" lon="129.235225">
        <ele>132.16</ele>
      </trkpt>
      <trkpt lat="35.239368" lon="129.235349">
        <ele>129.15</ele>
      </trkpt>
      <trkpt lat="35.239584" lon="129.235544">
        <ele>123.89</ele>
      </trkpt>
      <trkpt lat="35.239672" lon="129.235903">
        <ele>114.13</ele>
      </trkpt>
      <trkpt lat="35.239775" lon="129.236162">
        <ele>108.87</ele>
      </trkpt>
      <trkpt lat="35.239883" lon="129.236299">
        <ele>107.8</ele>
      </trkpt>
      <trkpt lat="35.23993" lon="129.236441">
        <ele>104.53</ele>
      </trkpt>
      <trkpt lat="35.240204" lon="129.236829">
        <ele>96.98</ele>
      </trkpt>
      <trkpt lat="35.240417" lon="129.237022">
        <ele>96.15</ele>
      </trkpt>
      <trkpt lat="35.240618" lon="129.237391">
        <ele>88.97</ele>
      </trkpt>
      <trkpt lat="35.240764" lon="129.237613">
        <ele>83.19</ele>
      </trkpt>
      <trkpt lat="35.240889" lon="129.237832">
        <ele>75.85</ele>
      </trkpt>
      <trkpt lat="35.24107" lon="129.238304">
        <ele>61.55</ele>
      </trkpt>
      <trkpt lat="35.241064" lon="129.238412">
        <ele>57.98</ele>
      </trkpt>
      <trkpt lat="35.241113" lon="129.238636">
        <ele>52.91</ele>
      </trkpt>
      <trkpt lat="35.241113" lon="129.238768">
        <ele>49.14</ele>
      </trkpt>
      <trkpt lat="35.241156" lon="129.238858">
        <ele>47.15</ele>
      </trkpt>
      <trkpt lat="35.241143" lon="129.239153">
        <ele>38.23</ele>
      </trkpt>
      <trkpt lat="35.241359" lon="129.239319">
        <ele>35.23</ele>
      </trkpt>
      <trkpt lat="35.241491" lon="129.239574">
        <ele>32.98</ele>
      </trkpt>
      <trkpt lat="35.241292" lon="129.239688">
        <ele>31.26</ele>
      </trkpt>
      <trkpt lat="35.241121" lon="129.239779">
        <ele>28.14</ele>
      </trkpt>
      <trkpt lat="35.240942" lon="129.239857">
        <ele>25.32</ele>
      </trkpt>
      <trkpt lat="35.240934" lon="129.239994">
        <ele>25</ele>
      </trkpt>
      <trkpt lat="35.240893" lon="129.240093">
        <ele>24.71</ele>
      </trkpt>
      <trkpt lat="35.240735" lon="129.240362">
        <ele>22.94</ele>
      </trkpt>
      <trkpt lat="35.240595" lon="129.240512">
        <ele>20.79</ele>
      </trkpt>
      <trkpt lat="35.240504" lon="129.240552">
        <ele>19.35</ele>
      </trkpt>
      <trkpt lat="35.240502" lon="129.240639">
        <ele>19.61</ele>
      </trkpt>
      <trkpt lat="35.240481" lon="129.240761">
        <ele>19.27</ele>
      </trkpt>
      <trkpt lat="35.240209" lon="129.24162">
        <ele>16.97</ele>
      </trkpt>
      <trkpt lat="35.240033" lon="129.242134">
        <ele>13.47</ele>
      </trkpt>
      <trkpt lat="35.239896" lon="129.242816">
        <ele>12.26</ele>
      </trkpt>
      <trkpt lat="35.239849" lon="129.242927">
        <ele>12.11</ele>
      </trkpt>
      <trkpt lat="35.23969" lon="129.243225">
        <ele>12.66</ele>
      </trkpt>
      <trkpt lat="35.239685" lon="129.243234">
        <ele>12.68</ele>
      </trkpt>
      <trkpt lat="35.239654" lon="129.243222">
        <ele>12.45</ele>
      </trkpt>
      <trkpt lat="35.239557" lon="129.243226">
        <ele>11.84</ele>
      </trkpt>
      <trkpt lat="35.239467" lon="129.243214">
        <ele>11.2</ele>
      </trkpt>
      <trkpt lat="35.239079" lon="129.243073">
        <ele>10.43</ele>
      </trkpt>
      <trkpt lat="35.239034" lon="129.243045">
        <ele>10.1</ele>
      </trkpt>
      <trkpt lat="35.238931" lon="129.242959">
        <ele>8.78</ele>
      </trkpt>
      <trkpt lat="35.238884" lon="129.242958">
        <ele>8.11</ele>
      </trkpt>
      <trkpt lat="35.238868" lon="129.242963">
        <ele>7.87</ele>
      </trkpt>
      <trkpt lat="35.238828" lon="129.242994">
        <ele>7.31</ele>
      </trkpt>
      <trkpt lat="35.238733" lon="129.243087">
        <ele>5.95</ele>
      </trkpt>
      <trkpt lat="35.238606" lon="129.243156">
        <ele>4.15</ele>
      </trkpt>
      <trkpt lat="35.238511" lon="129.243188">
        <ele>3.01</ele>
      </trkpt>
      <trkpt lat="35.238524" lon="129.243239">
        <ele>3.22</ele>
      </trkpt>
      <trkpt lat="35.238449" lon="129.242894">
        <ele>3</ele>
      </trkpt>
      <trkpt lat="35.23844" lon="129.242569">
        <ele>3.11</ele>
      </trkpt>
      <trkpt lat="35.238396" lon="129.242171">
        <ele>4.58</ele>
      </trkpt>
      <trkpt lat="35.238393" lon="129.242144">
        <ele>4.68</ele>
      </trkpt>
      <trkpt lat="35.238353" lon="129.242149">
        <ele>4.84</ele>
      </trkpt>
      <trkpt lat="35.238288" lon="129.242133">
        <ele>5.19</ele>
      </trkpt>
      <trkpt lat="35.238242" lon="129.242085">
        <ele>5.52</ele>
      </trkpt>
      <trkpt lat="35.238191" lon="129.242071">
        <ele>5.88</ele>
      </trkpt>
      <trkpt lat="35.238017" lon="129.242107">
        <ele>7.19</ele>
      </trkpt>
      <trkpt lat="35.237984" lon="129.242106">
        <ele>7.58</ele>
      </trkpt>
      <trkpt lat="35.237864" lon="129.24203">
        <ele>9.02</ele>
      </trkpt>
      <trkpt lat="35.237787" lon="129.241959">
        <ele>9.38</ele>
      </trkpt>
      <trkpt lat="35.237695" lon="129.241834">
        <ele>10.65</ele>
      </trkpt>
      <trkpt lat="35.237591" lon="129.241673">
        <ele>12.32</ele>
      </trkpt>
      <trkpt lat="35.23748" lon="129.241464">
        <ele>13.94</ele>
      </trkpt>
      <trkpt lat="35.237436" lon="129.241401">
        <ele>14</ele>
      </trkpt>
      <trkpt lat="35.237395" lon="129.241356">
        <ele>13.99</ele>
      </trkpt>
      <trkpt lat="35.236901" lon="129.240934">
        <ele>15</ele>
      </trkpt>
      <trkpt lat="35.236867" lon="129.24088">
        <ele>15</ele>
      </trkpt>
      <trkpt lat="35.236757" lon="129.240682">
        <ele>15.08</ele>
      </trkpt>
      <trkpt lat="35.236684" lon="129.240586">
        <ele>15.61</ele>
      </trkpt>
      <trkpt lat="35.236639" lon="129.240534">
        <ele>15.92</ele>
      </trkpt>
      <trkpt lat="35.236539" lon="129.24046">
        <ele>16.72</ele>
      </trkpt>
      <trkpt lat="35.236475" lon="129.2404">
        <ele>17.05</ele>
      </trkpt>
      <trkpt lat="35.236201" lon="129.240013">
        <ele>21.42</ele>
      </trkpt>
      <trkpt lat="35.236007" lon="129.239834">
        <ele>23.23</ele>
      </trkpt>
      <trkpt lat="35.235934" lon="129.239778">
        <ele>23.1</ele>
      </trkpt>
      <trkpt lat="35.235855" lon="129.239654">
        <ele>24.59</ele>
      </trkpt>
      <trkpt lat="35.235714" lon="129.239542">
        <ele>23.94</ele>
      </trkpt>
      <trkpt lat="35.235601" lon="129.239413">
        <ele>24.19</ele>
      </trkpt>
      <trkpt lat="35.23553" lon="129.239268">
        <ele>25.03</ele>
      </trkpt>
      <trkpt lat="35.235421" lon="129.239177">
        <ele>25.64</ele>
      </trkpt>
      <trkpt lat="35.23532" lon="129.239204">
        <ele>25.05</ele>
      </trkpt>
      <trkpt lat="35.235232" lon="129.239306">
        <ele>23.99</ele>
      </trkpt>
      <trkpt lat="35.235171" lon="129.239349">
        <ele>24.75</ele>
      </trkpt>
      <trkpt lat="35.235101" lon="129.239284">
        <ele>25.86</ele>
      </trkpt>
      <trkpt lat="35.234996" lon="129.23922">
        <ele>28.73</ele>
      </trkpt>
      <trkpt lat="35.234878" lon="129.239177">
        <ele>31.29</ele>
      </trkpt>
      <trkpt lat="35.234672" lon="129.239263">
        <ele>33.23</ele>
      </trkpt>
      <trkpt lat="35.23454" lon="129.239327">
        <ele>35.44</ele>
      </trkpt>
      <trkpt lat="35.234444" lon="129.239263">
        <ele>37.92</ele>
      </trkpt>
      <trkpt lat="35.234391" lon="129.239177">
        <ele>39.51</ele>
      </trkpt>
      <trkpt lat="35.234299" lon="129.239134">
        <ele>41.68</ele>
      </trkpt>
      <trkpt lat="35.23412" lon="129.239091">
        <ele>45.94</ele>
      </trkpt>
      <trkpt lat="35.233997" lon="129.239048">
        <ele>49.06</ele>
      </trkpt>
      <trkpt lat="35.2339" lon="129.238962">
        <ele>51.73</ele>
      </trkpt>
      <trkpt lat="35.233808" lon="129.238962">
        <ele>53.08</ele>
      </trkpt>
      <trkpt lat="35.23355" lon="129.238876">
        <ele>55.43</ele>
      </trkpt>
      <trkpt lat="35.23341" lon="129.238796">
        <ele>55.99</ele>
      </trkpt>
      <trkpt lat="35.233147" lon="129.238673">
        <ele>53.73</ele>
      </trkpt>
      <trkpt lat="35.232836" lon="129.238431">
        <ele>49.98</ele>
      </trkpt>
      <trkpt lat="35.232674" lon="129.23834">
        <ele>47.3</ele>
      </trkpt>
      <trkpt lat="35.232608" lon="129.238211">
        <ele>46.19</ele>
      </trkpt>
      <trkpt lat="35.232529" lon="129.238131">
        <ele>45.05</ele>
      </trkpt>
      <trkpt lat="35.232398" lon="129.238104">
        <ele>43.97</ele>
      </trkpt>
      <trkpt lat="35.232341" lon="129.238018">
        <ele>42.84</ele>
      </trkpt>
      <trkpt lat="35.232275" lon="129.237889">
        <ele>41.02</ele>
      </trkpt>
      <trkpt lat="35.232243" lon="129.237698">
        <ele>41.12</ele>
      </trkpt>
      <trkpt lat="35.232235" lon="129.237653">
        <ele>41.14</ele>
      </trkpt>
      <trkpt lat="35.23217" lon="129.237568">
        <ele>41.35</ele>
      </trkpt>
      <trkpt lat="35.23206" lon="129.237546">
        <ele>40.81</ele>
      </trkpt>
      <trkpt lat="35.231977" lon="129.237482">
        <ele>40.85</ele>
      </trkpt>
      <trkpt lat="35.231902" lon="129.237321">
        <ele>41.97</ele>
      </trkpt>
      <trkpt lat="35.231832" lon="129.237262">
        <ele>42.17</ele>
      </trkpt>
      <trkpt lat="35.231736" lon="129.237214">
        <ele>41.54</ele>
      </trkpt>
      <trkpt lat="35.23171" lon="129.237047">
        <ele>43.16</ele>
      </trkpt>
      <trkpt lat="35.231661" lon="129.236897">
        <ele>44.76</ele>
      </trkpt>
      <trkpt lat="35.231639" lon="129.236768">
        <ele>46.52</ele>
      </trkpt>
      <trkpt lat="35.23153" lon="129.236682">
        <ele>45.86</ele>
      </trkpt>
      <trkpt lat="35.231469" lon="129.236554">
        <ele>47.55</ele>
      </trkpt>
      <trkpt lat="35.23139" lon="129.236489">
        <ele>46.76</ele>
      </trkpt>
      <trkpt lat="35.231271" lon="129.236489">
        <ele>43.43</ele>
      </trkpt>
      <trkpt lat="35.231114" lon="129.23636">
        <ele>42.91</ele>
      </trkpt>
      <trkpt lat="35.23096" lon="129.236318">
        <ele>42.92</ele>
      </trkpt>
      <trkpt lat="35.230632" lon="129.236355">
        <ele>41.11</ele>
      </trkpt>
      <trkpt lat="35.230566" lon="129.236226">
        <ele>41.89</ele>
      </trkpt>
      <trkpt lat="35.230496" lon="129.236033">
        <ele>43.29</ele>
      </trkpt>
      <trkpt lat="35.230461" lon="129.235862">
        <ele>45.01</ele>
      </trkpt>
      <trkpt lat="35.230474" lon="129.235733">
        <ele>46.73</ele>
      </trkpt>
      <trkpt lat="35.230391" lon="129.235733">
        <ele>46.41</ele>
      </trkpt>
      <trkpt lat="35.230356" lon="129.235647">
        <ele>47.28</ele>
      </trkpt>
      <trkpt lat="35.230303" lon="129.235604">
        <ele>47.48</ele>
      </trkpt>
      <trkpt lat="35.230277" lon="129.235433">
        <ele>48.67</ele>
      </trkpt>
      <trkpt lat="35.230321" lon="129.235325">
        <ele>49.35</ele>
      </trkpt>
      <trkpt lat="35.230303" lon="129.235132">
        <ele>51.59</ele>
      </trkpt>
      <trkpt lat="35.230246" lon="129.234982">
        <ele>53.74</ele>
      </trkpt>
      <trkpt lat="35.230123" lon="129.234896">
        <ele>55.15</ele>
      </trkpt>
      <trkpt lat="35.229966" lon="129.234875">
        <ele>57.67</ele>
      </trkpt>
      <trkpt lat="35.229659" lon="129.234767">
        <ele>63.67</ele>
      </trkpt>
      <trkpt lat="35.229414" lon="129.234703">
        <ele>63.81</ele>
      </trkpt>
      <trkpt lat="35.2293" lon="129.234574">
        <ele>60.7</ele>
      </trkpt>
      <trkpt lat="35.229181" lon="129.234317">
        <ele>54.14</ele>
      </trkpt>
      <trkpt lat="35.229002" lon="129.234188">
        <ele>47.65</ele>
      </trkpt>
      <trkpt lat="35.228849" lon="129.234134">
        <ele>43.24</ele>
      </trkpt>
      <trkpt lat="35.228637" lon="129.234143">
        <ele>39.55</ele>
      </trkpt>
      <trkpt lat="35.228514" lon="129.234094">
        <ele>37.01</ele>
      </trkpt>
      <trkpt lat="35.22844" lon="129.233981">
        <ele>34.65</ele>
      </trkpt>
      <trkpt lat="35.2284" lon="129.233825">
        <ele>32.26</ele>
      </trkpt>
      <trkpt lat="35.22836" lon="129.233759">
        <ele>31.13</ele>
      </trkpt>
      <trkpt lat="35.228299" lon="129.2337">
        <ele>29.75</ele>
      </trkpt>
      <trkpt lat="35.228209" lon="129.233639">
        <ele>27.43</ele>
      </trkpt>
      <trkpt lat="35.227926" lon="129.23366">
        <ele>25.54</ele>
      </trkpt>
      <trkpt lat="35.227774" lon="129.233617">
        <ele>23.95</ele>
      </trkpt>
      <trkpt lat="35.22771" lon="129.233567">
        <ele>22.92</ele>
      </trkpt>
      <trkpt lat="35.227622" lon="129.233399">
        <ele>20.7</ele>
      </trkpt>
      <trkpt lat="35.227487" lon="129.233331">
        <ele>19.61</ele>
      </trkpt>
      <trkpt lat="35.227392" lon="129.233356">
        <ele>19.56</ele>
      </trkpt>
      <trkpt lat="35.227359" lon="129.233323">
        <ele>18.87</ele>
      </trkpt>
      <trkpt lat="35.227288" lon="129.233206">
        <ele>17.7</ele>
      </trkpt>
      <trkpt lat="35.22721" lon="129.233107">
        <ele>16.12</ele>
      </trkpt>
      <trkpt lat="35.22708" lon="129.233107">
        <ele>17.05</ele>
      </trkpt>
      <trkpt lat="35.22699" lon="129.233092">
        <ele>17.45</ele>
      </trkpt>
      <trkpt lat="35.226965" lon="129.23294">
        <ele>15.16</ele>
      </trkpt>
      <trkpt lat="35.226956" lon="129.232773">
        <ele>13.31</ele>
      </trkpt>
      <trkpt lat="35.226956" lon="129.2325">
        <ele>13.15</ele>
      </trkpt>
      <trkpt lat="35.226857" lon="129.232504">
        <ele>12.45</ele>
      </trkpt>
      <trkpt lat="35.226622" lon="129.232489">
        <ele>10.87</ele>
      </trkpt>
      <trkpt lat="35.226544" lon="129.232519">
        <ele>10.7</ele>
      </trkpt>
      <trkpt lat="35.226489" lon="129.232556">
        <ele>10.65</ele>
      </trkpt>
      <trkpt lat="35.226436" lon="129.232613">
        <ele>10.84</ele>
      </trkpt>
      <trkpt lat="35.226414" lon="129.232625">
        <ele>10.91</ele>
      </trkpt>
      <trkpt lat="35.226315" lon="129.232624">
        <ele>10.67</ele>
      </trkpt>
      <trkpt lat="35.226263" lon="129.2326">
        <ele>10.24</ele>
      </trkpt>
      <trkpt lat="35.226227" lon="129.232538">
        <ele>9.47</ele>
      </trkpt>
      <trkpt lat="35.226202" lon="129.23246">
        <ele>8.59</ele>
      </trkpt>
      <trkpt lat="35.22616" lon="129.232413">
        <ele>8</ele>
      </trkpt>
      <trkpt lat="35.226099" lon="129.232394">
        <ele>7.89</ele>
      </trkpt>
      <trkpt lat="35.225994" lon="129.232386">
        <ele>7.84</ele>
      </trkpt>
      <trkpt lat="35.225942" lon="129.232355">
        <ele>7.7</ele>
      </trkpt>
      <trkpt lat="35.225929" lon="129.232262">
        <ele>7.13</ele>
      </trkpt>
      <trkpt lat="35.22593" lon="129.232085">
        <ele>6.86</ele>
      </trkpt>
      <trkpt lat="35.2259" lon="129.231928">
        <ele>7.98</ele>
      </trkpt>
      <trkpt lat="35.225838" lon="129.231785">
        <ele>8.83</ele>
      </trkpt>
      <trkpt lat="35.225763" lon="129.231734">
        <ele>8.25</ele>
      </trkpt>
      <trkpt lat="35.22546" lon="129.231402">
        <ele>5.95</ele>
      </trkpt>
      <trkpt lat="35.225258" lon="129.231138">
        <ele>5.09</ele>
      </trkpt>
      <trkpt lat="35.225194" lon="129.231037">
        <ele>4.61</ele>
      </trkpt>
      <trkpt lat="35.225168" lon="129.230937">
        <ele>4.42</ele>
      </trkpt>
      <trkpt lat="35.224772" lon="129.230788">
        <ele>3.28</ele>
      </trkpt>
      <trkpt lat="35.224575" lon="129.230666">
        <ele>3.02</ele>
      </trkpt>
      <trkpt lat="35.224499" lon="129.230586">
        <ele>2.79</ele>
      </trkpt>
      <trkpt lat="35.22453" lon="129.230533">
        <ele>2.89</ele>
      </trkpt>
      <trkpt lat="35.224786" lon="129.22975">
        <ele>2.7</ele>
      </trkpt>
      <trkpt lat="35.224875" lon="129.22942">
        <ele>3.34</ele>
      </trkpt>
      <trkpt lat="35.224885" lon="129.229297">
        <ele>3.28</ele>
      </trkpt>
      <trkpt lat="35.224896" lon="129.228795">
        <ele>2.49</ele>
      </trkpt>
      <trkpt lat="35.224893" lon="129.228371">
        <ele>3.24</ele>
      </trkpt>
      <trkpt lat="35.224492" lon="129.227338">
        <ele>1.81</ele>
      </trkpt>
      <trkpt lat="35.224422" lon="129.227142">
        <ele>3.23</ele>
      </trkpt>
      <trkpt lat="35.224335" lon="129.227143">
        <ele>3.58</ele>
      </trkpt>
      <trkpt lat="35.223658" lon="129.227154">
        <ele>2.45</ele>
      </trkpt>
      <trkpt lat="35.223525" lon="129.227141">
        <ele>2.14</ele>
      </trkpt>
      <trkpt lat="35.223491" lon="129.227121">
        <ele>2.15</ele>
      </trkpt>
      <trkpt lat="35.223414" lon="129.227157">
        <ele>1.57</ele>
      </trkpt>
      <trkpt lat="35.223329" lon="129.227233">
        <ele>1.13</ele>
      </trkpt>
      <trkpt lat="35.222915" lon="129.227319">
        <ele>1.62</ele>
      </trkpt>
      <trkpt lat="35.221412" lon="129.227569">
        <ele>1.22</ele>
      </trkpt>
      <trkpt lat="35.220025" lon="129.228295">
        <ele>0.95</ele>
      </trkpt>
      <trkpt lat="35.219979" lon="129.228304">
        <ele>0.9</ele>
      </trkpt>
      <trkpt lat="35.219948" lon="129.228293">
        <ele>0.96</ele>
      </trkpt>
      <trkpt lat="35.219212" lon="129.227344">
        <ele>4.48</ele>
      </trkpt>
      <trkpt lat="35.219169" lon="129.227272">
        <ele>5.13</ele>
      </trkpt>
      <trkpt lat="35.218847" lon="129.22745">
        <ele>5.29</ele>
      </trkpt>
      <trkpt lat="35.218625" lon="129.227598">
        <ele>4.15</ele>
      </trkpt>
      <trkpt lat="35.218362" lon="129.227916">
        <ele>3.32</ele>
      </trkpt>
      <trkpt lat="35.218261" lon="129.22797">
        <ele>3.46</ele>
      </trkpt>
      <trkpt lat="35.218186" lon="129.227994">
        <ele>3.4</ele>
      </trkpt>
      <trkpt lat="35.218245" lon="129.228285">
        <ele>1.01</ele>
      </trkpt>
      <trkpt lat="35.21822" lon="129.228291">
        <ele>1</ele>
      </trkpt>
      <trkpt lat="35.218226" lon="129.228366">
        <ele>1</ele>
      </trkpt>
      <trkpt lat="35.218014" lon="129.228388">
        <ele>1</ele>
      </trkpt>
      <trkpt lat="35.218001" lon="129.228367">
        <ele>1.03</ele>
      </trkpt>
      <trkpt lat="35.218014" lon="129.228388">
        <ele>1</ele>
      </trkpt>
      <trkpt lat="35.218226" lon="129.228366">
        <ele>1</ele>
      </trkpt>
      <trkpt lat="35.21822" lon="129.228291">
        <ele>1</ele>
      </trkpt>
      <trkpt lat="35.218245" lon="129.228285">
        <ele>1.01</ele>
      </trkpt>
      <trkpt lat="35.218186" lon="129.227994">
        <ele>3.4</ele>
      </trkpt>
      <trkpt lat="35.218114" lon="129.227997">
        <ele>3.36</ele>
      </trkpt>
      <trkpt lat="35.218024" lon="129.227953">
        <ele>3.48</ele>
      </trkpt>
      <trkpt lat="35.217964" lon="129.227878">
        <ele>3.53</ele>
      </trkpt>
      <trkpt lat="35.217915" lon="129.227727">
        <ele>3.66</ele>
      </trkpt>
      <trkpt lat="35.217869" lon="129.227443">
        <ele>3.91</ele>
      </trkpt>
      <trkpt lat="35.217835" lon="129.227283">
        <ele>3.48</ele>
      </trkpt>
      <trkpt lat="35.217768" lon="129.227066">
        <ele>2.83</ele>
      </trkpt>
      <trkpt lat="35.217703" lon="129.226937">
        <ele>2.55</ele>
      </trkpt>
      <trkpt lat="35.217395" lon="129.226614">
        <ele>1.91</ele>
      </trkpt>
      <trkpt lat="35.217299" lon="129.226528">
        <ele>1.87</ele>
      </trkpt>
      <trkpt lat="35.216951" lon="129.226265">
        <ele>2.46</ele>
      </trkpt>
      <trkpt lat="35.216914" lon="129.226212">
        <ele>2.72</ele>
      </trkpt>
      <trkpt lat="35.216798" lon="129.225982">
        <ele>2.25</ele>
      </trkpt>
      <trkpt lat="35.216571" lon="129.225653">
        <ele>2.56</ele>
      </trkpt>
      <trkpt lat="35.216222" lon="129.22528">
        <ele>4.6</ele>
      </trkpt>
      <trkpt lat="35.215948" lon="129.225031">
        <ele>3.66</ele>
      </trkpt>
      <trkpt lat="35.215832" lon="129.224993">
        <ele>3.44</ele>
      </trkpt>
      <trkpt lat="35.21525" lon="129.224877">
        <ele>3.52</ele>
      </trkpt>
      <trkpt lat="35.215183" lon="129.224827">
        <ele>3.47</ele>
      </trkpt>
      <trkpt lat="35.215138" lon="129.224778">
        <ele>3.45</ele>
      </trkpt>
      <trkpt lat="35.215092" lon="129.224711">
        <ele>3.28</ele>
      </trkpt>
      <trkpt lat="35.215054" lon="129.224597">
        <ele>2.89</ele>
      </trkpt>
      <trkpt lat="35.215048" lon="129.224528">
        <ele>2.8</ele>
      </trkpt>
      <trkpt lat="35.215052" lon="129.224286">
        <ele>2.87</ele>
      </trkpt>
      <trkpt lat="35.215038" lon="129.224136">
        <ele>2.76</ele>
      </trkpt>
      <trkpt lat="35.214832" lon="129.223599">
        <ele>3.12</ele>
      </trkpt>
      <trkpt lat="35.214739" lon="129.223382">
        <ele>3.72</ele>
      </trkpt>
      <trkpt lat="35.214564" lon="129.223023">
        <ele>4.56</ele>
      </trkpt>
      <trkpt lat="35.214515" lon="129.222981">
        <ele>4.46</ele>
      </trkpt>
      <trkpt lat="35.214455" lon="129.222956">
        <ele>4.18</ele>
      </trkpt>
      <trkpt lat="35.214405" lon="129.222951">
        <ele>4.04</ele>
      </trkpt>
      <trkpt lat="35.214235" lon="129.222966">
        <ele>3.93</ele>
      </trkpt>
      <trkpt lat="35.214087" lon="129.222953">
        <ele>3.57</ele>
      </trkpt>
      <trkpt lat="35.21399" lon="129.222878">
        <ele>3.31</ele>
      </trkpt>
      <trkpt lat="35.213821" lon="129.222638">
        <ele>3.51</ele>
      </trkpt>
      <trkpt lat="35.213741" lon="129.222493">
        <ele>4.53</ele>
      </trkpt>
      <trkpt lat="35.213654" lon="129.222387">
        <ele>4.71</ele>
      </trkpt>
      <trkpt lat="35.213238" lon="129.222074">
        <ele>2.76</ele>
      </trkpt>
      <trkpt lat="35.213041" lon="129.221993">
        <ele>2.31</ele>
      </trkpt>
      <trkpt lat="35.212777" lon="129.221941">
        <ele>2.78</ele>
      </trkpt>
      <trkpt lat="35.212576" lon="129.221858">
        <ele>4.44</ele>
      </trkpt>
      <trkpt lat="35.212561" lon="129.22173">
        <ele>5.5</ele>
      </trkpt>
      <trkpt lat="35.212212" lon="129.221849">
        <ele>7.2</ele>
      </trkpt>
      <trkpt lat="35.212049" lon="129.221905">
        <ele>7.99</ele>
      </trkpt>
      <trkpt lat="35.211838" lon="129.221853">
        <ele>9.85</ele>
      </trkpt>
      <trkpt lat="35.211718" lon="129.221759">
        <ele>11.26</ele>
      </trkpt>
      <trkpt lat="35.211692" lon="129.221785">
        <ele>11.37</ele>
      </trkpt>
      <trkpt lat="35.21162" lon="129.221899">
        <ele>11.98</ele>
      </trkpt>
      <trkpt lat="35.211545" lon="129.221909">
        <ele>12.56</ele>
      </trkpt>
      <trkpt lat="35.211353" lon="129.221987">
        <ele>14.44</ele>
      </trkpt>
      <trkpt lat="35.211387" lon="129.222134">
        <ele>13.19</ele>
      </trkpt>
      <trkpt lat="35.210645" lon="129.222387">
        <ele>17.35</ele>
      </trkpt>
      <trkpt lat="35.209699" lon="129.222708">
        <ele>12.15</ele>
      </trkpt>
      <trkpt lat="35.209734" lon="129.222836">
        <ele>8.89</ele>
      </trkpt>
      <trkpt lat="35.20945" lon="129.223048">
        <ele>6.79</ele>
      </trkpt>
      <trkpt lat="35.209296" lon="129.223187">
        <ele>5.47</ele>
      </trkpt>
      <trkpt lat="35.209103" lon="129.223327">
        <ele>5.32</ele>
      </trkpt>
      <trkpt lat="35.209033" lon="129.22326">
        <ele>6.85</ele>
      </trkpt>
      <trkpt lat="35.208939" lon="129.22336">
        <ele>6.35</ele>
      </trkpt>
      <trkpt lat="35.208896" lon="129.223457">
        <ele>5.54</ele>
      </trkpt>
      <trkpt lat="35.208608" lon="129.223871">
        <ele>5.19</ele>
      </trkpt>
      <trkpt lat="35.208464" lon="129.224127">
        <ele>4.71</ele>
      </trkpt>
      <trkpt lat="35.208103" lon="129.224379">
        <ele>5.46</ele>
      </trkpt>
      <trkpt lat="35.207791" lon="129.22464">
        <ele>5.08</ele>
      </trkpt>
      <trkpt lat="35.207416" lon="129.224928">
        <ele>5.87</ele>
      </trkpt>
      <trkpt lat="35.207219" lon="129.225335">
        <ele>5.78</ele>
      </trkpt>
      <trkpt lat="35.207074" lon="129.225832">
        <ele>4.43</ele>
      </trkpt>
      <trkpt lat="35.206713" lon="129.226193">
        <ele>5.26</ele>
      </trkpt>
      <trkpt lat="35.206418" lon="129.226504">
        <ele>5.37</ele>
      </trkpt>
      <trkpt lat="35.20623" lon="129.226684">
        <ele>5.21</ele>
      </trkpt>
      <trkpt lat="35.205865" lon="129.226919">
        <ele>7.73</ele>
      </trkpt>
      <trkpt lat="35.205629" lon="129.227171">
        <ele>9.02</ele>
      </trkpt>
      <trkpt lat="35.205482" lon="129.227388">
        <ele>9.56</ele>
      </trkpt>
      <trkpt lat="35.205069" lon="129.227803">
        <ele>9.53</ele>
      </trkpt>
      <trkpt lat="35.20492" lon="129.227892">
        <ele>9.7</ele>
      </trkpt>
      <trkpt lat="35.204758" lon="129.227928">
        <ele>11.14</ele>
      </trkpt>
      <trkpt lat="35.204491" lon="129.227905">
        <ele>14.09</ele>
      </trkpt>
      <trkpt lat="35.204329" lon="129.227921">
        <ele>14.52</ele>
      </trkpt>
      <trkpt lat="35.204244" lon="129.228027">
        <ele>14.45</ele>
      </trkpt>
      <trkpt lat="35.204037" lon="129.228349">
        <ele>17.99</ele>
      </trkpt>
      <trkpt lat="35.203956" lon="129.228547">
        <ele>17.29</ele>
      </trkpt>
      <trkpt lat="35.203716" lon="129.228759">
        <ele>17.2</ele>
      </trkpt>
      <trkpt lat="35.20329" lon="129.228935">
        <ele>22.5</ele>
      </trkpt>
      <trkpt lat="35.203039" lon="129.229016">
        <ele>24.05</ele>
      </trkpt>
      <trkpt lat="35.202861" lon="129.229129">
        <ele>20.32</ele>
      </trkpt>
      <trkpt lat="35.202566" lon="129.229111">
        <ele>17.6</ele>
      </trkpt>
      <trkpt lat="35.202323" lon="129.229165">
        <ele>12.2</ele>
      </trkpt>
      <trkpt lat="35.202231" lon="129.229138">
        <ele>12.49</ele>
      </trkpt>
      <trkpt lat="35.20201" lon="129.228998">
        <ele>12.55</ele>
      </trkpt>
      <trkpt lat="35.201848" lon="129.22903">
        <ele>9.67</ele>
      </trkpt>
      <trkpt lat="35.201612" lon="129.229197">
        <ele>6.41</ele>
      </trkpt>
      <trkpt lat="35.201173" lon="129.229615">
        <ele>4.79</ele>
      </trkpt>
      <trkpt lat="35.20084" lon="129.229911">
        <ele>3.55</ele>
      </trkpt>
      <trkpt lat="35.200722" lon="129.229963">
        <ele>3.25</ele>
      </trkpt>
      <trkpt lat="35.200101" lon="129.229821">
        <ele>4.08</ele>
      </trkpt>
      <trkpt lat="35.199805" lon="129.229822">
        <ele>4.07</ele>
      </trkpt>
      <trkpt lat="35.199652" lon="129.22974">
        <ele>4.48</ele>
      </trkpt>
      <trkpt lat="35.199409" lon="129.229736">
        <ele>4.15</ele>
      </trkpt>
      <trkpt lat="35.199102" lon="129.229619">
        <ele>4.25</ele>
      </trkpt>
      <trkpt lat="35.19828" lon="129.229693">
        <ele>4.81</ele>
      </trkpt>
      <trkpt lat="35.198034" lon="129.22968">
        <ele>4.23</ele>
      </trkpt>
      <trkpt lat="35.197552" lon="129.229482">
        <ele>4.05</ele>
      </trkpt>
      <trkpt lat="35.197115" lon="129.229225">
        <ele>3.97</ele>
      </trkpt>
      <trkpt lat="35.196966" lon="129.229104">
        <ele>3.98</ele>
      </trkpt>
      <trkpt lat="35.196758" lon="129.228899">
        <ele>3.69</ele>
      </trkpt>
      <trkpt lat="35.196407" lon="129.228327">
        <ele>3.7</ele>
      </trkpt>
      <trkpt lat="35.196367" lon="129.228208">
        <ele>3.93</ele>
      </trkpt>
      <trkpt lat="35.196285" lon="129.227585">
        <ele>3.9</ele>
      </trkpt>
      <trkpt lat="35.196307" lon="129.227349">
        <ele>4.05</ele>
      </trkpt>
      <trkpt lat="35.196516" lon="129.226714">
        <ele>3.39</ele>
      </trkpt>
      <trkpt lat="35.196852" lon="129.226071">
        <ele>3.98</ele>
      </trkpt>
      <trkpt lat="35.196927" lon="129.225864">
        <ele>3.89</ele>
      </trkpt>
      <trkpt lat="35.19692" lon="129.22576">
        <ele>3.54</ele>
      </trkpt>
      <trkpt lat="35.196686" lon="129.225355">
        <ele>3.55</ele>
      </trkpt>
      <trkpt lat="35.196342" lon="129.224929">
        <ele>3.82</ele>
      </trkpt>
      <trkpt lat="35.196013" lon="129.224646">
        <ele>4.33</ele>
      </trkpt>
      <trkpt lat="35.195935" lon="129.224633">
        <ele>4.48</ele>
      </trkpt>
      <trkpt lat="35.195332" lon="129.224657">
        <ele>3.11</ele>
      </trkpt>
      <trkpt lat="35.195257" lon="129.22462">
        <ele>2.9</ele>
      </trkpt>
      <trkpt lat="35.195217" lon="129.224562">
        <ele>2.95</ele>
      </trkpt>
      <trkpt lat="35.194888" lon="129.224479">
        <ele>3.28</ele>
      </trkpt>
      <trkpt lat="35.194749" lon="129.224481">
        <ele>3.4</ele>
      </trkpt>
      <trkpt lat="35.194638" lon="129.224494">
        <ele>3.96</ele>
      </trkpt>
      <trkpt lat="35.194515" lon="129.224487">
        <ele>4.34</ele>
      </trkpt>
      <trkpt lat="35.194463" lon="129.224441">
        <ele>5.43</ele>
      </trkpt>
      <trkpt lat="35.194084" lon="129.224556">
        <ele>4.82</ele>
      </trkpt>
      <trkpt lat="35.193679" lon="129.224776">
        <ele>5.52</ele>
      </trkpt>
      <trkpt lat="35.193369" lon="129.224808">
        <ele>6.56</ele>
      </trkpt>
      <trkpt lat="35.193058" lon="129.22484">
        <ele>5.15</ele>
      </trkpt>
      <trkpt lat="35.192396" lon="129.224736">
        <ele>4.52</ele>
      </trkpt>
      <trkpt lat="35.192085" lon="129.22456">
        <ele>4.34</ele>
      </trkpt>
      <trkpt lat="35.191854" lon="129.223938">
        <ele>7.38</ele>
      </trkpt>
      <trkpt lat="35.191764" lon="129.223882">
        <ele>7.23</ele>
      </trkpt>
      <trkpt lat="35.191265" lon="129.223573">
        <ele>6.46</ele>
      </trkpt>
      <trkpt lat="35.190734" lon="129.223477">
        <ele>5.3</ele>
      </trkpt>
      <trkpt lat="35.190388" lon="129.223266">
        <ele>6.32</ele>
      </trkpt>
      <trkpt lat="35.190055" lon="129.223047">
        <ele>6.96</ele>
      </trkpt>
      <trkpt lat="35.189628" lon="129.222927">
        <ele>7.34</ele>
      </trkpt>
      <trkpt lat="35.189513" lon="129.222994">
        <ele>8.17</ele>
      </trkpt>
      <trkpt lat="35.189487" lon="129.223046">
        <ele>7.82</ele>
      </trkpt>
      <trkpt lat="35.1895" lon="129.223118">
        <ele>6.29</ele>
      </trkpt>
      <trkpt lat="35.189541" lon="129.223222">
        <ele>4.15</ele>
      </trkpt>
      <trkpt lat="35.189445" lon="129.223312">
        <ele>5.16</ele>
      </trkpt>
      <trkpt lat="35.189337" lon="129.223398">
        <ele>5.37</ele>
      </trkpt>
      <trkpt lat="35.189231" lon="129.223378">
        <ele>6.1</ele>
      </trkpt>
      <trkpt lat="35.189159" lon="129.223298">
        <ele>7.83</ele>
      </trkpt>
      <trkpt lat="35.18913" lon="129.223253">
        <ele>9.32</ele>
      </trkpt>
      <trkpt lat="35.189041" lon="129.22318">
        <ele>10.8</ele>
      </trkpt>
      <trkpt lat="35.188962" lon="129.223165">
        <ele>10.67</ele>
      </trkpt>
      <trkpt lat="35.188893" lon="129.223048">
        <ele>13.6</ele>
      </trkpt>
      <trkpt lat="35.188975" lon="129.222956">
        <ele>16.84</ele>
      </trkpt>
      <trkpt lat="35.188972" lon="129.22284">
        <ele>20.28</ele>
      </trkpt>
      <trkpt lat="35.189059" lon="129.222833">
        <ele>19.85</ele>
      </trkpt>
      <trkpt lat="35.18908" lon="129.222803">
        <ele>20.3</ele>
      </trkpt>
      <trkpt lat="35.189027" lon="129.222672">
        <ele>23.25</ele>
      </trkpt>
      <trkpt lat="35.188974" lon="129.222589">
        <ele>25.49</ele>
      </trkpt>
      <trkpt lat="35.188997" lon="129.222556">
        <ele>25.82</ele>
      </trkpt>
      <trkpt lat="35.189002" lon="129.222515">
        <ele>26.42</ele>
      </trkpt>
      <trkpt lat="35.188994" lon="129.222478">
        <ele>27.26</ele>
      </trkpt>
      <trkpt lat="35.188935" lon="129.222405">
        <ele>29.07</ele>
      </trkpt>
      <trkpt lat="35.18925" lon="129.222006">
        <ele>27.34</ele>
      </trkpt>
      <trkpt lat="35.18941" lon="129.221782">
        <ele>27.32</ele>
      </trkpt>
      <trkpt lat="35.189625" lon="129.221416">
        <ele>31.89</ele>
      </trkpt>
      <trkpt lat="35.18963" lon="129.22132">
        <ele>32.5</ele>
      </trkpt>
      <trkpt lat="35.18958" lon="129.221206">
        <ele>33</ele>
      </trkpt>
      <trkpt lat="35.189588" lon="129.221041">
        <ele>33</ele>
      </trkpt>
      <trkpt lat="35.189618" lon="129.220792">
        <ele>33.61</ele>
      </trkpt>
      <trkpt lat="35.189708" lon="129.220641">
        <ele>33.86</ele>
      </trkpt>
      <trkpt lat="35.189994" lon="129.220369">
        <ele>35.06</ele>
      </trkpt>
      <trkpt lat="35.189984" lon="129.22034">
        <ele>35.4</ele>
      </trkpt>
      <trkpt lat="35.190165" lon="129.220145">
        <ele>37.1</ele>
      </trkpt>
      <trkpt lat="35.190346" lon="129.219965">
        <ele>37.98</ele>
      </trkpt>
      <trkpt lat="35.190491" lon="129.219861">
        <ele>38.98</ele>
      </trkpt>
      <trkpt lat="35.190401" lon="129.219684">
        <ele>40.03</ele>
      </trkpt>
      <trkpt lat="35.190348" lon="129.219473">
        <ele>41.66</ele>
      </trkpt>
      <trkpt lat="35.190228" lon="129.219028">
        <ele>37.48</ele>
      </trkpt>
      <trkpt lat="35.189971" lon="129.218409">
        <ele>27.71</ele>
      </trkpt>
      <trkpt lat="35.189774" lon="129.218352">
        <ele>27.16</ele>
      </trkpt>
      <trkpt lat="35.189687" lon="129.218281">
        <ele>26.33</ele>
      </trkpt>
      <trkpt lat="35.189592" lon="129.218143">
        <ele>23.81</ele>
      </trkpt>
      <trkpt lat="35.189494" lon="129.218099">
        <ele>23.73</ele>
      </trkpt>
      <trkpt lat="35.189325" lon="129.218075">
        <ele>24.12</ele>
      </trkpt>
      <trkpt lat="35.189029" lon="129.218132">
        <ele>26.66</ele>
      </trkpt>
      <trkpt lat="35.188795" lon="129.217965">
        <ele>26.38</ele>
      </trkpt>
      <trkpt lat="35.188318" lon="129.217596">
        <ele>21.75</ele>
      </trkpt>
      <trkpt lat="35.188156" lon="129.217446">
        <ele>18.01</ele>
      </trkpt>
      <trkpt lat="35.188009" lon="129.217398">
        <ele>16.41</ele>
      </trkpt>
      <trkpt lat="35.187735" lon="129.217222">
        <ele>12.43</ele>
      </trkpt>
      <trkpt lat="35.187651" lon="129.217161">
        <ele>10.57</ele>
      </trkpt>
      <trkpt lat="35.187628" lon="129.217047">
        <ele>8.92</ele>
      </trkpt>
      <trkpt lat="35.187662" lon="129.216196">
        <ele>4.25</ele>
      </trkpt>
      <trkpt lat="35.187659" lon="129.216089">
        <ele>3.61</ele>
      </trkpt>
      <trkpt lat="35.187235" lon="129.215613">
        <ele>3.87</ele>
      </trkpt>
      <trkpt lat="35.187069" lon="129.21566">
        <ele>2.82</ele>
      </trkpt>
      <trkpt lat="35.186923" lon="129.215643">
        <ele>2.31</ele>
      </trkpt>
      <trkpt lat="35.186798" lon="129.215592">
        <ele>2.13</ele>
      </trkpt>
      <trkpt lat="35.186736" lon="129.215546">
        <ele>2.03</ele>
      </trkpt>
      <trkpt lat="35.186703" lon="129.215501">
        <ele>2.06</ele>
      </trkpt>
      <trkpt lat="35.186677" lon="129.215431">
        <ele>2.28</ele>
      </trkpt>
      <trkpt lat="35.186665" lon="129.215362">
        <ele>2.45</ele>
      </trkpt>
      <trkpt lat="35.186678" lon="129.215239">
        <ele>2.55</ele>
      </trkpt>
      <trkpt lat="35.186734" lon="129.215046">
        <ele>2.95</ele>
      </trkpt>
      <trkpt lat="35.186757" lon="129.214856">
        <ele>3.11</ele>
      </trkpt>
      <trkpt lat="35.186753" lon="129.214699">
        <ele>3.08</ele>
      </trkpt>
      <trkpt lat="35.186738" lon="129.214583">
        <ele>2.98</ele>
      </trkpt>
      <trkpt lat="35.186692" lon="129.214479">
        <ele>2.93</ele>
      </trkpt>
      <trkpt lat="35.186611" lon="129.214326">
        <ele>3.07</ele>
      </trkpt>
      <trkpt lat="35.186452" lon="129.214152">
        <ele>2.12</ele>
      </trkpt>
      <trkpt lat="35.186272" lon="129.214009">
        <ele>1.68</ele>
      </trkpt>
      <trkpt lat="35.186125" lon="129.21374">
        <ele>3.18</ele>
      </trkpt>
      <trkpt lat="35.185997" lon="129.213583">
        <ele>3.52</ele>
      </trkpt>
      <trkpt lat="35.185767" lon="129.213199">
        <ele>3.85</ele>
      </trkpt>
      <trkpt lat="35.185584" lon="129.213046">
        <ele>3.99</ele>
      </trkpt>
      <trkpt lat="35.185457" lon="129.212989">
        <ele>3.87</ele>
      </trkpt>
      <trkpt lat="35.185349" lon="129.21298">
        <ele>3.98</ele>
      </trkpt>
      <trkpt lat="35.185224" lon="129.212992">
        <ele>3.85</ele>
      </trkpt>
      <trkpt lat="35.18521" lon="129.212993">
        <ele>3.83</ele>
      </trkpt>
      <trkpt lat="35.185075" lon="129.213088">
        <ele>3.27</ele>
      </trkpt>
      <trkpt lat="35.184875" lon="129.213383">
        <ele>1.83</ele>
      </trkpt>
      <trkpt lat="35.184806" lon="129.213439">
        <ele>1.57</ele>
      </trkpt>
      <trkpt lat="35.184756" lon="129.213467">
        <ele>1.45</ele>
      </trkpt>
      <trkpt lat="35.184665" lon="129.213494">
        <ele>1.78</ele>
      </trkpt>
      <trkpt lat="35.184602" lon="129.213492">
        <ele>2.03</ele>
      </trkpt>
      <trkpt lat="35.184475" lon="129.213447">
        <ele>2.43</ele>
      </trkpt>
      <trkpt lat="35.184401" lon="129.213399">
        <ele>2.46</ele>
      </trkpt>
      <trkpt lat="35.184306" lon="129.213301">
        <ele>2.79</ele>
      </trkpt>
      <trkpt lat="35.184247" lon="129.213211">
        <ele>2.81</ele>
      </trkpt>
      <trkpt lat="35.184187" lon="129.213118">
        <ele>2.83</ele>
      </trkpt>
      <trkpt lat="35.184142" lon="129.212992">
        <ele>2.51</ele>
      </trkpt>
      <trkpt lat="35.184146" lon="129.212907">
        <ele>2.34</ele>
      </trkpt>
      <trkpt lat="35.184174" lon="129.212828">
        <ele>2.51</ele>
      </trkpt>
      <trkpt lat="35.184241" lon="129.212737">
        <ele>3.01</ele>
      </trkpt>
      <trkpt lat="35.184373" lon="129.212609">
        <ele>3.87</ele>
      </trkpt>
      <trkpt lat="35.184444" lon="129.212566">
        <ele>4.11</ele>
      </trkpt>
      <trkpt lat="35.184573" lon="129.212558">
        <ele>5.12</ele>
      </trkpt>
      <trkpt lat="35.184618" lon="129.212538">
        <ele>5.33</ele>
      </trkpt>
      <trkpt lat="35.184709" lon="129.212442">
        <ele>5.42</ele>
      </trkpt>
      <trkpt lat="35.184746" lon="129.212359">
        <ele>5.2</ele>
      </trkpt>
      <trkpt lat="35.184736" lon="129.212183">
        <ele>4.11</ele>
      </trkpt>
      <trkpt lat="35.184636" lon="129.211769">
        <ele>4.02</ele>
      </trkpt>
      <trkpt lat="35.184582" lon="129.211634">
        <ele>3.63</ele>
      </trkpt>
      <trkpt lat="35.184534" lon="129.211537">
        <ele>3.56</ele>
      </trkpt>
      <trkpt lat="35.184455" lon="129.211431">
        <ele>3.73</ele>
      </trkpt>
      <trkpt lat="35.184376" lon="129.211362">
        <ele>3.5</ele>
      </trkpt>
      <trkpt lat="35.184292" lon="129.211317">
        <ele>3.24</ele>
      </trkpt>
      <trkpt lat="35.184196" lon="129.211282">
        <ele>2.85</ele>
      </trkpt>
      <trkpt lat="35.184058" lon="129.211282">
        <ele>2.74</ele>
      </trkpt>
      <trkpt lat="35.183976" lon="129.210983">
        <ele>5.6</ele>
      </trkpt>
      <trkpt lat="35.183925" lon="129.210899">
        <ele>6.13</ele>
      </trkpt>
      <trkpt lat="35.183801" lon="129.21074">
        <ele>7.01</ele>
      </trkpt>
      <trkpt lat="35.183734" lon="129.210625">
        <ele>7.41</ele>
      </trkpt>
      <trkpt lat="35.183663" lon="129.210349">
        <ele>8.29</ele>
      </trkpt>
      <trkpt lat="35.183687" lon="129.210294">
        <ele>8.61</ele>
      </trkpt>
      <trkpt lat="35.183772" lon="129.210196">
        <ele>9</ele>
      </trkpt>
      <trkpt lat="35.183615" lon="129.210046">
        <ele>8.77</ele>
      </trkpt>
      <trkpt lat="35.182839" lon="129.209022">
        <ele>12.25</ele>
      </trkpt>
      <trkpt lat="35.182556" lon="129.208606">
        <ele>15.54</ele>
      </trkpt>
      <trkpt lat="35.182391" lon="129.208344">
        <ele>16.13</ele>
      </trkpt>
      <trkpt lat="35.182255" lon="129.208081">
        <ele>15.04</ele>
      </trkpt>
      <trkpt lat="35.182148" lon="129.20777">
        <ele>15.44</ele>
      </trkpt>
      <trkpt lat="35.182056" lon="129.207399">
        <ele>14.73</ele>
      </trkpt>
      <trkpt lat="35.181986" lon="129.207115">
        <ele>12.08</ele>
      </trkpt>
      <trkpt lat="35.181904" lon="129.206816">
        <ele>7.03</ele>
      </trkpt>
      <trkpt lat="35.181666" lon="129.206246">
        <ele>1.02</ele>
      </trkpt>
      <trkpt lat="35.181572" lon="129.206075">
        <ele>1.91</ele>
      </trkpt>
      <trkpt lat="35.181348" lon="129.205905">
        <ele>4</ele>
      </trkpt>
      <trkpt lat="35.181293" lon="129.205893">
        <ele>4</ele>
      </trkpt>
      <trkpt lat="35.181245" lon="129.205857">
        <ele>3.9</ele>
      </trkpt>
      <trkpt lat="35.181207" lon="129.205791">
        <ele>3.62</ele>
      </trkpt>
      <trkpt lat="35.181196" lon="129.205748">
        <ele>3.59</ele>
      </trkpt>
      <trkpt lat="35.181197" lon="129.205686">
        <ele>3.95</ele>
      </trkpt>
      <trkpt lat="35.181221" lon="129.205612">
        <ele>4.56</ele>
      </trkpt>
      <trkpt lat="35.181268" lon="129.205558">
        <ele>5.01</ele>
      </trkpt>
      <trkpt lat="35.181128" lon="129.205345">
        <ele>5.41</ele>
      </trkpt>
      <trkpt lat="35.180997" lon="129.205088">
        <ele>6.01</ele>
      </trkpt>
      <trkpt lat="35.180891" lon="129.204852">
        <ele>7.01</ele>
      </trkpt>
      <trkpt lat="35.18086" lon="129.204708">
        <ele>7.5</ele>
      </trkpt>
      <trkpt lat="35.180854" lon="129.204509">
        <ele>9.37</ele>
      </trkpt>
    </trkseg>
  </trk>
</gpx>
