<?xml version="1.0" encoding="UTF-8"?>
<gpx creator="https://gpx.studio" version="1.1" xmlns="http://www.topografix.com/GPX/1/1" xmlns:xsi="http://www.w3.org/2001/XMLSchema-instance" xsi:schemaLocation="http://www.topografix.com/GPX/1/1 http://www.topografix.com/GPX/1/1/gpx.xsd http://www.garmin.com/xmlschemas/GpxExtensions/v3 http://www.garmin.com/xmlschemas/GpxExtensionsv3.xsd http://www.garmin.com/xmlschemas/TrackPointExtension/v1 http://www.garmin.com/xmlschemas/TrackPointExtensionv1.xsd http://www.garmin.com/xmlschemas/PowerExtension/v1 http://www.garmin.com/xmlschemas/PowerExtensionv1.xsd http://www.topografix.com/GPX/gpx_style/0/2 http://www.topografix.com/GPX/gpx_style/0/2/gpx_style.xsd" xmlns:gpxtpx="http://www.garmin.com/xmlschemas/TrackPointExtension/v1" xmlns:gpxx="http://www.garmin.com/xmlschemas/GpxExtensions/v3" xmlns:gpxpx="http://www.garmin.com/xmlschemas/PowerExtension/v1" xmlns:gpx_style="http://www.topografix.com/GPX/gpx_style/0/2">
  <metadata>
    <name>YOLO 갈맷길 9코스(6-1 완주형)</name>
    <author>
      <name>gpx.studio</name>
      <link href="https://gpx.studio"/>
    </author>
  </metadata>
  <wpt lat="35.15544" lon="128.96874">
    <ele>0.945335894706659</ele>
    <name>삼락생태공원 연꽃단지</name>
    <link href="https://www.busan.go.kr/nakdong/samrakpark01"/>
  </wpt>
  <wpt lat="35.163905" lon="128.974513">
    <ele>4</ele>
    <name>강변나들교(괘법르네시떼역)</name>
    <link href="https://kko.to/UunR5I8c_C"/>
  </wpt>
  <trk>
    <name>YOLO 갈맷길 9코스(6-1 완주형)</name>
    <trkseg>
      <trkpt lat="35.105578" lon="128.956606">
        <ele>4.01</ele>
      </trkpt>
      <trkpt lat="35.106291" lon="128.956755">
        <ele>6.66</ele>
      </trkpt>
      <trkpt lat="35.107356" lon="128.956983">
        <ele>4.63</ele>
      </trkpt>
      <trkpt lat="35.107388" lon="128.956835">
        <ele>3.77</ele>
      </trkpt>
      <trkpt lat="35.108258" lon="128.957028">
        <ele>2.84</ele>
      </trkpt>
      <trkpt lat="35.108742" lon="128.957153">
        <ele>3.24</ele>
      </trkpt>
      <trkpt lat="35.110082" lon="128.957455">
        <ele>3.75</ele>
      </trkpt>
      <trkpt lat="35.111395" lon="128.957723">
        <ele>3.86</ele>
      </trkpt>
      <trkpt lat="35.111981" lon="128.957854">
        <ele>3.08</ele>
      </trkpt>
      <trkpt lat="35.112565" lon="128.958002">
        <ele>4.11</ele>
      </trkpt>
      <trkpt lat="35.112984" lon="128.958133">
        <ele>3.26</ele>
      </trkpt>
      <trkpt lat="35.113052" lon="128.958133">
        <ele>2.94</ele>
      </trkpt>
      <trkpt lat="35.113159" lon="128.958166">
        <ele>3.52</ele>
      </trkpt>
      <trkpt lat="35.113187" lon="128.958194">
        <ele>4.01</ele>
      </trkpt>
      <trkpt lat="35.114773" lon="128.958728">
        <ele>3.49</ele>
      </trkpt>
      <trkpt lat="35.11913" lon="128.960165">
        <ele>4.17</ele>
      </trkpt>
      <trkpt lat="35.120039" lon="128.960471">
        <ele>3.82</ele>
      </trkpt>
      <trkpt lat="35.120095" lon="128.960491">
        <ele>4.05</ele>
      </trkpt>
      <trkpt lat="35.120117" lon="128.960509">
        <ele>4.23</ele>
      </trkpt>
      <trkpt lat="35.120138" lon="128.960498">
        <ele>4.11</ele>
      </trkpt>
      <trkpt lat="35.120199" lon="128.960504">
        <ele>4.12</ele>
      </trkpt>
      <trkpt lat="35.12153" lon="128.960965">
        <ele>3.56</ele>
      </trkpt>
      <trkpt lat="35.122489" lon="128.961273">
        <ele>3.67</ele>
      </trkpt>
      <trkpt lat="35.125085" lon="128.962139">
        <ele>3.67</ele>
      </trkpt>
      <trkpt lat="35.125641" lon="128.962335">
        <ele>3.87</ele>
      </trkpt>
      <trkpt lat="35.126995" lon="128.962775">
        <ele>3.57</ele>
      </trkpt>
      <trkpt lat="35.127027" lon="128.962782">
        <ele>3.58</ele>
      </trkpt>
      <trkpt lat="35.127044" lon="128.962771">
        <ele>3.43</ele>
      </trkpt>
      <trkpt lat="35.127075" lon="128.962772">
        <ele>3.38</ele>
      </trkpt>
      <trkpt lat="35.12718" lon="128.962813">
        <ele>3.32</ele>
      </trkpt>
      <trkpt lat="35.127209" lon="128.962851">
        <ele>3.59</ele>
      </trkpt>
      <trkpt lat="35.127546" lon="128.962961">
        <ele>3.74</ele>
      </trkpt>
      <trkpt lat="35.127586" lon="128.963006">
        <ele>3.97</ele>
      </trkpt>
      <trkpt lat="35.127644" lon="128.963028">
        <ele>3.81</ele>
      </trkpt>
      <trkpt lat="35.127756" lon="128.963038">
        <ele>3.23</ele>
      </trkpt>
      <trkpt lat="35.128296" lon="128.963207">
        <ele>3.15</ele>
      </trkpt>
      <trkpt lat="35.129259" lon="128.963546">
        <ele>2.57</ele>
      </trkpt>
      <trkpt lat="35.129372" lon="128.963644">
        <ele>2.7</ele>
      </trkpt>
      <trkpt lat="35.130698" lon="128.964066">
        <ele>3.62</ele>
      </trkpt>
      <trkpt lat="35.131438" lon="128.96431">
        <ele>3.91</ele>
      </trkpt>
      <trkpt lat="35.131801" lon="128.964438">
        <ele>4.67</ele>
      </trkpt>
      <trkpt lat="35.13283" lon="128.96478">
        <ele>3.94</ele>
      </trkpt>
      <trkpt lat="35.133155" lon="128.964889">
        <ele>5.19</ele>
      </trkpt>
      <trkpt lat="35.133452" lon="128.964981">
        <ele>4.13</ele>
      </trkpt>
      <trkpt lat="35.136114" lon="128.965873">
        <ele>4.34</ele>
      </trkpt>
      <trkpt lat="35.136452" lon="128.965979">
        <ele>3.91</ele>
      </trkpt>
      <trkpt lat="35.13696" lon="128.966153">
        <ele>4.89</ele>
      </trkpt>
      <trkpt lat="35.137183" lon="128.966217">
        <ele>4.76</ele>
      </trkpt>
      <trkpt lat="35.137452" lon="128.966276">
        <ele>4.66</ele>
      </trkpt>
      <trkpt lat="35.138071" lon="128.966356">
        <ele>6.01</ele>
      </trkpt>
      <trkpt lat="35.138243" lon="128.966328">
        <ele>4.96</ele>
      </trkpt>
      <trkpt lat="35.139724" lon="128.966522">
        <ele>4.09</ele>
      </trkpt>
      <trkpt lat="35.139879" lon="128.966552">
        <ele>4.26</ele>
      </trkpt>
      <trkpt lat="35.14053" lon="128.966783">
        <ele>4.08</ele>
      </trkpt>
      <trkpt lat="35.141808" lon="128.967262">
        <ele>4</ele>
      </trkpt>
      <trkpt lat="35.143248" lon="128.967918">
        <ele>4</ele>
      </trkpt>
      <trkpt lat="35.143697" lon="128.968137">
        <ele>4.48</ele>
      </trkpt>
      <trkpt lat="35.144049" lon="128.968296">
        <ele>5.04</ele>
      </trkpt>
      <trkpt lat="35.145175" lon="128.968779">
        <ele>4</ele>
      </trkpt>
      <trkpt lat="35.145216" lon="128.96872">
        <ele>3.78</ele>
      </trkpt>
      <trkpt lat="35.145359" lon="128.968693">
        <ele>2.94</ele>
      </trkpt>
      <trkpt lat="35.148082" lon="128.969761">
        <ele>3.05</ele>
      </trkpt>
      <trkpt lat="35.150317" lon="128.97074">
        <ele>3.13</ele>
      </trkpt>
      <trkpt lat="35.151765" lon="128.971166">
        <ele>3.16</ele>
      </trkpt>
      <trkpt lat="35.152211" lon="128.971217">
        <ele>3.17</ele>
      </trkpt>
      <trkpt lat="35.152239" lon="128.971186">
        <ele>3.17</ele>
      </trkpt>
      <trkpt lat="35.152239" lon="128.971186">
        <ele>3.17</ele>
      </trkpt>
      <trkpt lat="35.15235" lon="128.971064">
        <ele>3.17</ele>
      </trkpt>
      <trkpt lat="35.152539" lon="128.969742">
        <ele>3.21</ele>
      </trkpt>
      <trkpt lat="35.152599" lon="128.969468">
        <ele>2.82</ele>
      </trkpt>
      <trkpt lat="35.15266" lon="128.969107">
        <ele>3.34</ele>
      </trkpt>
      <trkpt lat="35.152708" lon="128.968944">
        <ele>3.56</ele>
      </trkpt>
      <trkpt lat="35.152768" lon="128.968884">
        <ele>3.68</ele>
      </trkpt>
      <trkpt lat="35.152825" lon="128.968856">
        <ele>3.77</ele>
      </trkpt>
      <trkpt lat="35.153086" lon="128.96898">
        <ele>6.24</ele>
      </trkpt>
      <trkpt lat="35.153245" lon="128.969055">
        <ele>5.1</ele>
      </trkpt>
      <trkpt lat="35.153245" lon="128.969055">
        <ele>5.1</ele>
      </trkpt>
      <trkpt lat="35.153879" lon="128.969331">
        <ele>1</ele>
      </trkpt>
      <trkpt lat="35.155837" lon="128.970167">
        <ele>1.77</ele>
      </trkpt>
      <trkpt lat="35.157214" lon="128.970828">
        <ele>1.87</ele>
      </trkpt>
      <trkpt lat="35.158115" lon="128.971344">
        <ele>1.87</ele>
      </trkpt>
      <trkpt lat="35.158755" lon="128.971941">
        <ele>1.97</ele>
      </trkpt>
      <trkpt lat="35.1588" lon="128.971971">
        <ele>1.97</ele>
      </trkpt>
      <trkpt lat="35.159243" lon="128.972264">
        <ele>2</ele>
      </trkpt>
      <trkpt lat="35.159528" lon="128.972341">
        <ele>2</ele>
      </trkpt>
      <trkpt lat="35.160148" lon="128.97227">
        <ele>1.51</ele>
      </trkpt>
      <trkpt lat="35.160566" lon="128.972421">
        <ele>1</ele>
      </trkpt>
      <trkpt lat="35.161139" lon="128.972931">
        <ele>1.96</ele>
      </trkpt>
      <trkpt lat="35.161502" lon="128.973144">
        <ele>2</ele>
      </trkpt>
      <trkpt lat="35.161794" lon="128.973233">
        <ele>1.95</ele>
      </trkpt>
      <trkpt lat="35.162306" lon="128.973318">
        <ele>1</ele>
      </trkpt>
      <trkpt lat="35.162905" lon="128.973463">
        <ele>1</ele>
      </trkpt>
      <trkpt lat="35.163253" lon="128.973709">
        <ele>1</ele>
      </trkpt>
      <trkpt lat="35.163883" lon="128.974454">
        <ele>4</ele>
      </trkpt>
      <trkpt lat="35.163906" lon="128.974313">
        <ele>3.75</ele>
      </trkpt>
      <trkpt lat="35.163906" lon="128.974313">
        <ele>3.75</ele>
      </trkpt>
      <trkpt lat="35.163883" lon="128.974454">
        <ele>4</ele>
      </trkpt>
      <trkpt lat="35.164206" lon="128.974554">
        <ele>2.85</ele>
      </trkpt>
      <trkpt lat="35.164822" lon="128.974679">
        <ele>2</ele>
      </trkpt>
      <trkpt lat="35.167067" lon="128.975079">
        <ele>2.99</ele>
      </trkpt>
      <trkpt lat="35.167453" lon="128.975125">
        <ele>2</ele>
      </trkpt>
      <trkpt lat="35.168673" lon="128.975246">
        <ele>1.81</ele>
      </trkpt>
      <trkpt lat="35.171448" lon="128.975308">
        <ele>1.82</ele>
      </trkpt>
      <trkpt lat="35.173374" lon="128.975156">
        <ele>2</ele>
      </trkpt>
      <trkpt lat="35.17564" lon="128.974937">
        <ele>1</ele>
      </trkpt>
      <trkpt lat="35.176613" lon="128.974811">
        <ele>1.28</ele>
      </trkpt>
      <trkpt lat="35.177014" lon="128.974786">
        <ele>1.93</ele>
      </trkpt>
      <trkpt lat="35.177014" lon="128.974786">
        <ele>1.93</ele>
      </trkpt>
      <trkpt lat="35.17714" lon="128.97478">
        <ele>2</ele>
      </trkpt>
      <trkpt lat="35.17714" lon="128.97478">
        <ele>2</ele>
      </trkpt>
      <trkpt lat="35.177989" lon="128.974746">
        <ele>2</ele>
      </trkpt>
      <trkpt lat="35.178761" lon="128.974631">
        <ele>2</ele>
      </trkpt>
      <trkpt lat="35.179676" lon="128.974539">
        <ele>2</ele>
      </trkpt>
      <trkpt lat="35.181049" lon="128.974557">
        <ele>1</ele>
      </trkpt>
      <trkpt lat="35.181597" lon="128.974564">
        <ele>2</ele>
      </trkpt>
      <trkpt lat="35.18332" lon="128.974859">
        <ele>2</ele>
      </trkpt>
      <trkpt lat="35.184338" lon="128.975105">
        <ele>2</ele>
      </trkpt>
      <trkpt lat="35.185254" lon="128.975416">
        <ele>1.66</ele>
      </trkpt>
      <trkpt lat="35.186752" lon="128.976086">
        <ele>2</ele>
      </trkpt>
      <trkpt lat="35.188379" lon="128.977101">
        <ele>2</ele>
      </trkpt>
      <trkpt lat="35.189814" lon="128.978287">
        <ele>2</ele>
      </trkpt>
      <trkpt lat="35.190317" lon="128.978686">
        <ele>2</ele>
      </trkpt>
      <trkpt lat="35.190757" lon="128.978979">
        <ele>2</ele>
      </trkpt>
      <trkpt lat="35.19124" lon="128.979264">
        <ele>2</ele>
      </trkpt>
      <trkpt lat="35.191695" lon="128.979486">
        <ele>2</ele>
      </trkpt>
      <trkpt lat="35.192135" lon="128.979674">
        <ele>2.56</ele>
      </trkpt>
      <trkpt lat="35.192373" lon="128.9799">
        <ele>4.69</ele>
      </trkpt>
      <trkpt lat="35.192576" lon="128.980383">
        <ele>3.32</ele>
      </trkpt>
      <trkpt lat="35.192622" lon="128.980639">
        <ele>3</ele>
      </trkpt>
      <trkpt lat="35.192556" lon="128.980878">
        <ele>3.77</ele>
      </trkpt>
      <trkpt lat="35.192412" lon="128.981406">
        <ele>5</ele>
      </trkpt>
      <trkpt lat="35.192403" lon="128.981482">
        <ele>5.14</ele>
      </trkpt>
      <trkpt lat="35.192522" lon="128.98162">
        <ele>6.76</ele>
      </trkpt>
      <trkpt lat="35.192711" lon="128.981893">
        <ele>7.25</ele>
      </trkpt>
      <trkpt lat="35.192789" lon="128.982071">
        <ele>6.51</ele>
      </trkpt>
      <trkpt lat="35.192955" lon="128.982261">
        <ele>6.68</ele>
      </trkpt>
      <trkpt lat="35.19318" lon="128.982554">
        <ele>8.3</ele>
      </trkpt>
      <trkpt lat="35.193301" lon="128.982732">
        <ele>8.22</ele>
      </trkpt>
      <trkpt lat="35.193503" lon="128.982978">
        <ele>7.31</ele>
      </trkpt>
      <trkpt lat="35.193984" lon="128.983657">
        <ele>5.66</ele>
      </trkpt>
      <trkpt lat="35.194394" lon="128.984177">
        <ele>5</ele>
      </trkpt>
      <trkpt lat="35.194968" lon="128.984928">
        <ele>6.05</ele>
      </trkpt>
      <trkpt lat="35.196095" lon="128.98635">
        <ele>6</ele>
      </trkpt>
      <trkpt lat="35.19739" lon="128.987878">
        <ele>6.06</ele>
      </trkpt>
      <trkpt lat="35.197877" lon="128.988428">
        <ele>5.53</ele>
      </trkpt>
      <trkpt lat="35.199064" lon="128.989517">
        <ele>5</ele>
      </trkpt>
      <trkpt lat="35.199539" lon="128.989942">
        <ele>7</ele>
      </trkpt>
      <trkpt lat="35.200252" lon="128.990578">
        <ele>5.84</ele>
      </trkpt>
      <trkpt lat="35.201071" lon="128.99138">
        <ele>6</ele>
      </trkpt>
      <trkpt lat="35.201873" lon="128.992042">
        <ele>4.65</ele>
      </trkpt>
      <trkpt lat="35.202316" lon="128.992472">
        <ele>2.42</ele>
      </trkpt>
      <trkpt lat="35.203307" lon="128.993249">
        <ele>3.62</ele>
      </trkpt>
      <trkpt lat="35.203584" lon="128.993441">
        <ele>5.53</ele>
      </trkpt>
      <trkpt lat="35.203964" lon="128.993706">
        <ele>11.2</ele>
      </trkpt>
      <trkpt lat="35.204242" lon="128.993966">
        <ele>12.84</ele>
      </trkpt>
      <trkpt lat="35.204568" lon="128.994306">
        <ele>5.72</ele>
      </trkpt>
      <trkpt lat="35.204821" lon="128.99454">
        <ele>2.74</ele>
      </trkpt>
      <trkpt lat="35.205626" lon="128.99533">
        <ele>6.56</ele>
      </trkpt>
      <trkpt lat="35.206678" lon="128.996375">
        <ele>13.44</ele>
      </trkpt>
    </trkseg>
  </trk>
</gpx>
